House number,Street name,Postal code,Latitude,Longitude
720,Magnolia Road,29407,32.7873989,-79.9923128
1300,Fort Johnson Road,29412,32.7232336,-79.9509231
5,Saint Teresa Drive,29407,32.7820177,-79.9831448
5,Windsor Drive,29407,32.8265647,-79.9872797
171,Ashley Avenue,29425,32.7841833,-79.9472016
1830,Bohicket Road,29455,32.7194870,-80.0790270
1900,Ashley Crossing Drive,29414,32.8159849,-80.0370102
1836,Ashley River Road,29407,32.8036152,-80.0186979
730,Rutledge Avenue,29403,32.8030255,-79.9532177
3418,Shelby Ray Court,29414,32.8191924,-80.0651202
3417,Shelby Ray Court,29414,32.8201751,-80.0652597
177,Meeting Street,29402,32.7803774,-79.9316419
677,King Street,29403,32.7918339,-79.9402288
239,King Street,29401,32.7813146,-79.9334765
493,King Street,29403,32.7898394,-79.9392138
18,Pinckney Street,29401,32.7824760,-79.9286330
364,King Street,29401,32.7852431,-79.9357545
468,King Street,29403,32.7898025,-79.9387879
166,Church Street,29401,32.7804752,-79.9292291
51,South Market Street,29401,32.7806082,-79.9289558
269,King Street,29401,32.7828740,-79.9346710
299,King Street,29401,32.7833290,-79.9347340
497,King Street,29403,32.7893532,-79.9388439
19,Vendue Range,29415,32.7786197,-79.9266963
235,Meeting Street,29401,32.7822542,-79.9319071
1836,Ashley River Road,29407,32.8039387,-80.0176225
1610,Sam Rittenberg Boulevard,29407,32.8081147,-80.0107247
1836,Ashley River Road,29407,32.8039953,-80.0176978
975,Savannah Highway,29407,32.7809226,-79.9897402
205,East Bay Street,29401,32.7801960,-79.9272620
209,Market Street,29401,32.7813886,-79.9317985
59,George Street,29401,32.7834785,-79.9364409
387,King Street,29403,32.7858681,-79.9365167
141,Market Street,29401,32.7805100,-79.9328730
305,King Street,29401,32.7835336,-79.9348768
303,King Street,29401,32.7834773,-79.9348338
309,King Street,29401,32.7836533,-79.9349411
317,King Street,29401,32.7838832,-79.9350833
301,King Street,29401,32.7834188,-79.9347775
307,King Street,29401,32.7835946,-79.9349170
311,King Street,29401,32.7837187,-79.9349840
315,King Street,29401,32.7838267,-79.9350618
313,King Street,29401,32.7837773,-79.9350296
320,King Street,29401,32.7839439,-79.9349304
314,King Street,29401,32.7837322,-79.9347775
310,King Street,29401,32.7835495,-79.9346756
312,King Street,29401,32.7836533,-79.9347373
318,King Street,29401,32.7838673,-79.9348714
302,King Street,29401,32.7833036,-79.9344905
322,King Street,29401,32.7840087,-79.9349541
328A,King Street,29401,32.7841303,-79.9350589
316,King Street,29401,32.7837951,-79.9348231
308,King Street,29401,32.7834840,-79.9346246
304,King Street,29401,32.7833578,-79.9345227
310B,King Street,29401,32.7835834,-79.9346997
324,King Street,29401,32.7840454,-79.9350001
306,King Street,29401,32.7834210,-79.9345790
310,King Street,29401,32.7836081,-79.9347131
480,Seven Farms Dr,29492,32.8560559,-79.9239884
1014,Fort Johnson Road,29412,32.7298662,-79.9351662
975,Savannah Highway,29407,32.7826043,-79.9902652
975,Savannah Highway,29407,32.7818487,-79.9906769
975,Savannah Highway,29407-7864,32.7808341,-79.9892620
2245,Ashley Crossing Drive,29414,32.8132456,-80.0401933
520,Folly Road,29412-3019,32.7536010,-79.9709578
1739,Maybank Highway,29412,32.7619407,-79.9770981
333,Folly Road,29412,32.7593495,-79.9746730
341,Folly Road,29412,32.7583212,-79.9740997
343,Folly Road,29412,32.7579049,-79.9740962
1503,Old Towne Road,29407,32.8146697,-79.9944782
1401,Sam Rittenberg Boulevard,29407,32.8130670,-79.9963831
1535,Savannah Highway,29407,32.7841693,-80.0079621
1540,Savannah Highway,29407-7845,32.7869227,-80.0102493
230,Spring Street,29403-5102,32.7871530,-79.9547517
92,Courtenay Dr,29403,32.7873265,-79.9524815
239 1/2,King Street,29401,32.7812229,-79.9334271
714,Rutledge Avenue,29403,32.8022470,-79.9529187
156,Spring Street,29403,32.7891043,-79.9500911
1751,Dogwood Road,29414,32.8272649,-80.0364882
129,Market Street,29401,32.7805139,-79.9320978
2031,Sam Rittenberg Blvd,29407,32.7926195,-80.0291382
1666,Sparkleberry Lane,29455,32.7481097,-80.0561015
1654,Sparkleberry Lane,29455,32.7485106,-80.0564059
1662,Sparkleberry Lane,29455,32.7482266,-80.0562185
1658,Sparkleberry Lane,29455,32.7483707,-80.0563147
2904,Bell Flower Lane,29455,32.7480008,-80.0562986
2909,Bell Flower Lane,29455,32.7479511,-80.0565347
2905,Bell Flower Lane,29455,32.7480822,-80.0564652
2924,Bell Flower Lane,29455,32.7472971,-80.0566047
2912,Bell Flower Lane,29455,32.7477255,-80.0564328
2928,Bell Flower Lane,29455,32.7471392,-80.0566637
2908,Bell Flower Lane,29455,32.7478835,-80.0563684
2916,Bell Flower Lane,29455,32.7475861,-80.0564810
2920,Bell Flower Lane,29455,32.7474370,-80.0565508
2921,Bell Flower Lane,29455,32.7475151,-80.0567291
2925,Bell Flower Lane,29455,32.7473572,-80.0567720
2929,Bell Flower Lane,29455,32.7472128,-80.0568418
2913,Bell Flower Lane,29455,32.7478174,-80.0566165
2917,Bell Flower Lane,29455,32.7476595,-80.0566647
47,Spring Street,29403,32.7922297,-79.9427979
1826,Meeting Street Rd,29405,32.8287150,-79.9516029
1,Cunnington Avenue,29405,32.8161494,-79.9502302
202,Calhoun Street,29401,32.7848390,-79.9396489
630,Skylark Drive,29407,32.7913584,-80.0293075
67,State Street,29401,32.7807375,-79.9286166
1634,Sam Rittenberg Bsoulevard,29407,32.8063581,-80.0109778
65,Gadsden Street,29401,32.7816134,-79.9465267
3864,Savannah Highway,29455,32.8016723,-80.1252476
2245,Savannah Highway,29414,32.7913742,-80.0409526
2070,Sam Rittenberg Boulevard,29407-4605,32.8001983,-80.0307657
278,East Bay Street,29401,32.7844248,-79.9289436
247,Congress Street,29403,32.7954915,-79.9543421
80,Saint Philip Street,29424,32.7867672,-79.9385046
211,King Street,29401,32.7802666,-79.9336207
3575,Maybank Highway,29455,32.7209744,-80.0786783
155,Meeting Street,29401,32.7794568,-79.9315676
225,East Bay Street,29401,32.7808103,-79.9274468
2021,Proximity Drive,29414,32.8228255,-80.0887574
2770,Maybank Highway,29455,32.7450242,-80.0380581
1610 D,Sam Rittenberg Boulevard,29407,32.8073681,-80.0111679
1610 C,Sam Rittenberg Boulevard,29407,32.8072621,-80.0110848
6,Vendue Range,29401,32.7790427,-79.9260056
481,King Street,29403,32.7894859,-79.9389405
223,Meeting Street,29401,32.7818712,-79.9318668
35,South Market Street,29401,32.7806464,-79.9280529
153,East Bay Street,29401,32.7781768,-79.9271848
188,East Bay Street,29401,32.7796087,-79.9269606
198,East Bay Street,29401,32.7801660,-79.9269958
4,Vanderhorst Street,29403,32.7872435,-79.9377755
221,Coming Street,29403,32.7916478,-79.9436936
199,Saint Philip Street,29403,32.7919760,-79.9424040
114,Saint Philip Street,29403,32.7875782,-79.9390525
464,North Nasseau Street,29403,32.8087228,-79.9466141
142,Market Street,29401,32.7807520,-79.9328283
70 1/2,Beaufain Street,29401,32.7798771,-79.9376601
476,King Street,29403,32.7899896,-79.9389520
90,Society Street,29401,32.7833633,-79.9339751
212,Rutledge Avenue,29403,32.7894459,-79.9468155
698,King Street,29403,32.7983243,-79.9460145
513,King Street,29403,32.7903797,-79.9395456
159,Market Street,29401,32.7803770,-79.9347378
501,King Street,29403,32.7900736,-79.9393525
1812,Beekman Street,29492,32.8484451,-79.9071517
28,Woolfe Street,29403,32.7928139,-79.9393704
1963,Savannah Highway,29407,32.7888664,-80.0289777
682,King Street,29403,32.7976469,-79.9452318
685,King Street,29403,32.7965579,-79.9446122
563,King Street,29403,32.7916606,-79.9404709
710,King Street,29403,32.7988486,-79.9466158
550,King Street,29403,32.7923213,-79.9406023
511,King Street,29403,32.7902874,-79.9394825
654,King Street,29403,32.7965443,-79.9433060
652,King Street,29403,32.7961475,-79.9436332
630,King Street,29403,32.7952457,-79.9427883
544,King Street,29403,32.7921995,-79.9404709
4,Cannon Street,29403,32.7920282,-79.9411656
526,King Street,29403,32.7914859,-79.9399975
555,King Street,29403,32.7913934,-79.9403180
549,King Street,29403,32.7913325,-79.9402764
502,King Street,29403,32.7908399,-79.9395871
492,King Street,29403,32.7904182,-79.9392706
501,King Street,29403,32.7901521,-79.9393779
495,King Street,29403,32.7899605,-79.9392961
453,King Street,29403,32.7885988,-79.9383354
478,King Street,29403,32.7900473,-79.9390305
478,King Street,29403,32.7901307,-79.9390614
462,King Street,29403,32.7895411,-79.9386470
487,King Street,29403,32.7896290,-79.9390145
433,King Street,29403,32.7882292,-79.9380178
431,King Street,29403,32.7881698,-79.9379767
451,King Street,29401,32.7885549,-79.9382965
474,King Street,29403,32.7899195,-79.9389133
515;5,Robert Daniel Drive,29492,32.8684018,-79.9036027
4,Archdale Street,29401,32.7807503,-79.9350000
1812,Sam Rittenberg Boulevard,29407,32.8025953,-80.0195776
1812,Sam Rittenberg Boulevard,29407,32.8023902,-80.0194019
3005,Memorial Drive,29414,32.8074159,-80.0770789
180,Lockwood Drive,29403,32.7889786,-79.9598054
192,East Bay Street,29401,32.7798030,-79.9268229
2070,Sam Rittenburg Boulevard,29407,32.8013706,-80.0308819
1402,Legrand Boulevard,29492,32.8947985,-79.9302697
92,Hasell St,29401,32.7820746,-79.9330449
895,Island Park Drive,29492,32.8618294,-79.9071404
1565,Sam Rittenberg Blvd,29407,32.8068152,-80.0079122
16,Blake Street,29403,32.7985103,-79.9358220
730,Hopewell Drive,29492,32.9216913,-79.8710527
2070,Sam Rittenberg,29407,32.7983400,-80.0318979
215,Promenade Vista Street,29412,32.7619275,-79.9802943
2805,Jobee Drive,29414,32.8427150,-80.0520362
3520,Meek's Farm Rd # B2,29455,32.7319602,-80.0581090
1630,Ashley Hall Road,29407,32.8089332,-80.0091736
162,Seven Farms Drive,29492-7595,32.8634366,-79.9038429
1319,Sam Rittenberg Boulevard,29407,32.8140932,-79.9974445
95,Ripley Point Drive,29407,32.7771831,-79.9643834
441,Meeting Street,29403,32.7936134,-79.9390543
1,Cool Blow Street,29403,32.8060637,-79.9442181
106,Grove Street,29403,32.8032186,-79.9541005
391,Huger Street,29403,32.7991308,-79.9503244
384,Huger Street,29403,32.7994550,-79.9501436
3865,West Ashley Circle,29414,32.8262881,-80.0852468
1280,Ashley River Road,29407,32.8033197,-80.0171092
579,Folly Road,29422,32.7497540,-79.9735013
32,Windermere Boulevard,29407,32.7772506,-79.9755246
1070,Jenkins Rd,29407,32.7979409,-80.0206052
520,Folly Road,29412,32.7537691,-79.9705969
3596,Walkers Ferry Lane,29455,32.7158907,-80.0710452
196,Tradd Street,29401,32.7734067,-79.9449882
196,Tradd Street,29401,32.7735415,-79.9453364
571,Savannah Highway,29407,32.7803259,-79.9778212
2170,Savannah Highway,29414,32.7917309,-80.0383259
1272,Ashley Hall Road,29445,32.8024220,-80.0070876
1318,Ashley Hall Road,29445,32.8038548,-80.0076097
7770,Farr Street,29492,32.8530762,-79.9202370
520,Folly Road,29412,32.7527537,-79.9711545
3,Broad Street,29401,32.7767135,-79.9273624
1291,Folly Road,29412,32.7159785,-79.9677902
1291,Folly Road,29412,32.7157975,-79.9677374
41,Grand Oaks Boulevard,29414,32.8249257,-80.0860332
233,Hoggard Lane,29455,32.7949753,-80.1075703
1752,River Road,29455,32.7444814,-80.0398938
2790,Maybank Highway,29455,32.7443667,-80.0380847
2802,Maybank Highway,29455,32.7437489,-80.0389547
2802,Maybank Highway,29455,32.7436073,-80.0388330
2790,Maybank Highway,29455,32.7441635,-80.0381978
2245,Savannah Highway,29414,32.7912693,-80.0409692
475,East Bay Street,29403,32.7889301,-79.9297688
2243,Ashley Crossing Drive,29414,32.8129692,-80.0391922
1300,Fort Johnson Road,29412,32.7228729,-79.9516198
1291,Folly Road,29412,32.7173785,-79.9681252
74,Folly Road Boulevard,29407,32.7765197,-79.9749346
2144,Savannah Highway,29414,32.7928005,-80.0368098
1125,Savannah Highway,29407,32.7827355,-79.9962847
1133,Savannah Highway,29407,32.7829162,-79.9969945
1812,Sam Rittenberg Boulevard,29407,32.8007635,-80.0199619
1812,Sam Rittenberg Boulevard,29407,32.8009912,-80.0199526
225,Meeting Street,29401,32.7820064,-79.9318823
196,Tradd Street,29401,32.7745000,-79.9439309
147,Wappoo Creek Drive,29412,32.7656560,-79.9751337
560,King Street,29403,32.7931150,-79.9402969
10,Westedge Street,29403,32.7868329,-79.9571693
65,Fairchild Street,29492,32.8652959,-79.9081859
2051,Sam Rittenberg Boulevard,29407,32.7916641,-80.0307060
811,"Savannah Hwy, Ste B",29407,32.7817125,-79.9853952
3951,West Ashley Circle,29414-9156,32.8214833,-80.0812945
3951,W ASHLEY CIR,29414-9156,32.8218010,-80.0821419
3951,W ASHLEY CIR,29414-9156,32.8218612,-80.0805645
3575,Maybank Hw,29455,32.7211190,-80.0802497
1005,Harbor View Road,29412,32.7416739,-79.9363734
1963,Savannah Highway,29407,32.7888793,-80.0290236
32B,North Market Street,29401,32.7812983,-79.9278467
1196,Sam Rittenberg Boulevard,29407,32.8170100,-79.9952112
1617,Juliana Street,29492,32.8391694,-79.9076267
3,South Park CIrcle,29407,32.7953704,-80.0302739
22,Westedge Street,29403,32.7874256,-79.9563367
1662,Savannah Highway,29407,32.7885170,-80.0158404
1730B,Savannah Highway,29407,32.7880829,-80.0181524
2875,Ashley River Rd,29414,32.8431124,-80.0589932
210,Promenade Vista Street,29412,32.7612545,-79.9794484
1316,Ashley Hall Road,29445,32.8037934,-80.0075881
1314,Ashley Hall Road,29445,32.8037321,-80.0075665
1312,Ashley Hall Road,29445,32.8036708,-80.0075450
1310,Ashley Hall Road,29445,32.8036095,-80.0075234
1308,Ashley Hall Road,29445,32.8035482,-80.0075018
1306,Ashley Hall Road,29445,32.8034739,-80.0074755
1304,Ashley Hall Road,29445,32.8034092,-80.0074525
1302,Ashley Hall Road,29445,32.8033496,-80.0074310
1300,Ashley Hall Road,29445,32.8032883,-80.0074080
1298,Ashley Hall Road,29445,32.8032332,-80.0073864
1296,Ashley Hall Road,29445,32.8031803,-80.0073722
1294,Ashley Hall Road,29445,32.8030846,-80.0073332
1292,Ashley Hall Road,29445,32.8030267,-80.0073129
1290,Ashley Hall Road,29445,32.8029699,-80.0072927
1288,Ashley Hall Road,29445,32.8029092,-80.0072704
1286,Ashley Hall Road,29445,32.8028484,-80.0072481
1284,Ashley Hall Road,29445,32.8028001,-80.0072319
1282,Ashley Hall Road,29445,32.8027010,-80.0071956
1280,Ashley Hall Road,29445,32.8026402,-80.0071666
1278,Ashley Hall Road,29445,32.8025806,-80.0071497
1276,Ashley Hall Road,29445,32.8025199,-80.0071227
1274,Ashley Hall Road,29445,32.8024681,-80.0071012
1710,Sam Rittenburg Boulevard,29407,32.8047059,-80.0132641
610,Wesley Drive,29407,32.7805143,-79.9728649
3575,Maybank Hwy,29455,32.7204249,-80.0792057
283,Meeting Street,29401,32.7845662,-79.9331376
168,Church Street,29401,32.7805972,-79.9293699
301,King Street,29401,32.7833109,-79.9352220
3548,Meeks Farm Rd,29455,32.7305727,-80.0576807
997,Morrison Dr,29403,32.8077007,-79.9436342
147,Wappoo Creek Dr.,29412,32.7655997,-79.9750433
472,Meeting Street,29403,32.7952560,-79.9396639
826,Foundation Street,29492,32.9223057,-79.8675123
162,Seven Farms Road,29492,32.8625855,-79.9039408
2070,Sam Rittenberg Boulevard,29407,32.7988135,-80.0308441
1300,Savannah Highway,29407,32.7854116,-80.0010428
1319,Sam Rittenberg Boulevard,29407,32.8141988,-79.9972768
4,Avenue of Remembrance,29409,32.7986083,-79.9595515
99,Westedge Street,29403,32.7899337,-79.9597478
99,Westedge Road,29403,32.7899697,-79.9590907
220,Spring Street,29403,32.7874275,-79.9537590
492,Meeting Street,29403,32.7964532,-79.9403361
162,Calhoun Street,29401,32.7853800,-79.9380100
51,George Street,29401,32.7838033,-79.9357940
374,King Street,29401,32.7856142,-79.9360047
211,King Street,29401-3128,32.7804500,-79.9334010
351,King Street,29401,32.7848645,-79.9357708
1727,Pineview Rd,29407,32.7953645,-80.0156084
96,Broad Street,29401,32.7765084,-79.9320415
170,Meeting Street,29401,32.7795619,-79.9312739
68,Calhoun Street,29401,32.7889851,-79.9306965
122,East Bay Street,29401,32.7768566,-79.9268796
106,East Bay Street,29401,32.7762590,-79.9268772
104,East Bay Street,29401,32.7761759,-79.9268883
102,East Bay Street,29401,32.7760860,-79.9269004
20,Boyces Wharf,29401,32.7760266,-79.9267685
18,Boyces Wharf,29401,32.7760249,-79.9266822
16,Boyces Wharf,29401,32.7760229,-79.9265832
17,East Elliott Street,29401,32.7762767,-79.9265164
19,East Elliott Street,29401,32.7762688,-79.9266112
21,East Elliott Street,29401,32.7762613,-79.9266998
196,Tradd Street,29401,32.7738495,-79.9434681
196,Tradd Street,29401,32.7736534,-79.9429616
196,Tradd Street,29401,32.7743615,-79.9429298
91,Church Street,29401,32.7754525,-79.9292353
89,Church Street,29401,32.7753722,-79.9292284
188,Meeting Street,29401,32.7807600,-79.9312434
200,East Bay Street,29401,32.7808281,-79.9264882
6,Church Street,29401,32.7706812,-79.9292080
4,South Battery Street,29401,32.7704344,-79.9292641
1,East Battery,29401,32.7702879,-79.9287886
5,East Battery,29401,32.7706307,-79.9287308
9,East Battery,29401,32.7708430,-79.9286312
13,East Battery,29401,32.7710478,-79.9286446
17,East Battery,29401,32.7713130,-79.9284745
19,East Battery,29401,32.7714718,-79.9283245
21,East Battery,29401,32.7717204,-79.9283278
25,East Battery,29401,32.7719894,-79.9281316
1,Atlantic Street,29401,32.7719598,-79.9284569
3,Atlantic Street,29401,32.7719750,-79.9285971
5,Atlantic Street,29401,32.7719125,-79.9287264
7,Atlantic Street,29401,32.7719189,-79.9288947
26,Church Street,29401,32.7719339,-79.9293041
22,Church Street,29401,32.7717782,-79.9292619
20,Church Street,29401,32.7716675,-79.9291856
18,Church Street,29401,32.7714904,-79.9292607
16,Church Street,29401,32.7712947,-79.9292774
12,Church Street,29401,32.7711245,-79.9292720
8,Church Street,29401,32.7708579,-79.9292783
8,South Battery Street,29401,32.7704428,-79.9296053
3,Church Street,29401,32.7705999,-79.9295896
7,Church Street,29401,32.7706820,-79.9297557
9,Church Street,29401,32.7708527,-79.9296733
11,Church Street,29401,32.7709902,-79.9296814
13,Church Street,29401,32.7711230,-79.9296682
15,Church Street,29401,32.7712928,-79.9297125
2,Meeting Street,29401,32.7705385,-79.9299952
8,Meeting Street,29401,32.7708859,-79.9300809
10,Meeting Street,29401,32.7710500,-79.9301034
12,Meeting Street,29401,32.7712144,-79.9300926
16,Meeting Street,29401,32.7715226,-79.9300233
18,Meeting Street,29401,32.7717901,-79.9301417
17,Atlantic Street,29401,32.7719163,-79.9297907
20,Meeting Street,29401,32.7719008,-79.9302053
21,Atlantic Street,29401,32.7719067,-79.9300864
15,Atlantic Street,29401,32.7719264,-79.9295874
19,Church Street,29401,32.7716144,-79.9295963
20,South Battery Street,29401,32.7707116,-79.9308497
3,Meeting Street,29401,32.7707229,-79.9305613
1,Meeting Street,29401,32.7705788,-79.9305337
7,Meeting Street,29401,32.7709585,-79.9305581
11,Meeting Street,29401,32.7712900,-79.9306530
17,Meeting Street,29401,32.7717545,-79.9306721
13,Meeting Street,29401,32.7716127,-79.9309620
31,East Battery,29401,32.7725369,-79.9278412
29,East Battery,29401,32.7723570,-79.9279781
1,Water Street,29401,32.7725957,-79.9281323
3,Water Street,29401,32.7726388,-79.9282929
5,Water Street,29401,32.7727893,-79.9286354
2,Atlantic Street,29401,32.7722926,-79.9283264
2 ½,Atlantic Street,29401,32.7722718,-79.9285269
4,Atlantic Street,29401,32.7722061,-79.9287105
6,Atlantic Street,29401,32.7722152,-79.9288863
11,Water Street,29401,32.7729147,-79.9289639
44,Church Street,29401,32.7730049,-79.9291083
38,Church Street,29401,32.7726380,-79.9292901
34,Church Street,29401,32.7724725,-79.9293180
32,Church Street,29401,32.7723663,-79.9293166
30,Church Street,29401,32.7722725,-79.9293311
14,Atlantic Street,29401,32.7721651,-79.9293496
10,Atlantic Street,29401,32.7722493,-79.9291441
8,Atlantic Street,29401,32.7722318,-79.9290189
3,Zig Zag Alley,29401,32.7724688,-79.9288032
2,Zig Zag Alley,29401,32.7724987,-79.9285403
4,Zig Zag Alley,29401,32.7726162,-79.9287608
0,Zig Zag Alley,29401,32.7727424,-79.9289626
42,Church Street,29401,32.7728442,-79.9291465
36,Meeting Street,29401,32.7730391,-79.9302957
34,Meeting Street,29401,32.7728372,-79.9303482
38,Meeting Street,29401,32.7732011,-79.9303287
42,Meeting Street,29401,32.7733792,-79.9304163
13,Water Street,29401,32.7731287,-79.9297678
15,Water Street,29401,32.7731316,-79.9298911
19,Water Street,29401,32.7732121,-79.9301071
17,Water Street,29401,32.7732236,-79.9299970
30,Meeting Street,29401,32.7725734,-79.9302823
26,Meeting Street,29401,32.7723259,-79.9301956
22,Atlantic Street,29401,32.7721013,-79.9300744
20,Atlantic Street,29401,32.7721619,-79.9299137
18,Atlantic Street,29401,32.7721796,-79.9297928
16,Atlantic Street,29401,32.7721545,-79.9296378
29,Church Street,29401,32.7723134,-79.9296600
31,Church Street,29401,32.7724170,-79.9296661
33,Church Street,29401,32.7725171,-79.9296721
35,Church Street,29401,32.7726195,-79.9296877
37,Church Street,29401,32.7727411,-79.9296993
39,Church Street,29401,32.7728885,-79.9296731
41,Church Street,29401,32.7730008,-79.9296078
43,Church Street,29401,32.7731250,-79.9295273
16,King Street,29401,32.7718084,-79.9319759
20,King Street,29401,32.7719226,-79.9319766
22,King Street,29401,32.7720605,-79.9319725
24,King Street,29401,32.7721621,-79.9320046
9,Ladson Street,29401,32.7723514,-79.9319777
7,Ladson Street,29401,32.7723659,-79.9316451
5,Ladson Street,29401,32.7723954,-79.9314378
3,Ladson Street,29401,32.7724451,-79.9312920
31,Meeting Street,29401,32.7725136,-79.9310499
27,Meeting Street,29401,32.7722644,-79.9307967
25,Meeting Street,29401,32.7721904,-79.9306932
23,Meeting Street,29401,32.7721173,-79.9307469
21,Meeting Street,29401,32.7719910,-79.9307392
2,Lamboll Street,29401,32.7719418,-79.9310427
4,Lamboll Street,29401,32.7719052,-79.9311873
6,Lamboll Street,29401,32.7720966,-79.9313599
6,Lamboll Street,29401,32.7719107,-79.9313993
6 ½,Lamboll Street,29401,32.7720634,-79.9315931
8,Lamboll Street,29401,32.7718208,-79.9317606
2,Ladson Street,29401,32.7727550,-79.9311850
35,Meeting Street,29401,32.7728363,-79.9308324
37,Meeting Street,29401,32.7729854,-79.9309693
39,Meeting Street,29401,32.7731222,-79.9309872
41,Meeting Street,29401,32.7732356,-79.9309078
43,Meeting Street,29401,32.7733349,-79.9309159
45,Meeting Street,29401,32.7734531,-79.9309330
47,Meeting Street,29401,32.7736578,-79.9308699
3,Lamboll Street,29401,32.7715409,-79.9313031
5,Lamboll Street,29401,32.7715925,-79.9314593
7,Lamboll Street,29401,32.7716619,-79.9316059
12,King Street,29401,32.7716439,-79.9319110
10,King Street,29401,32.7715556,-79.9318456
8,King Street,29401,32.7714294,-79.9319042
6,King Street,29401,32.7713719,-79.9316659
4,King Street,29401,32.7712161,-79.9319350
2,King Street,29401,32.7709823,-79.9318777
34,South Battery Street,29401,32.7707432,-79.9318866
32,South Battery Street,29401,32.7708321,-79.9316844
30,South Battery Street,29401,32.7707808,-79.9315470
26,South Battery Street,29401,32.7707709,-79.9312672
50,East Bay Street,29401,32.7737859,-79.9267110
44,East Bay Street,29401,32.7732745,-79.9266045
40,East Bay Street,29401,32.7732356,-79.9271504
60,East Bay Street,29401,32.7739817,-79.9256011
2,Water Street,29401,32.7727104,-79.9277467
39,East Bay Street,29401,32.7730464,-79.9276916
41,East Bay Street,29401,32.7732204,-79.9276663
43,East Bay Street,29401,32.7733924,-79.9276481
45,East Bay Street,29401,32.7735220,-79.9276578
47,East Bay Street,29401,32.7736837,-79.9275831
51,East Bay Street,29401,32.7739167,-79.9278396
53,East Bay Street,29401,32.7740615,-79.9274838
55,East Bay Street,29401,32.7741393,-79.9276159
57,East Bay Street,29401,32.7742298,-79.9275514
59,East Bay Street,29401,32.7743424,-79.9275226
63,East Bay Street,29401,32.7745415,-79.9274702
7-5,Longitude Lane,29401,32.7743501,-79.9277871
15,Longitude Lane,29401,32.7744082,-79.9280321
17,Longitude Lane,29401,32.7744125,-79.9282037
21,Longitude Lane,29401,32.7743505,-79.9283689
23,Longitude Lane,29401,32.7741007,-79.9283995
64,Church Street,29401,32.7740875,-79.9287836
62,Church Street,29401,32.7739842,-79.9286915
60,Church Street,29401,32.7738796,-79.9287596
70,Church Street,29401,32.7743710,-79.9287892
66,Church Street,29401,32.7741944,-79.9287688
25,Longitude Lane,29401,32.7744506,-79.9286767
28,Longitude Lane,29401,32.7745593,-79.9287090
74,Church Street,29401,32.7745598,-79.9288982
78,Church Street,29401,32.7747142,-79.9289635
76,Church Street,29401,32.7746300,-79.9288944
58,Church Street,29401,32.7737960,-79.9287889
56,Church Street,29401,32.7737133,-79.9287174
54,Church Street,29401,32.7735541,-79.9287752
50,Church Street,29401,32.7732972,-79.9287290
4,Stoll's Alley,29401,32.7736149,-79.9281644
2,Stoll's Alley,29401,32.7737006,-79.9282446
10,Stoll's Alley,29401,32.7736109,-79.9285255
52,Church Street,29401,32.7734155,-79.9287980
11,Stoll's Alley,29401,32.7734649,-79.9286563
9,Stoll's Alley,29401,32.7734347,-79.9285167
7,Stoll's Alley,29401,32.7734276,-79.9284096
5,Stoll's Alley,29401,32.7733870,-79.9282775
7 ½,Stoll's Alley,29401,32.7732829,-79.9284082
48,Church Street,29401,32.7731807,-79.9287378
46,Church Street,29401,32.7730902,-79.9287771
12,Water Street,29401,32.7730446,-79.9285257
6,Water Street,29401,32.7729716,-79.9281484
10,Water Street,29401,32.7730050,-79.9283912
45,Church Street,29401,32.7732547,-79.9292301
47,Church Street,29401,32.7733390,-79.9291770
51,Church Street,29401,32.7735525,-79.9293536
53,Church Street,29401,32.7736403,-79.9291650
55,Church Street,29401,32.7737425,-79.9291814
59,Church Street,29401,32.7739925,-79.9292401
20,Water Street,29401,32.7734768,-79.9296471
18,Water Street,29401,32.7733678,-79.9296640
16,Water Street,29401,32.7733336,-79.9295530
22,Water Street,29401,32.7735324,-79.9298385
24,Water Street,29401,32.7735143,-79.9300224
26,Water Street,29401,32.7735880,-79.9302470
48,Meeting Street,29401,32.7738043,-79.9304293
44,Meeting Street,29401,32.7736076,-79.9304308
50,Meeting Street,29401,32.7740001,-79.9303506
54,Meeting Street,29401,32.7742028,-79.9304608
1 ½,Ford Court,29401,32.7742708,-79.9300501
3,Ford Court,29401,32.7742546,-79.9299194
56,Meeting Street,29401,32.7743431,-79.9304499
8,Ford Court,29401,32.7743958,-79.9301358
2,Ford Court,29401,32.7744177,-79.9299740
58,Meeting Street,29401,32.7745432,-79.9306257
61,Tradd Street,29401,32.7745704,-79.9303951
59,Tradd Street,29401,32.7745886,-79.9302625
57,Tradd Street,29401,32.7746244,-79.9301497
53-51,Tradd Street,29401,32.7746523,-79.9299842
49,Tradd Street,29401,32.7746988,-79.9298399
45,Tradd Street,29401,32.7747185,-79.9297164
43-41,Tradd Street,29401,32.7746993,-79.9295945
77,Church Street,29401,32.7747966,-79.9292080
35,Tradd Street,29401,32.7747375,-79.9293679
73,Church Street,29401,32.7746210,-79.9291912
71,Church Street,29401,32.7745281,-79.9293152
69,Church Street,29401,32.7744057,-79.9292914
71,East Bay Street,29401,32.7748149,-79.9274827
69,East Bay Street,29401,32.7747619,-79.9274367
1,Tradd Street,29401,32.7750267,-79.9274153
75,East Bay Street,29401,32.7749461,-79.9274469
7,Tradd Street,29401,32.7749495,-79.9278377
9,Tradd Street,29401,32.7748919,-79.9279318
6,Longitude Lane,29401,32.7746765,-79.9278959
4,Longitude Lane,29401,32.7748433,-79.9277335
13,Tradd Street,29401,32.7748936,-79.9280513
17,Tradd Street,29401,32.7748728,-79.9282245
19,Tradd Street,29401,32.7748470,-79.9283292
80,Church Street,29401,32.7748485,-79.9288885
29,Tradd Street,29401,32.7747857,-79.9287246
27,Tradd Street,29401,32.7748061,-79.9286188
25,Tradd Street,29401,32.7748325,-79.9285213
23,Tradd Street,29401,32.7748566,-79.9284324
15,Tradd Street,29401,32.7747457,-79.9281095
35,Lockwood Drive,29401,32.7829955,-79.9561533
1,King Street,29401,32.7699449,-79.9321523
80-76,East Bay Street,29401,32.7746523,-79.9270416
28,Murray Boulevard,29401,32.7700363,-79.9352351
65,South Battery Street,29401,32.7704787,-79.9348568
27,King Street,29401,32.7723888,-79.9324732
71,Broad Street,29401,32.7763163,-79.9307397
80,Broad Street,29401,32.7767311,-79.9307936
63,Concord Street,29401,32.7765875,-79.9256678
99,Jonathan Lucas Street,29425,32.7844111,-79.9487953
19,Hagood Avenue,29403,32.7877807,-79.9556310
83,Broad Street,29401,32.7761850,-79.9313292
23,King Street,29401,32.7721406,-79.9323883
29,King Street,29401,32.7725662,-79.9326010
33,King Street,29401,32.7726807,-79.9325128
387,King Street,29403,32.7859582,-79.9368061
186,Concord Street,29401,32.7803894,-79.9247623
399,King Street,29401,32.7863613,-79.9370656
5,Middle Atlantic Wharf,29401,32.7773268,-79.9257786
70,East Bay Street,29401,32.7741763,-79.9271186
68,Calhoun Street,29401,32.7885495,-79.9311101
770,Daniel Ellis Drive,29412,32.7494291,-79.9678993
290,East Bay Street,29401,32.7845162,-79.9282051
337,Meeting Street,29403,32.7876721,-79.9359682
301,Savannah Highway,29407,32.7811084,-79.9651297
1656,Savannah Highway,29407,32.7875589,-80.0149816
135,Meeting Street,29401,32.7785196,-79.9317420
4,Archdale Street,29401,32.7785643,-79.9343563
19,Pinckney Street,29401,32.7822150,-79.9287386
83,Meeting Street,29401,32.7758897,-79.9315062
85,Broad Street,29401,32.7760265,-79.9318678
105,Meeting Street,29401,32.7774442,-79.9315376
115,Meeting Street,29401,32.7777601,-79.9316998
100,Meeting Street,29401,32.7772564,-79.9308855
171,Church Street,29401,32.7802492,-79.9300513
53,Meeting Street,29401,32.7742871,-79.9313685
145,King Street,29401,32.7774324,-79.9330628
165,Ashley Avenue,29425,32.7843725,-79.9471578
3800,Ashley River Road,29414,32.8689189,-80.0785955
108,Queen Street,29401,32.7777856,-79.9344335
155,Meeting Street,29401,32.7796285,-79.9319115
8,Murray Boulevard,29401,32.7698162,-79.9330540
10,Murray Boulevard,29401,32.7698360,-79.9332250
51,King Street,29401,32.7735185,-79.9329116
3050,Ashley Town Center Drive,29414,32.7952808,-80.0361585
1704,Sam Rittenberg Boulevard,29407,32.8051316,-80.0127350
1602,Sam Rittenberg Boulevard,29407,32.8072319,-80.0094588
1646,Sam Rittenberg Boulevard,29407,32.8058201,-80.0116164
1401,Sam Rittenberg Boulevard,29407-5031,32.8146308,-79.9952897
1313,Sam Rittenberg Boulevard,29407,32.8145468,-79.9966801
1,Ashley Point Drive,29407,32.7781209,-79.9594076
90,Ripley Point Drive,29407,32.7778471,-79.9657414
98,Ripley Point Drive,29407,32.7781480,-79.9636679
45,Windermere Boulevard;Windemere Blvd.,29407,32.7769979,-79.9760759
2109,Savannah Highway,29414,32.7904933,-80.0362591
71,George Street,29401,32.7826507,-79.9375956
108,Murray Boulevard,29401,32.7730888,-79.9427790
106,Murray Boulevard,29401,32.7729572,-79.9426552
104,Murray Boulevard,29401,32.7728503,-79.9425108
102,Murray Boulevard,29401,32.7727519,-79.9423872
100,Murray Boulevard,29401,32.7727015,-79.9422088
98,Murray Boulevard,29401,32.7725990,-79.9420746
96,Murray Boulevard,29401,32.7725023,-79.9419178
94,Murray Boulevard,29401,32.7724140,-79.9417614
143,South Battery Street,29401,32.7727921,-79.9415042
145,South Battery Street,29401,32.7728953,-79.9416819
149,South Battery Street,29401,32.7730541,-79.9420621
195,Tradd Street,29401,32.7731487,-79.9422736
92,Murray Boulevard,29401,32.7723253,-79.9414094
90,Murray Boulevard,29401,32.7722329,-79.9412343
88,Murray Boulevard,29401,32.7721454,-79.9410897
86,Murray Boulevard,29401,32.7720592,-79.9409207
84,Murray Boulevard,29401,32.7719784,-79.9407322
82,Murray Boulevard,29401,32.7719150,-79.9405721
78,Murray Boulevard,29401,32.7718418,-79.9403508
76,Murray Boulevard,29401,32.7717026,-79.9400915
30,Rutledge Boulevard,29401,32.7720724,-79.9398029
129,South Battery Street,29401,32.7722719,-79.9403238
127,South Battery Street,29401,32.7721881,-79.9401215
131,South Battery Street,29401,32.7722998,-79.9405669
135,South Battery Street,29401,32.7724345,-79.9407413
139,South Battery Street,29401,32.7725740,-79.9409941
141,South Battery Street,29401,32.7726676,-79.9411955
148,South Battery Street,29401,32.7732691,-79.9416501
1-11,Ashley Avenue,29401,32.7732125,-79.9412184
146,South Battery Street,29401,32.7731852,-79.9414124
142,South Battery Street,29401,32.7730264,-79.9409264
79,Gibbes Street,29401,32.7733194,-79.9407954
77,Gibbes Street,29401,32.7732523,-79.9406549
138,South Battery Street,29401,32.7728823,-79.9406830
136,South Battery Street,29401,32.7728167,-79.9405484
73,Gibbes Street,29401,32.7731297,-79.9404077
134,South Battery Street,29401,32.7727890,-79.9403774
67,Gibbes Street,29401,32.7730139,-79.9401763
132,South Battery Street,29401,32.7727158,-79.9402695
130,South Battery Street,29401,32.7726356,-79.9401237
128,South Battery Street,29401,32.7725602,-79.9400004
126,South Battery Street,29401,32.7724954,-79.9398734
124,South Battery Street,29401,32.7724566,-79.9397058
122,South Battery Street,29401,32.7723812,-79.9395739
63,Gibbes Street,29401,32.7729026,-79.9398829
61,Gibbes Street,29401,32.7728608,-79.9397751
59,Gibbes Street,29401,32.7727940,-79.9396675
57,Gibbes Street,29401,32.7727309,-79.9395172
27,Rutledge Boulevard,29401,32.7727010,-79.9393640
183,Tradd Street,29401,32.7734473,-79.9402687
179,Tradd Street,29401,32.7734340,-79.9400611
64,Gibbes Street,29401,32.7733257,-79.9399325
62,Gibbes Street,29401,32.7732728,-79.9398006
58,Gibbes Street,29401,32.7731948,-79.9396910
56,Gibbes Street,29401,32.7730743,-79.9394856
54,Gibbes Street,29401,32.7730284,-79.9393087
4,Rutledge Boulevard,29401,32.7732606,-79.9394046
173,Tradd Street,29401,32.7734708,-79.9393845
177,Tradd Street,29401,32.7735018,-79.9397162
175,Tradd Street,29401,32.7734622,-79.9395395
74,Murray Boulevard,29401,32.7715080,-79.9397125
29,Rutlede Boulevard,29401,32.7719312,-79.9394583
117,South Battery Street,29401,32.7717289,-79.9392305
115,South Battery Street,29401,32.7716900,-79.9390928
113,South Battery Street,29401,32.7716032,-79.9389746
111,South Battery Street,29401,32.7715417,-79.9388224
109,South Battery Street,29401,32.7714831,-79.9386418
64,Murray Boulevard,29401,32.7710992,-79.9388824
68,Murray Boulevard,29401,32.7711754,-79.9390649
70,Murray Boulevard,29401,32.7712652,-79.9392572
72,Murray Boulevard,29401,32.7714227,-79.9394311
120,South Battery Street,29401,32.7722602,-79.9392854
53,Gibbes Street,29401,32.7725365,-79.9390828
116,South Battery Street,29401,32.7721452,-79.9389891
112,South Battery Street,29401,32.7720220,-79.9387502
51,Gibbes Street,29401,32.7724146,-79.9388449
49,Gibbes Street,29401,32.7723912,-79.9386968
47,Gibbes Street,29401,32.7723082,-79.9385602
45,Gibbes Street,29401,32.7721679,-79.9383764
21,Council Street,29401,32.7721717,-79.9381742
108,South Battery Street,29401,32.7718602,-79.9383909
0,Rutledge Boulevard,29401,32.7736258,-79.9390418
1,Rutledge Boulevard,29401,32.7735297,-79.9390006
3,Rutledge Boulevard,29401,32.7734254,-79.9389842
5,Rutledge Boulevard,29401,32.7733193,-79.9389672
7,Rutledge Boulevard,29401,32.7732180,-79.9389493
9,Rutledge Boulevard,29401,32.7730811,-79.9388611
11,Rutledge Boulevard,29401,32.7728854,-79.9389394
52,Gibbes Street,29401,32.7728157,-79.9387842
50,Gibbes Street,29401,32.7727481,-79.9386822
48,Gibbes Street,29401,32.7727296,-79.9385511
42,Gibbes Street,29401,32.7725997,-79.9383640
40,Gibbes Street,29401,32.7725726,-79.9382489
38,Gibbes Street,29401,32.7724847,-79.9381271
15,Council Street,29401,32.7729011,-79.9382213
17,Council Street,29401,32.7727566,-79.9381704
13,Council Street,29401,32.7730041,-79.9382897
11,Council Street,29401,32.7731224,-79.9382310
9,Council Street,29401,32.7732246,-79.9382682
7,Council Street,29401,32.7733178,-79.9382815
5,Council Street,29401,32.7734495,-79.9382988
3,Council Street,29401,32.7736105,-79.9382811
1,Council Street,29401,32.7737044,-79.9383133
165,Tradd Street,29401,32.7736579,-79.9384468
169,Tradd Street,29401,32.7736094,-79.9387297
167,Tradd Street,29401,32.7735979,-79.9385654
62,Murray Boulevard,29401,32.7709893,-79.9385771
60,Murray Boulevard,29401,32.7708323,-79.9381627
58,Murray Boulevard,29401,32.7707466,-79.9380446
105,South Battery Street,29401,32.7712813,-79.9383419
99,South Battery Street,29401,32.7710943,-79.9378480
97,South Battery Street,29401,32.7710034,-79.9376837
52,Murray Boulevard,29401,32.7705021,-79.9374942
95,South Battery Street,29401,32.7708775,-79.9373476
91,South Battery Street,29401,32.7707826,-79.9370431
50,Murray Boulevard,29401,32.7705523,-79.9371890
48,Murray Boulevard,29401,32.7703319,-79.9371362
46,Murray Boulevard,29401,32.7702810,-79.9369584
40,Murray Boulevard,29401,32.7701736,-79.9365858
38,Murray Boulevard,29401,32.7701687,-79.9363716
36,Murray Boulevard,29401,32.7701272,-79.9361810
32,Murray Boulevard,29401,32.7700307,-79.9358089
17,Lenwood Boulevard,29401,32.7705824,-79.9355667
75,South Battery Street,29401,32.7705525,-79.9357463
77,South Battery Street,29401,32.7705066,-79.9359214
79,South Battery Street,29401,32.7705630,-79.9362189
83,South Battery Street,29401,32.7706106,-79.9364687
85,South Battery Street,29401,32.7706572,-79.9366279
87,South Battery Street,29401,32.7706824,-79.9367990
106,South Battery Street,29401,32.7717158,-79.9381085
32,Council Street,29401,32.7720438,-79.9379077
37,Gibbes Street,29401,32.7719778,-79.9377848
104,South Battery Street,29401,32.7716464,-79.9379521
102,South Battery Street,29401,32.7715873,-79.9378073
100,South Battery Street,29401,32.7715090,-79.9376721
98,South Battery Street,29401,32.7714763,-79.9375103
96,South Battery Street,29401,32.7713892,-79.9373868
27,Limehouse Street,29401,32.7717212,-79.9371814
31,Gibbes Street,29401,32.7718112,-79.9374303
35,Gibbes Street,29401,32.7718895,-79.9376994
33,Gibbes Street,29401,32.7718548,-79.9375539
94,South Battery Street,29401,32.7712456,-79.9371446
92,South Battery Street,29401,32.7712174,-79.9369173
19,Lowndes Street,29401,32.7715314,-79.9368310
17,Lowndes Street,29401,32.7714959,-79.9367065
88,South Battery Street,29401,32.7711258,-79.9366844
15,Lowndes Street,29401,32.7714351,-79.9365667
86,South Battery Street,29401,32.7710757,-79.9365375
13,Lowndes Street,29401,32.7714038,-79.9364253
84,South Battery Street,29401,32.7709860,-79.9363700
80,South Battery Street,29401,32.7710000,-79.9361316
7,Lowndes Street,29401,32.7713732,-79.9360996
5,Lowndes Street,29401,32.7713273,-79.9359099
3,Lowndes Street,29401,32.7712993,-79.9357267
74,South Battery Street,29401,32.7710055,-79.9356662
19,Gibbes Street,29401,32.7716538,-79.9361825
4,Lowndes Street,29401,32.7716528,-79.9359541
13,Gibbes Street,29401,32.7716884,-79.9357744
2,Lowndes Street,29401,32.7716145,-79.9356006
2,Council Street,29401,32.7737898,-79.9379118
4,Council Street,29401,32.7736864,-79.9379048
6,Council Street,29401,32.7735882,-79.9378974
8,Council Street,29401,32.7734852,-79.9379091
8 ½,Council Street,29401,32.7734297,-79.9377964
10,Council Street,29401,32.7733410,-79.9378289
14,Council Street,29401,32.7731614,-79.9378320
18,Council Street,29401,32.7729671,-79.9377818
20,Council Street,29401,32.7728768,-79.9377698
22,Council Street,29401,32.7727899,-79.9377549
28,Council Street,29401,32.7725439,-79.9377660
30,Council Street,29401,32.7723816,-79.9376684
36,Gibbes Street,29401,32.7722516,-79.9376760
34,Gibbes Street,29401,32.7722220,-79.9375043
30,Gibbes Street,29401,32.7721591,-79.9373279
28,Gibbes Street,29401,32.7720818,-79.9371555
26,Gibbes Street,29401,32.7719769,-79.9370588
21,Limehouse Street,29401,32.7723345,-79.9371289
19,Limehouse Street,29401,32.7724648,-79.9371625
17,Limehouse Street,29401,32.7725623,-79.9372099
15,Limehouse Street,29401,32.7726598,-79.9372030
9,Limehouse Street,29401,32.7731244,-79.9372839
7,Limehouse Street,29401,32.7732680,-79.9372992
5,Limehouse Street,29401,32.7733701,-79.9373058
3,Limehouse Street,29401,32.7734683,-79.9373004
1,Limehouse Street,29401,32.7735617,-79.9373400
161,Tradd Street,29401,32.7737535,-79.9376161
159,Tradd Street,29401,32.7737847,-79.9375034
157,Tradd Street,29401,32.7737766,-79.9373873
155,Tradd Street,29401,32.7738021,-79.9372784
66,Hassel Street,29401,32.7828438,-79.9313566
280,Meeting Street,29401,32.7845624,-79.9323715
480,King Street,29401,32.7895322,-79.9384554
6,North Market Street,29401,32.7814755,-79.9261695
326,King Street,29401,32.7841478,-79.9349399
294,King Street,29401,32.7832313,-79.9342653
328,King Street,29401,32.7842267,-79.9349667
332,King Street,29401,32.7844058,-79.9350577
292,King Street,29401,32.7830635,-79.9341853
298,King Street,29401,32.7832912,-79.9343045
288,King Street,29401,32.7829368,-79.9341038
290,King Street,29401,32.7830101,-79.9341499
276,King Street,29401,32.7826291,-79.9338645
284,King Street,29401,32.7828700,-79.9340213
278,King Street,29401,32.7827013,-79.9339108
281,King Street,29401,32.7826611,-79.9344318
282,King Street,29401,32.7828131,-79.9339718
280,King Street,29401,32.7827581,-79.9339473
60,Wentworth Street,29401,32.7830617,-79.9331538
87,Hassel Street,29401,32.7820044,-79.9323945
18,Limehouse Street,29401,32.7726881,-79.9368363
20,Limehouse Street,29401,32.7724893,-79.9367702
22,Limehouse Street,29401,32.7723001,-79.9367602
24,Limehouse Street,29401,32.7721553,-79.9367307
26,Limehouse Street,29401,32.7718923,-79.9367183
20,Gibbes Street,29401,32.7719146,-79.9364202
19,Greenhill Street,29401,32.7721992,-79.9364970
17,Greenhill Street,29401,32.7723537,-79.9365134
15,Greenhill Street,29401,32.7724949,-79.9365053
13,Greenhill Street,29401,32.7726981,-79.9365554
16,Limehouse Street,29401,32.7728311,-79.9368010
7,Greenhill Street,29401,32.7729851,-79.9365789
14,Limehouse Street,29401,32.7730033,-79.9368812
12,Limehouse Street,29401,32.7731188,-79.9366437
10,Limehouse Street,29401,32.7732988,-79.9368626
8 ½,Limehouse Street,29401,32.7734166,-79.9368956
8,Limehouse Street,29401,32.7735163,-79.9369253
6,Limehouse Street,29401,32.7736186,-79.9369044
4,Limehouse Street,29401,32.7737466,-79.9369815
2,Limehouse Street,29401,32.7738716,-79.9370314
151,Tradd Street,29401,32.7738580,-79.9368003
149,Tradd Street,29401,32.7739145,-79.9366754
3,Greenhill Street,29401,32.7737054,-79.9366730
1,Greenhill Street,29401,32.7736008,-79.9366648
133,Broad Street,29401,32.7758406,-79.9350458
119,Broad Street,29401,32.7759349,-79.9339191
125,Broad Street,29401,32.7759321,-79.9343970
117,Broad Street,29401,32.7760283,-79.9336011
129,Broad Street,29401,32.7759054,-79.9347461
131,Broad Street,29401,32.7758849,-79.9348932
147,Tradd Street,29401,32.7738218,-79.9364609
139,Tradd Street,29401,32.7739790,-79.9359952
93,Lenwood Boulevard,29401,32.7736430,-79.9359266
89,Lenwood Boulevard,29401,32.7734700,-79.9359197
143,Tradd Street,29401,32.7735301,-79.9361153
85,Lenwood Boulevard,29401,32.7732541,-79.9358876
73,Lenwood Boulevard,29401,32.7730133,-79.9358393
69,Lenwood Boulevard,29401,32.7727802,-79.9358999
67,Lenwood Boulevard,29401,32.7726500,-79.9358336
65,Lenwood Boulevard,29401,32.7724939,-79.9357901
63,Lenwood Boulevard,29401,32.7722982,-79.9357678
25,Lenwood Boulevard,29401,32.7720428,-79.9357210
14,Gibbes Street,29401,32.7719689,-79.9359290
16,Gibbes Street,29401,32.7719837,-79.9360627
18,Gibbes Street,29401,32.7719513,-79.9362218
20,Greenhill Street,29401,32.7721776,-79.9361115
18,Greenhill Street,29401,32.7722836,-79.9361641
12,Greenhill Street,29401,32.7723922,-79.9361565
10,Greenhill Street,29401,32.7725092,-79.9361713
2,Greenhill Street,29401,32.7727248,-79.9362045
14,Greenhill Street,29401,32.7729050,-79.9362218
4,Greenhill Street,29401,32.7730686,-79.9362821
8,Greenhill Street,29401,32.7732911,-79.9364168
137,Tradd Street,29401,32.7739522,-79.9356434
135,Tradd Street,29401,32.7739334,-79.9355155
133,Tradd Street,29401,32.7739175,-79.9353865
127,Tradd Street,29401,32.7739431,-79.9351748
125,Tradd Street,29401,32.7740326,-79.9348762
39,Legare Street,29401,32.7741790,-79.9344385
37,Legare Street,29401,32.7738979,-79.9343964
35,Legare Street,29401,32.7737812,-79.9344162
31,Legare Street,29401,32.7734966,-79.9344051
21,Legare Street,29401,32.7728621,-79.9342976
15,Legare Street,29401,32.7725038,-79.9341691
13,Legare Street,29401,32.7722897,-79.9340732
11,Legare Street,29401,32.7720993,-79.9340695
2,Gibbes Street,29401,32.7721465,-79.9344818
6,Gibbes Street,29401,32.7722359,-79.9350288
56,Lenwood Boulevard,29401,32.7719942,-79.9353640
62,Lenwood Boulevard,29401,32.7723863,-79.9353727
64,Lenwood Boulevard,29401,32.7725598,-79.9353671
66,Lenwood Boulevard,29401,32.7727142,-79.9353983
68,Lenwood Boulevard,29401,32.7728831,-79.9354412
84,Lenwood Boulevard,29401,32.7733245,-79.9354547
86,Lenwood Boulevard,29401,32.7734369,-79.9355401
23,Legare Street,29401,32.7729505,-79.9349267
17,Legare Street,29401,32.7725595,-79.9346715
46,Lenwood Boulevard,29401,32.7717196,-79.9353205
34,Lenwood Boulevard,29401,32.7712995,-79.9353050
68,South Battery Street,29401,32.7708981,-79.9347911
64,South Battery Street,29401,32.7708718,-79.9345366
62,South Battery Street,29401,32.7709019,-79.9341857
58,South Battery Street,29401,32.7708333,-79.9338880
0,Legare Street,29401,32.7710393,-79.9339506
1,Legare Street,29401,32.7712337,-79.9339628
5,Legare Street,29401,32.7714993,-79.9340528
7,Legare Street,29401,32.7716853,-79.9340833
9,Legare Street,29401,32.7718953,-79.9340749
3,Gibbes Street,29401,32.7717233,-79.9344883
5,Gibbes Street,29401,32.7717321,-79.9346446
9,Gibbes Street,29401,32.7715964,-79.9348581
7,Gibbes Street,29401,32.7718109,-79.9348556
32,Lenwood Boulevard,29401,32.7713856,-79.9350799
30,Lenwood Boulevard,29401,32.7711172,-79.9348511
2,Lenwood Boulevard,29401,32.7703700,-79.9352306
24,Murray Boulevard,29401,32.7699632,-79.9348911
22,Murray Boulevard,29401,32.7699497,-79.9346321
20,Murray Boulevard,29401,32.7699478,-79.9343978
18,Murray Boulevard,29401,32.7699122,-79.9341320
63,South Battery Street,29401,32.7704369,-79.9346068
61,South Battery Street,29401,32.7705307,-79.9343597
59,South Battery Street,29401,32.7705171,-79.9341508
3,Battery Place,29401,32.7703123,-79.9340720
55,South Battery Street,29401,32.7705087,-79.9339020
1,Battery Place,29401,32.7702641,-79.9338063
51 ½,South Battery Street,29401,32.7705009,-79.9337063
51,South Battery Street,29401,32.7705265,-79.9335418
49,South Battery Street,29401,32.7704071,-79.9332779
47,South Battery Street,29401,32.7702911,-79.9330687
45,South Battery Street,29401,32.7703343,-79.9328702
43,South Battery Street,29401,32.7703013,-79.9327054
39,South Battery Street,29401,32.7703669,-79.9324736
16,Murray Boulevard,29401,32.7698509,-79.9337735
14,Murray Boulevard,29401,32.7698784,-79.9334893
12,Murray Boulevard,29401,32.7698763,-79.9333373
56,South Battery Street,29401,32.7708573,-79.9336075
52,South Battery Street,29401,32.7709384,-79.9334011
50,South Battery Street,29401,32.7709038,-79.9331686
46,South Battery Street,29401,32.7708523,-79.9328386
44,South Battery Street,29401,32.7708692,-79.9326423
40,South Battery Street,29401,32.7707568,-79.9323667
38,South Battery Street,29401,32.7707450,-79.9322509
36,South Battery Street,29401,32.7707314,-79.9321255
5,King Street,29401,32.7709807,-79.9322720
7,King Street,29401,32.7710899,-79.9322886
9,King Street,29401,32.7712126,-79.9322841
11,Lamboll Street,29401,32.7714647,-79.9322610
15,Lamboll Street,29401,32.7713273,-79.9325566
21,Lamboll Street,29401,32.7713968,-79.9330160
23,Lamboll Street,29401,32.7713305,-79.9331767
25,Lamboll Street,29401,32.7713317,-79.9333709
27,Lamboll Street,29401,32.7713987,-79.9336107
4,Legare Street,29401,32.7716392,-79.9336727
24,Lamboll Street,29401,32.7717678,-79.9331755
6,Legare Street,29401,32.7720060,-79.9336596
8,Legare Street,29401,32.7722665,-79.9334696
10,Legare Street,29401,32.7724799,-79.9336958
14,Legare Street,29401,32.7727852,-79.9336917
16,Legare Street,29401,32.7729303,-79.9337515
18,Legare Street,29401,32.7731036,-79.9335849
22,Legare Street,29401,32.7733547,-79.9337747
26,Legare Street,29401,32.7736311,-79.9337449
34,Legare Street,29401,32.7741930,-79.9341050
109,Tradd Street,29401,32.7739224,-79.9334612
32,Legare Street,29401,32.7740560,-79.9336897
111,Tradd Street,29401,32.7742791,-79.9337393
105,Tradd Street,29401,32.7741224,-79.9332095
107,Tradd Street,29401,32.7741647,-79.9333549
103,Tradd Street,29401,32.7742528,-79.9331002
101,Tradd Street,29401,32.7742767,-79.9329987
69,King Street,29401,32.7742226,-79.9326669
71,King Street,29401,32.7743701,-79.9326407
55,King Street,29401,32.7737899,-79.9325706
47,King Street,29401,32.7733984,-79.9326239
53,King Street,29401,32.7735413,-79.9326430
45,King Street,29401,32.7732558,-79.9326387
41,King Street,29401,32.7731241,-79.9325160
37,King Street,29401,32.7728162,-79.9324984
39,King Street,29401,32.7729797,-79.9325746
21,King Street,29401,32.7719721,-79.9324759
12,Lamboll Street,29401,32.7717533,-79.9325844
14,Lamboll Street,29401,32.7717596,-79.9327189
16,Lamboll Street,29401,32.7720321,-79.9328299
18,Lamboll Street,29401,32.7717747,-79.9329292
4,Ladson Street,29401,32.7727133,-79.9315941
36,King Street,29401,32.7728406,-79.9320204
30,King Street,29401,32.7726590,-79.9321284
8,Ladson Street,29401,32.7726828,-79.9319730
9,Weims Court,29401,32.7728917,-79.9314986
578,East Bay Street,29403,32.7931447,-79.9314798
678,Citadel Haven Drive,29414,32.7916765,-80.0343467
2080,Savannah Highway,29407,32.7907529,-80.0333981
4,Maiden Lane,29401,32.7823890,-79.9304368
2,Maiden Lane,29401,32.7822729,-79.9303559
45,Pinckney Street,29401,32.7820311,-79.9301632
194,Tradd Street,29401,32.7735788,-79.9424176
192,Tradd Street,29401,32.7736026,-79.9422330
190,Tradd Street,29401,32.7735405,-79.9420497
188,Tradd Street,29401,32.7736309,-79.9417413
184,Tradd Street,29401,32.7736568,-79.9414331
184 ¾,Tradd Street,29401,32.7736732,-79.9412997
184 ¼,Tradd Street,29401,32.7736450,-79.9410670
21,Ashley Avenue,29401,32.7739345,-79.9412123
182,Tradd Street,29401,32.7737341,-79.9407371
180,Tradd Street,29401,32.7737825,-79.9404371
4,Ashley Avenue,29401,32.7739730,-79.9407609
6,Ashley Avenue,29401,32.7740998,-79.9407942
8,Ashley Avenue,29401,32.7742016,-79.9408160
10,Ashley Avenue,29401,32.7743156,-79.9408262
12,Ashley Avenue,29401,32.7744209,-79.9408482
14,Ashley Avenue,29401,32.7745316,-79.9408526
16,Ashley Avenue,29401,32.7746316,-79.9408722
32,Ashley Avenue,29401,32.7747516,-79.9408714
34,Ashley Avenue,29401,32.7748570,-79.9409069
36,Ashley Avenue,29401,32.7749591,-79.9409304
38,Ashley Avenue,29401,32.7750739,-79.9409195
207,Broad Street,29401,32.7752985,-79.9410113
305,Broad Street,29401,32.7752396,-79.9420042
8,Chisolm Street,29401,32.7750645,-79.9419711
2,Chisolm Street,29401,32.7749363,-79.9418421
301,Broad Street,29401,32.7751683,-79.9418438
45-43,Ashley Avenue,29401,32.7752732,-79.9415625
33-39,Ashley Avenue,29401,32.7751281,-79.9413760
25-31,Ashley Avenue,29401,32.7750057,-79.9413553
201,Broad Street,29401,32.7753435,-79.9406657
203,Broad Street,29401,32.7753529,-79.9407926
21,Colonial Street,29401,32.7751300,-79.9407130
19,Colonial Street,29401,32.7750024,-79.9406312
17,Colonial Street,29401,32.7748921,-79.9406290
15,Colonial Street,29401,32.7747805,-79.9406015
13,Colonial Street,29401,32.7746734,-79.9405810
11,Colonial Street,29401,32.7745660,-79.9405677
9,Colonial Street,29401,32.7744537,-79.9405467
7,Colonial Street,29401,32.7743451,-79.9405274
3,Colonial Street,29401,32.7741295,-79.9405185
5,Colonial Street,29401,32.7742360,-79.9405269
266,Saint Margaret Street,29403,32.8022412,-79.9661002
266,Saint Margaret Street,29403,32.8017293,-79.9662202
266,Saint Margaret Street,29403,32.8017485,-79.9662202
170,Lockwood Boulevard,29403,32.7880946,-79.9579963
250,Spring Street,29403,32.7869141,-79.9558298
144,Bee Street,29401,32.7853798,-79.9546615
2110,Maybank Highway,29412,32.7544464,-79.9960602
2008,Magwood Drive,29414,32.8138170,-80.0438617
3125,Glenn McConnell Parkway,29414,32.8106000,-80.0462605
3125,Bees Ferry Road,29414,32.8423467,-80.0591911
178,Tradd Street,29401,32.7737629,-79.9401142
176,Tradd Street,29401,32.7737858,-79.9400370
174,Tradd Street,29401,32.7738647,-79.9398208
2,Colonial Street,29401,32.7739532,-79.9401168
172,Tradd Street,29401,32.7739443,-79.9395703
3,Rutledge Avenue,29401,32.7742379,-79.9395964
5,Rutledge Avenue,29401,32.7743652,-79.9395936
5 ½,Rutledge Avenue,29401,32.7744884,-79.9396182
7,Rutledge Avenue,29401,32.7746082,-79.9396585
9,Rutledge Avenue,29401,32.7747227,-79.9396796
11,Rutledge Avenue,29401,32.7748496,-79.9397070
13,Rutledge Avenue,29401,32.7749640,-79.9397269
15,Rutledge Avenue,29401,32.7750863,-79.9397532
21,Rutledge Avenue,29401,32.7753484,-79.9397049
23,Rutledge Avenue,29401,32.7754322,-79.9397147
25,Rutledge Avenue,29401,32.7754945,-79.9397250
189,Broad Street,29401,32.7754201,-79.9398863
191,Broad Street,29401,32.7753648,-79.9400047
193,Broad Street,29401,32.7753435,-79.9401599
195,Broad Street,29401,32.7753453,-79.9403270
20,Colonial Street,29401,32.7750420,-79.9402085
18,Colonial Street,29401,32.7749316,-79.9402089
16,Colonial Street,29401,32.7748242,-79.9402004
14,Colonial Street,29401,32.7747141,-79.9401668
12,Colonial Street,29401,32.7746056,-79.9401603
10,Colonial Street,29401,32.7744975,-79.9401527
8,Colonial Street,29401,32.7743864,-79.9401363
6,Colonial Street,29401,32.7742795,-79.9400988
4,Colonial Street,29401,32.7741699,-79.9401094
2,Rutledge Avenue,29401,32.7741427,-79.9391026
4,Rutledge Avenue,29401,32.7743028,-79.9391091
10,Rutledge Avenue,29401,32.7746720,-79.9391904
8,Rutledge Avenue,29401,32.7745612,-79.9391529
6,Rutledge Avenue,29401,32.7744595,-79.9391397
7,Savage Street,29401,32.7744775,-79.9387608
9,Savage Street,29401,32.7745654,-79.9387148
11,Savage Street,29401,32.7746140,-79.9386152
13,Savage Street,29401,32.7746933,-79.9385876
15,Savage Street,29401,32.7747555,-79.9385223
17,Savage Street,29401,32.7748182,-79.9384371
19,Savage Street,29401,32.7748680,-79.9383883
21,Savage Street,29401,32.7749695,-79.9383499
23,Savage Street,29401,32.7750459,-79.9382579
25,Savage Street,29401,32.7751343,-79.9381323
27,Savage Street,29401,32.7752390,-79.9380781
29,Savage Street,29401,32.7753236,-79.9379850
35,Savage Street,29401,32.7755313,-79.9376596
157,Broad Street,29401,32.7756973,-79.9374638
159,Broad Street,29401,32.7756749,-79.9376560
161,Broad Street,29401,32.7756383,-79.9377612
163,Broad Street,29401,32.7756510,-79.9378787
165,Broad Street,29401,32.7755983,-79.9380207
167,Broad Street,29401,32.7755797,-79.9381669
169,Broad Street,29401,32.7755710,-79.9383223
171,Broad Street,29401,32.7755137,-79.9384445
173,Broad Street,29401,32.7755119,-79.9386004
177,Broad Street,29401,32.7754742,-79.9389704
181,Broad Street,29401,32.7754466,-79.9393720
18,Rutledge Avenue,29401,32.7752270,-79.9392878
16,Rutledge Avenue,29401,32.7751230,-79.9391976
14,Rutledge Avenue,29401,32.7749897,-79.9392169
12,Rutledge Avenue,29401,32.7748563,-79.9391653
10 ½,Rutledge Avenue,29401,32.7747689,-79.9389345
31,Savage Street,29401,32.7754048,-79.9378527
85,Tradd Street,29401,32.7744360,-79.9320620
87,Tradd Street,29401,32.7744071,-79.9321585
89,Tradd Street,29401,32.7743809,-79.9322245
91,Tradd Street,29401,32.7744269,-79.9322854
72,King Street,29401,32.7744323,-79.9323759
70,King Street,29401,32.7743100,-79.9323542
68,King Street,29401,32.7741747,-79.9322584
58,King Street,29401,32.7738931,-79.9322242
54,King Street,29401,32.7737723,-79.9321490
52,King Street,29401,32.7736007,-79.9322340
50,King Street,29401,32.7735107,-79.9321939
2,Prices Alley,29401,32.7736396,-79.9316775
4,Prices Alley,29401,32.7737695,-79.9318292
51,Meeting Street,29401,32.7739556,-79.9311849
75,Tradd Street,29401,32.7744966,-79.9315638
77,Tradd Street,29401,32.7743320,-79.9316721
83,Tradd Street,29401,32.7743168,-79.9319601
62,King Street,29401,32.7740312,-79.9319538
65,King Street,29401,32.7741047,-79.9326785
61,King Street,29401,32.7740028,-79.9328872
59,King Street,29401,32.7738884,-79.9329241
59,King Street,29401,32.7739371,-79.9326064
4 ½,Legare Street,29401,32.7717796,-79.9336571
26,Lamboll Street,29401,32.7718229,-79.9334384
2,Savage Street,29401,32.7738511,-79.9390268
168,Tradd Street,29401,32.7738726,-79.9387624
4,Savage Street,29401,32.7739427,-79.9388732
6,Savage Street,29401,32.7740234,-79.9387854
8,Savage Street,29401,32.7740864,-79.9387177
14,Savage Street,29401,32.7742080,-79.9385950
16,Savage Street,29401,32.7742889,-79.9384591
18,Savage Street,29401,32.7743978,-79.9384148
18,Savage Street,29401,32.7742949,-79.9382596
20,Savage Street,29401,32.7745052,-79.9382639
22,Savage Street,29401,32.7745859,-79.9382385
24,Savage Street,29401,32.7746384,-79.9381864
26,Savage Street,29401,32.7746754,-79.9381104
28,Savage Street,29401,32.7747337,-79.9380737
30,Savage Street,29401,32.7747691,-79.9380036
32,Savage Street,29401,32.7748476,-79.9379245
34,Savage Street,29401,32.7749298,-79.9378385
36,Savage Street,29401,32.7749772,-79.9377300
38,Savage Street,29401,32.7750761,-79.9376507
40,Savage Street,29401,32.7751355,-79.9375493
42,Savage Street,29401,32.7752545,-79.9375321
44,Savage Street,29401,32.7753664,-79.9374463
46,Savage Street,29401,32.7754471,-79.9373145
48,Savage Street,29401,32.7755389,-79.9372647
151,Broad Street,29401,32.7757014,-79.9369673
33,New Street,29401,32.7755569,-79.9367708
149,Broad Street,29401,32.7758086,-79.9366261
37,New Street,29401,32.7757776,-79.9364380
35,New Street,29401,32.7756004,-79.9366201
31,New Street,29401,32.7754025,-79.9368626
29,New Street,29401,32.7753295,-79.9369490
27,New Street,29401,32.7752303,-79.9370281
25,New Street,29401,32.7751248,-79.9371169
23,New Street,29401,32.7750268,-79.9372523
21,New Street,29401,32.7749207,-79.9374038
19,New Street,29401,32.7748119,-79.9374822
17,New Street,29401,32.7747376,-79.9375540
15,New Street,29401,32.7746482,-79.9376224
13,New Street,29401,32.7745649,-79.9377069
11,New Street,29401,32.7745056,-79.9378175
9,New Street,29401,32.7744089,-79.9378909
5,New Street,29401,32.7742243,-79.9380290
166,Tradd Street,29401,32.7739179,-79.9384984
162-160,Tradd Street,29401,32.7739520,-79.9382597
90,East Bay Street,29401,32.7753411,-79.9270220
20,South Adgers Wharf,29401,32.7753435,-79.9269215
16,South Adgers Wharf,29401,32.7753606,-79.9266921
10,South Adgers Wharf,29401,32.7753524,-79.9264889
1,North Adgers Wharf,29401,32.7755733,-79.9261898
33,North Adgers Wharf,29401,32.7755842,-79.9267586
2-18,North Adgers Wharf,29401,32.7758014,-79.9260830
100,East Bay Street,29401,32.7758025,-79.9269690
38,North Adgers Wharf,29401,32.7758019,-79.9268727
36,North Adgers Wharf,29401,32.7758016,-79.9267810
34,North Adgers Wharf,29401,32.7757993,-79.9266901
32,North Adgers Wharf,29401,32.7758015,-79.9266027
30,North Adgers Wharf,29401,32.7758033,-79.9265054
4,Boyces Wharf,29401,32.7760183,-79.9258865
2,Boyces Wharf,29401,32.7760244,-79.9257865
55,Concord Street,29401,32.7761504,-79.9257802
57,Concord Street,29401,32.7762088,-79.9257736
1,East Elliott Street,29401,32.7763769,-79.9257051
59,Meeting Street,29401,32.7747902,-79.9309904
70,Tradd Street,29401,32.7749797,-79.9312165
72,Tradd Street,29401,32.7747790,-79.9314371
78,Tradd Street,29401,32.7747966,-79.9315245
80,Tradd Street,29401,32.7747354,-79.9316230
84,Tradd Street,29401,32.7747361,-79.9318554
90,Tradd Street,29401,32.7747263,-79.9319896
92,Tradd Street,29401,32.7746949,-79.9321337
94,Tradd Street,29401,32.7746522,-79.9324226
78,King Street,29401,32.7748123,-79.9323895
80,King Street,29401,32.7748805,-79.9324043
82,King Street,29401,32.7749974,-79.9323662
88,King Street,29401,32.7751910,-79.9324535
92,King Street,29401,32.7753365,-79.9324008
94,King Street,29401,32.7754080,-79.9324694
96,King Street,29401,32.7754802,-79.9324079
98,King Street,29401,32.7755503,-79.9324562
100,King Street,29401,32.7756348,-79.9324887
104,King Street,29401,32.7757269,-79.9322962
108,King Street,29401,32.7758424,-79.9325329
110,King Street,29401,32.7759014,-79.9325372
103,Broad Street,29401,32.7760787,-79.9326057
93,Broad Street,29401,32.7761534,-79.9320674
91,Broad Street,29401,32.7762147,-79.9319962
61,Meeting Street,29401,32.7749839,-79.9310131
65,Meeting Street,29401,32.7752903,-79.9311424
69,Meeting Street,29401,32.7754878,-79.9312313
67,Meeting Street,29401,32.7753986,-79.9316530
90,King Street,29401,32.7752902,-79.9319168
94 ½,King Street,29401,32.7755471,-79.9319263
156,Tradd Street,29401,32.7739971,-79.9378049
6,New Street,29401,32.7742458,-79.9374577
8,New Street,29401,32.7743287,-79.9373671
10,New Street,29401,32.7744141,-79.9372830
14,New Street,29401,32.7745732,-79.9371125
16,New Street,29401,32.7746274,-79.9369828
20,New Street,29401,32.7748169,-79.9368312
24,New Street,29401,32.7749993,-79.9366064
26,New Street,29401,32.7751095,-79.9365258
28,New Street,29401,32.7751953,-79.9364868
30,New Street,29401,32.7752564,-79.9363760
34,New Street,29401,32.7753761,-79.9362877
38,New Street,29401,32.7755260,-79.9361717
40,New Street,29401,32.7756293,-79.9361203
143,Broad Street,29401,32.7758023,-79.9359123
23,Logan Street,29401,32.7755137,-79.9359427
19,Logan Street,29401,32.7753145,-79.9359127
17,Logan Street,29401,32.7752274,-79.9359446
15,Logan Street,29401,32.7751242,-79.9360086
13,Logan Street,29401,32.7750212,-79.9359855
11,Logan Street,29401,32.7749143,-79.9360004
9,Logan Street,29401,32.7747988,-79.9359854
7,Logan Street,29401,32.7746446,-79.9361696
5,Logan Street,29401,32.7745525,-79.9359776
130,Tradd Street,29401,32.7742522,-79.9357651
3,Logan Street,29401,32.7743981,-79.9358850
132,Tradd Street,29401,32.7742945,-79.9360801
134,Tradd Street,29401,32.7742562,-79.9362162
136,Tradd Street,29401,32.7742547,-79.9363550
138,Tradd Street,29401,32.7742043,-79.9364891
140,Tradd Street,29401,32.7742414,-79.9366109
142,Tradd Street,29401,32.7741801,-79.9367160
144,Tradd Street,29401,32.7741997,-79.9368355
146,Tradd Street,29401,32.7741511,-79.9369517
152,Tradd Street,29401,32.7740736,-79.9372114
150,Tradd Street,29401,32.7741184,-79.9371061
154,Tradd Street,29401,32.7740474,-79.9373187
141,Broad Street,29401,32.7758556,-79.9356556
20,Logan Street,29401,32.7756771,-79.9356260
18,Logan Street,29401,32.7755381,-79.9355044
16,Logan Street,29401,32.7754021,-79.9355574
14,Logan Street,29401,32.7752486,-79.9354706
16,Logan Street,29401,32.7754167,-79.9352383
10,Logan Street,29401,32.7749531,-79.9354919
4,Logan Street,29401,32.7746226,-79.9354186
128,Tradd Street,29401,32.7743132,-79.9352421
126,Tradd Street,29401,32.7743905,-79.9350221
124,Tradd Street,29401,32.7744200,-79.9348572
122,Tradd Street,29401,32.7744730,-79.9346798
43,Legare Street,29401,32.7747573,-79.9347261
45,Legare Street,29401,32.7748595,-79.9347662
47,Legare Street,29401,32.7749995,-79.9347695
51,Legare Street,29401,32.7751491,-79.9348171
53,Legare Street,29401,32.7753011,-79.9347400
55,Legare Street,29401,32.7754830,-79.9348172
59,Legare Street,29401,32.7756744,-79.9347290
57,Legare Street,29401,32.7755997,-79.9347780
135,Broad Street,29401,32.7758518,-79.9351885
137,Broad Street,29401,32.7758154,-79.9353292
139,Broad Street,29401,32.7757926,-79.9354766
54,Legare Street,29401,32.7756947,-79.9344093
52,Legare Street,29401,32.7755689,-79.9343866
50,Legare Street,29401,32.7754552,-79.9341674
50 ½,Legare Street,29401,32.7754426,-79.9343842
48,Legare Street,29401,32.7752985,-79.9343697
44,Legare Street,29401,32.7750579,-79.9343595
42,Legare Street,29401,32.7749379,-79.9343118
38,Legare Street,29401,32.7747034,-79.9342854
36,Legare Street,29401,32.7744598,-79.9342763
114,Tradd Street,29401,32.7744334,-79.9341343
110,Tradd Street,29401,32.7745562,-79.9339191
108,Tradd Street,29401,32.7745960,-79.9337169
106,Tradd Street,29401,32.7745603,-79.9333736
1,Orange Street,29401,32.7748292,-79.9334358
3,Orange Street,29401,32.7749307,-79.9335142
7,Orange Street,29401,32.7751255,-79.9335425
9,Orange Street,29401,32.7753312,-79.9335776
46,Legare Street,29401,32.7750473,-79.9340034
15,Orange Street,29401,32.7756191,-79.9335999
121,Broad Street,29401,32.7755627,-79.9339145
113,Broad Street,29401,32.7760451,-79.9333091
111,Broad Street,29401,32.7760645,-79.9331419
105,Broad Street,29401,32.7761352,-79.9328330
16,Orange Street,29401,32.7757473,-79.9332468
14,Orange Street,29401,32.7756208,-79.9332304
12,Orange Street,29401,32.7755130,-79.9331789
6,Orange Street,29401,32.7752890,-79.9331500
4,Orange Street,29401,32.7751698,-79.9331373
2 ½,Orange Street,29401,32.7750075,-79.9331081
2,Orange Street,29401,32.7748391,-79.9331678
102,Tradd Street,29401,32.7745606,-79.9331591
100,Tradd Street,29401,32.7745370,-79.9329587
98,Tradd Street,29401,32.7745781,-79.9328389
96,Tradd Street,29401,32.7745595,-79.9326525
75,King Street,29401,32.7747751,-79.9327407
77,King Street,29401,32.7748756,-79.9326469
79,King Street,29401,32.7749399,-79.9327070
81,King Street,29401,32.7750153,-79.9327380
83,King Street,29401,32.7751002,-79.9327356
85,King Street,29401,32.7752026,-79.9327701
93,King Street,29401,32.7754176,-79.9327953
97,King Street,29401,32.7755044,-79.9328264
99,King Street,29401,32.7756120,-79.9328768
101,King Street,29401,32.7756928,-79.9328583
103,King Street,29401,32.7757772,-79.9328693
105,King Street,29401,32.7758872,-79.9328984
38,King Street,29401,32.7729540,-79.9320924
40,King Street,29401,32.7730613,-79.9321158
1-3,Weims Court,29401,32.7730966,-79.9318895
8,Weims Court,29401,32.7730847,-79.9316060
44,King Street,29401,32.7732234,-79.9321424
46,King Street,29401,32.7733032,-79.9321535
48,King Street,29401,32.7734047,-79.9321765
7,Prices Alley,29401,32.7733990,-79.9315685
3,Prices Alley,29401,32.7734977,-79.9313090
1,Prices Alley,29401,32.7735918,-79.9311111
60,Meeting Street,29401,32.7748795,-79.9306796
62,Tradd Street,29401,32.7749298,-79.9304246
60,Tradd Street,29401,32.7749365,-79.9302791
58,Tradd Street,29401,32.7749401,-79.9301743
56,Tradd Street,29401,32.7749634,-79.9300572
54,Tradd Street,29401,32.7749431,-79.9299618
52,Tradd Street,29401,32.7749669,-79.9298644
48-46,Tradd Street,29401,32.7749640,-79.9296067
44,Tradd Street,29401,32.7749427,-79.9294963
40,Tradd Street,29401,32.7749553,-79.9293639
79,Church Street,29401,32.7749935,-79.9291811
83-85,Church Street,29401,32.7751467,-79.9292396
87,Church Street,29401,32.7752810,-79.9292933
64,Meeting Street,29401,32.7751372,-79.9305976
68,Meeting Street,29401,32.7753519,-79.9306590
72,Meeting Street,29401,32.7755247,-79.9306761
76,Meeting Street,29401,32.7757952,-79.9306431
11,St. Michael's Alley,29401,32.7757913,-79.9303380
9,St. Michael's Alley,29401,32.7757409,-79.9301973
7,St. Michael's Alley,29401,32.7757403,-79.9300742
5,St. Michael's Alley,29401,32.7756083,-79.9299307
3 ½,St. Michael's Alley,29401,32.7755706,-79.9297775
3,St. Michael's Alley,29401,32.7757800,-79.9298073
99,Church Street,29401,32.7758302,-79.9294054
97,Church Street,29401,32.7757247,-79.9294068
95,Church Street,29401,32.7756294,-79.9293968
93,Church Street,29401,32.7755335,-79.9293904
89-91,Church Street,29401,32.7754008,-79.9293581
83 ½,Tradd Street,29401,32.7751155,-79.9294904
69,Broad Street,29401,32.7763575,-79.9302841
67,Broad Street,29401,32.7763862,-79.9301631
65,Broad Street,29401,32.7764219,-79.9300545
59,Broad Street,29401,32.7764247,-79.9297368
53-51,Broad Street,29401,32.7764363,-79.9294966
49,Broad Street,29401,32.7764458,-79.9293682
109 ½,Church Street,29401,32.7762918,-79.9295269
107,Church Street,29401,32.7762385,-79.9294203
103,Church Street,29401,32.7760835,-79.9294187
2,St. Michael's Alley,29401,32.7760514,-79.9296069
8,St. Michael's Alley,29401,32.7760251,-79.9299446
6,St. Michael's Alley,29401,32.7760429,-79.9298031
14,St. Michael's Alley,29401,32.7760385,-79.9303599
100-98,Church Street,29401,32.7759544,-79.9289970
96,Church Street,29401,32.7758584,-79.9289811
94,Church Street,29401,32.7757431,-79.9288941
92,Church Street,29401,32.7756016,-79.9288822
90,Church Street,29401,32.7754626,-79.9288817
86,Church Street,29401,32.7752723,-79.9289514
86 ½,Church Street,29401,32.7753381,-79.9287629
82,Church Street,29401,32.7750466,-79.9289912
32,Tradd Street,29401,32.7750186,-79.9289237
30,Tradd Street,29401,32.7751265,-79.9288253
28,Tradd Street,29401,32.7750650,-79.9287039
26,Tradd Street,29401,32.7750544,-79.9286024
24,Tradd Street,29401,32.7751292,-79.9284992
22,Tradd Street,29401,32.7751395,-79.9284071
20,Tradd Street,29401,32.7751271,-79.9283105
5,Bedon's Alley,29401,32.7754149,-79.9284648
7,Bedon's Alley,29401,32.7755104,-79.9285004
9,Bedon's Alley,29401,32.7755923,-79.9283766
11,Bedon's Alley,29401,32.7756657,-79.9284838
27,Elliott Street,29401,32.7759521,-79.9286437
23,Elliott Street,29401,32.7759866,-79.9285165
19,Bedon's Alley,29401,32.7759946,-79.9284167
2,Bedon's Alley,29401,32.7751830,-79.9281771
10-8,Tradd Street,29401,32.7751813,-79.9278245
4,Bedon's Alley,29401,32.7753679,-79.9277410
87,East Bay Street,29401,32.7755259,-79.9274506
93,East Bay Street,29401,32.7757849,-79.9272818
107,East Bay Street,29401,32.7762039,-79.9272373
6,Bedon's Alley,29401,32.7754114,-79.9280758
8,Bedon's Alley,29401,32.7755692,-79.9281512
10,Bedon's Alley,29401,32.7756228,-79.9278844
12,Bedon's Alley,29401,32.7757321,-79.9280148
16,Bedon's Alley,29401,32.7758445,-79.9281594
9,Elliott Street,29401,32.7760604,-79.9278452
5,Elliott Street,29401,32.7761062,-79.9276842
43,Broad Street,29401,32.7765141,-79.9290500
104,Church Street,29401,32.7762587,-79.9290312
102,Church Street,29401,32.7760986,-79.9290734
41,Broad Street,29401,32.7764995,-79.9289003
39,Broad Street,29401,32.7763416,-79.9287911
37,Broad Street,29401,32.7763756,-79.9287035
35,Broad Street,29401,32.7764844,-79.9286153
33,Broad Street,29401,32.7764892,-79.9285141
31,Broad Street,29401,32.7765277,-79.9284405
29,Broad Street,29401,32.7765180,-79.9283571
27-25,Broad Street,29401,32.7765695,-79.9282651
23,Broad Street,29401,32.7765623,-79.9281629
19,Broad Street,29401,32.7765751,-79.9279528
17,Broad Street,29401,32.7765175,-79.9278245
15,Broad Street,29401,32.7766229,-79.9277392
11,Broad Street,29401,32.7765900,-79.9275708
6,Elliott Street,29401,32.7764327,-79.9277188
1,Broad Street,29401,32.7766914,-79.9272228
8,Elliott Street,29401,32.7762664,-79.9277876
10,Elliott Street,29401,32.7763376,-79.9279143
14,Elliott Street,29401,32.7762608,-79.9281015
20,Elliott Street,29401,32.7762040,-79.9283005
22,Elliott Street,29401,32.7762087,-79.9283808
28,Elliott Street,29401,32.7761615,-79.9286161
114-120,East Bay Street,29401,32.7765145,-79.9268824
19,Exchange Street,29401,32.7765510,-79.9267490
8,East Elliott Street,29401,32.7765067,-79.9259898
4,East Elliott Street,29401,32.7765250,-79.9258435
3,Exchange Street,29401,32.7766722,-79.9259969
1,Exchange Street,29401,32.7767128,-79.9256372
65,Concord Street,29401,32.7766502,-79.9256453
2,Prioleau Street,29401,32.7768711,-79.9259206
10,Exchange Street,29401,32.7768481,-79.9262621
12,Exchange Street,29401,32.7768102,-79.9265182
14,Exchange Street,29401,32.7768006,-79.9266660
3,Chisolm Street,29401,32.7741505,-79.9423354
3,Chisolm Street,29401,32.7746231,-79.9423938
29,Legare Street,29401,32.7732815,-79.9343006
129,Tradd Street,29401,32.7736794,-79.9351170
123,Tradd Street,29401,32.7740610,-79.9346814
4,Gibbes Street,29401,32.7722367,-79.9347986
0,Gibbes Street,29401,32.7723450,-79.9343825
60,Lenwood Boulevard,29401,32.7722571,-79.9352416
25,Legare Street,29401,32.7730166,-79.9343279
19,Legare Street,29401,32.7727217,-79.9342483
11,King Street,29401,32.7713210,-79.9323124
28,South Battery Street,29401,32.7707329,-79.9314485
22,South Battery Street,29401,32.7706779,-79.9310228
15,Meeting Street,29401,32.7715869,-79.9306822
6,Franklin Street,29401,32.7765719,-79.9372470
158,Broad Street,29401,32.7761474,-79.9367586
152,Broad Street,29401,32.7761723,-79.9364854
1433,Stiles Bee Avenue,29412,32.7124770,-79.9537153
652,King Street,29403,32.7961962,-79.9434398
179,Queen Street,29401,32.7770084,-79.9393946
177,Queen Street,29401,32.7770111,-79.9392011
120,Broad Street,29401,32.7764975,-79.9344662
123,King Street,29401,32.7768796,-79.9329891
27,State Street,29401,32.7780750,-79.9281948
25,State Street,29401,32.7782007,-79.9282161
15,Prioleau Street,29401,32.7773490,-79.9264108
132,East Bay Street,29401,32.7773242,-79.9267823
147,Beaufain Street,29401,32.7764762,-79.9454567
145,Beaufain Street,29401,32.7767282,-79.9449806
19,Barre Street,29401,32.7766041,-79.9448339
3,Barre Street,29401,32.7763895,-79.9447817
1,Shaftsbury Lane,29401,32.7765113,-79.9442135
3,Shaftsbury Lane,29401,32.7766538,-79.9442857
143,Beaufain Street,29401,32.7768687,-79.9445660
141,Beaufain Street,29401,32.7769237,-79.9444653
137,Beaufain Street,29401,32.7769721,-79.9441475
135,Beaufain Street,29401,32.7770604,-79.9440330
133,Beaufain Street,29401,32.7771513,-79.9439534
4,Shaftsbury Lane,29401,32.7767769,-79.9437817
2,Canal Street,29401,32.7766405,-79.9438220
10,Elizabeth Street,29403,32.7883998,-79.9321220
20,Franklin Street,29401,32.7779153,-79.9373872
106,Queen Street,29401,32.7778006,-79.9343013
104,Queen Street,29401,32.7778211,-79.9341693
102,Queen Street,29401,32.7778176,-79.9340442
98,Queen Street,29401,32.7778576,-79.9339165
96,Queen Street,29401,32.7778210,-79.9337767
94,Queen Street,29401,32.7778755,-79.9336583
210,"Seven Farms Drive, Suite 101",29492,32.8613844,-79.9057695
196,Tradd Street,29401,32.7736501,-79.9429713
196,Tradd Street,29401,32.7738450,-79.9434666
196,Tradd Street,29401,32.7745011,-79.9429827
1117,Savannah Highway,29407,32.7835131,-79.9954482
1710,Dogwood Road,29414,32.8296968,-80.0372522
110,Calhoun Street,29401,32.7874945,-79.9331145
18,Anson Street,29401,32.7821175,-79.9289723
370,King Street,29401,32.7855486,-79.9357972
1826,Meeting Street Road,29405,32.8286187,-79.9516876
375,Meeting Street,29401,32.7893883,-79.9368370
86,Jonathan Lucas Street,29425,32.7833654,-79.9472112
63,Rutledge Avenue,29401,32.7785229,-79.9414531
2090,Charlie Hall Boulevard,29414,32.8145296,-80.0452604
116,Beaufain Street,29401,32.7777837,-79.9432125
40,Coming Street,29401,32.7823588,-79.9378046
5,Glebe Street,29401,32.7821551,-79.9369842
26,Coming Street,29401,32.7814226,-79.9373797
32,Coming Street,29401,32.7818591,-79.9374651
34,Coming Street,29401,32.7819416,-79.9375948
28,Coming Street,29401,32.7815432,-79.9374163
36,Coming Street,29401,32.7820691,-79.9376831
38,Coming Street,29401,32.7822034,-79.9377864
114,Wentworth Street,29401,32.7812948,-79.9372537
351,King Street,29401,32.7847901,-79.9359249
11,Glebe Street,29401,32.7824844,-79.9370569
67,George Street,29401,32.7829382,-79.9373491
9,Glebe Street,29401,32.7823778,-79.9370056
180,Calhoun Street,29401,32.7855468,-79.9388140
68,Wentworth Street,29401,32.7830338,-79.9336389
86,Society Street,29401,32.7835457,-79.9337590
139,Calhoun Street,29401,32.7861255,-79.9352005
139,Calhoun Street,29401,32.7861046,-79.9350837
165,King Street,29401,32.7784733,-79.9332067
175,King Street,29401,32.7787947,-79.9332258
169,King Street,29401,32.7785700,-79.9334399
163,King Street,29401,32.7784233,-79.9331216
149,King Street,29401,32.7778990,-79.9331299
345,Meeting Street,29403,32.7883974,-79.9361438
385,Meeting Street,29401,32.7907822,-79.9373162
446,King Street,29403,32.7890248,-79.9380077
103,St Philip St,29403,32.7872489,-79.9392484
467,King Street,29403,32.7890317,-79.9387957
463,King Street,29403,32.7889656,-79.9387624
425,Meeting Street,29403,32.7926278,-79.9387663
56 1/2,Smith Street,29401,32.7815010,-79.9408200
100,Calhoun Street,29401,32.7878073,-79.9323051
125,Calhoun Street,29401,32.7864723,-79.9336728
80,Calhoun Street,29401,32.7880886,-79.9316456
117,Calhoun Street,29401,32.7869118,-79.9328093
40,Calhoun Street,29403,32.7893953,-79.9292837
125,Bull Street,29401,32.7804617,-79.9446243
139,Beaufain Street,29401,32.7769803,-79.9443381
6,Shaftsbury Lane,29401,32.7768377,-79.9439603
171,Moultrie Street,29409,32.7964038,-79.9601256
2,Perry Street,29403,32.7945753,-79.9476930
741,King Street,29401,32.8005506,-79.9495611
2095,Henry Teckenburg Drive,29414,32.8088776,-80.0417186
3575,Maybank Highway,29455,32.7207502,-80.0807006
3531,Maybank Highway,29455,32.7225250,-80.0771686
1621,Main Road,29455,32.7234647,-80.0924940
2876,Maybank Highway,29455-4807,32.7420316,-80.0431896
2803,Maybank Highway,29455,32.7426433,-80.0383448
45,Lockwood Drive,29401,32.7822726,-79.9554351
2,Murray Boulevard,29401,32.7699202,-79.9303128
182,Rutledge Avenue,29403,32.7877728,-79.9451454
182,Rutledge Avenue,29403,32.7882741,-79.9449024
109,Bee Street,29401,32.7836547,-79.9533826
316,Calhoun Street,29401,32.7826370,-79.9493358
66,George Street,29424,32.7843068,-79.9376659
19,King Street,29401,32.7717711,-79.9323637
122,East Bay Street,29401,32.7768580,-79.9268421
12,Gillon Street,29401,32.7772126,-79.9266718
8-6,Gillon Street,29401,32.7772320,-79.9264271
2,Gillon Street,29401,32.7772471,-79.9262138
10,Gillon Street,29401,32.7772160,-79.9265968
133,Queen Street,29401,32.7773132,-79.9361073
179,King Street,29401,32.7786951,-79.9332780
3183,Ashley River Road,29414,32.8531886,-80.0729305
871,Riverland Drive,29412,32.7348118,-79.9895513
309,Broad Street,29401,32.7749988,-79.9424983
61,Queen Street,29401,32.7779483,-79.9306625
89,Broad Street,29401,32.7762220,-79.9319278
14 ½,Murray Boulevard,29401,32.7701382,-79.9336826
8,Water Street,29401,32.7729085,-79.9282635
4066,Laurelwood Drive,29414,32.8516151,-80.0851296
4155,Westerly Lane,29414,32.8526680,-80.0824191
4159,Westerly Lane,29414,32.8525441,-80.0825974
1309,Secessionville Road,29412,32.7199078,-79.9572985
3312,Bonanza Road,29414,32.8005325,-80.0925448
1550,Meeting Street Road,29405,32.8198777,-79.9506054
1580,Ashley Gardens Boulevard,29414-9127,32.8327764,-80.0953272
3951,West Ashley Circle,29414-9156,32.8216069,-80.0813241
749,Sprague Street,29412,32.7443703,-79.9606753
229,Saint Philip Street,29403,32.7934512,-79.9434724
1067,King Street,29403,32.8051457,-79.9511155
981,King Street,29403,32.8029524,-79.9512874
211,Rutledge Avenue,29403,32.7893225,-79.9472349
68,Cannon Street,29403,32.7905625,-79.9443907
87,Cannon Street,29403,32.7894276,-79.9459081
177,Church Street,29401,32.7805480,-79.9300736
1549,Oceanic Street,29405,32.8183754,-79.9558541
1032,Legrand Blvd,29492,32.8947070,-79.9291960
121,Main Road,29455,32.8016358,-80.1085193
1201,Sam Rittenberg Boulevard,29407,32.8199937,-79.9919382
1987,Sam Rittenberg Boulevard,29407,32.7948114,-80.0262997
1829,Sam Rittenberg Boulevard,29407,32.8007901,-80.0182184
1735,N. Woodmere Drive,29407,32.8066423,-80.0128085
2050,Savannah Highway,29407,32.7903176,-80.0307303
1524,Savannah Highway,29407,32.7866864,-80.0096330
1518,Savannah Hwy,29407,32.7874067,-80.0087657
1464,Savannah Highway,29407,32.7861176,-80.0042370
1491,Savannah Highway,29407,32.7843494,-80.0017936
1233,Savannah Highway,29407,32.7839714,-79.9985430
2237,Savannah Highway,29414,32.7909722,-80.0401313
3531,Mary Ader Avenue,29414,32.8207142,-80.0651379
35,Folly Road,29407,32.7786318,-79.9693275
94,Iron Bottom Lane,29492,32.8734673,-79.9010542
560,King Street,29403,32.7929952,-79.9406040
92,Toura Lane,29414,32.8551294,-80.0740558
21,Dunvegan Drive,29414,32.8420002,-80.0737415
43,Saint Margaret Street,29403,32.8034307,-79.9555827
43,Saint Margaret Street,29403,32.8032818,-79.9556495
19,Saint Margaret Street,29403,32.8035616,-79.9549798
106,Grove Street,29403,32.8033068,-79.9541228
1439,Village Road,29407,32.8057640,-80.0078275
1455,Village Road,29407,32.8068555,-80.0069835
1447,Village Road,29407,32.8064770,-80.0078525
1457,Village Road,29407,32.8067005,-80.0067450
1445,Village Road,29407,32.8062315,-80.0079740
1477,Village Road,29407,32.8053320,-80.0065525
1454,Village Road,29407,32.8063555,-80.0069695
1435,Village Road,29407,32.8055295,-80.0077605
1448,Village Road,29407,32.8063060,-80.0073105
1436,Village Road,29407,32.8058498,-80.0073325
1462,Village Road,29407,32.8061215,-80.0068030
1431,Village Road,29407,32.8052860,-80.0076580
1476,Village Road,29407,32.8056390,-80.0068280
1486,Village Road,29407,32.8050900,-80.0074265
1483,Village Road,29407,32.8050020,-80.0068905
1442,Village Road,29407,32.8060615,-80.0074545
1461,Village Road,29407,32.8065325,-80.0065524
1482,Village Road,29407,32.8053940,-80.0071520
1481,Village Road,29407,32.8051730,-80.0067210
1441,Village Road,29407,32.8059865,-80.0078910
1469,Village Road,29407,32.8059390,-80.0060595
1463,Village Road,29407,32.8063355,-80.0063905
1471,Village Road,29407,32.8056645,-80.0061815
1449,Village Road,29407,32.8066005,-80.0076525
1475,Village Road,29407,32.8055080,-80.0063385
86,Cannon Street,29403,32.7898245,-79.9460754
1088,Quail Drive,29412,32.7383806,-79.9378310
3035,Sanders Road,29414,32.8148604,-80.0751865
245,South Confederate Circle,29407,32.7733046,-79.9772398
243,Calhoun Street,29401,32.7836220,-79.9433777
84,Ripley Point Drive,29407,32.7776402,-79.9668329
1344,Bees Ferry Road,29455,32.8197947,-80.1106735
126,Williiman Street,29403,32.8091782,-79.9465374
50,Central Island Street,29492,32.8644324,-79.9065834
1310,Meeting Street,29403,32.8135133,-79.9501257
66,Columbus Street,29403,32.7977966,-79.9361435
404,King Street,29403,32.7873120,-79.9368176
415,Meeting Street,29403,32.7922884,-79.9386378
771,Brownswood Road,29455,32.7648813,-80.0712595
805,Orleans Road,29407,32.7927280,-80.0283621
1798,Ashley River Road,29407,32.8025460,-80.0168896
2007,Magwood Road,29414,32.8126086,-80.0428627
2013,Magwood Drive,29414,32.8123144,-80.0420693
2235,Ashley Crossing Drive,29414,32.8145367,-80.0405013
1630,Camp Road,29412,32.7342526,-79.9672207
28,Limehouse Street,29401,32.7715698,-79.9369819
67,South Battery Street,29401,32.7705459,-79.9352182
30,Murray Boulevard,29401,32.7700701,-79.9356187
2 ½,Legare Street,29401,32.7711948,-79.9335837
65,Gibbes Street,29401,32.7729620,-79.9400445
1231,Folly Road,29412,32.7204977,-79.9677231
1791,Main Road,29455,32.7211649,-80.0827424
1595,Highland Avenue,29412,32.7379647,-79.9660245
858,Folly Road,29412,32.7373746,-79.9665233
997,Morrison Drive,29403,32.8077110,-79.9437061
642,Meeting Street,29403,32.8059924,-79.9459450
99,Westedge Street,29403,32.7894683,-79.9589816
287,Huger Street,29403,32.8009327,-79.9452027
577,Meeting Street,29403,32.8007644,-79.9442633
530,Meeting Street,29403,32.7986079,-79.9415983
1510,Meeting Street,29405,32.8185123,-79.9499869
1940,Algonquin Road,29405,32.8189624,-79.9485840
1540,Meeting Street,29405,32.8194832,-79.9502524
346,East Bay Street,29403,32.7886030,-79.9293185
265,Fishburne Street,29403,32.7919265,-79.9542285
120,Fairchild Street,29492,32.8654308,-79.9111513
160,Fairchild Street,29492,32.8663705,-79.9125106
363,Seven Farms Drive,29492,32.8553510,-79.9183794
2365,Daniel Island Drive,29492,32.8485572,-79.9096804
2301,Daniel Island Drive,29492,32.8505507,-79.9095224
3035,Sanders Road,29414,32.8146726,-80.0751197
1006,River Haven Circle,29412,32.7175895,-79.9704556
1001,Riverland Woods PIace,29412,32.7171987,-79.9693243
1,Cooper Street,29403,32.7991224,-79.9356121
838,Morrison Drive,29403,32.8018182,-79.9370023
838,Morrison Drive,29403,32.8023556,-79.9375510
28,Woolfe Street,29403,32.7926873,-79.9394245
990,Etiwan Park Street,29492,32.8572329,-79.9142801
2106,Mount Pleasant Street,29403,32.8128836,-79.9518927
1142,Morrison Drive,29403,32.8118131,-79.9484667
125,Romney Street,29403,32.8061119,-79.9497973
1647,King Street,29405,32.8222025,-79.9530900
10,McClennan Banks Center Drive,29425,32.7826406,-79.9513263
1265,Folly Road,29412,32.7194161,-79.9666410
1285,Folly Road,29412,32.7177659,-79.9662301
1291,Folly Road,29412,32.7180605,-79.9671503
109,Broad Street,29401,32.7761286,-79.9329637
22,New Street,29401,32.7749116,-79.9367535
175,Queen Street,29401,32.7768746,-79.9390414
45,Logan Street,29401,32.7763486,-79.9360742
36,North Market Street,29401,32.7813282,-79.9280861
1970,Maybank Highway,29412,32.7628640,-79.9866686
424,Fort Johnson Road,29412,32.7491901,-79.9062835
675,Folly Road,29412,32.7462599,-79.9719061
1411,Folly Road,29412,32.7142311,-79.9668554
630,King Street,29403,32.7946847,-79.9417586
1640,Meeting Street,29405,32.8222854,-79.9513330
16,Council Street,29401,32.7730671,-79.9376986
24,Council Street,29401,32.7726920,-79.9375918
9,Limehouse Street,29401,32.7727604,-79.9373931
1857,Gammon Street,29414,32.8077083,-80.0721283
50,Central Island Street,29492,32.8639781,-79.9066847
20,Fairchild Street,29492,32.8649529,-79.9056034
860,Island Park Drive,29492,32.8646044,-79.9048327
717,Barbados Drive,29492,32.8985568,-79.9093745
473,Elfes Field Lane,29492,32.9022261,-79.9058022
2,Concord Street,29401,32.7744949,-79.9251102
4,Concord Street,29401,32.7745216,-79.9256687
103,South Battery Street,29401,32.7712122,-79.9381676
9.5,Glebe Street,29401,32.7823259,-79.9371365
2,Battery Place,29401,32.7703036,-79.9338925
4,Battery Place,29401,32.7702995,-79.9341633
61 ½,South Battery Street,29401,32.7702995,-79.9343504
57,South Battery Street,29401,32.7705133,-79.9340631
53,South Battery Street,29401,32.7705056,-79.9338184
79,Tradd Street,29401,32.7743083,-79.9318647
6,Prices Alley,29401,32.7735622,-79.9319488
5,Tradd Street,29401,32.7749769,-79.9277399
3,Tradd Street,29401,32.7749634,-79.9276315
73,Tradd Street,29401,32.7748790,-79.9274995
21,Church Street,29401,32.7717963,-79.9297879
6,Concord Street,29401,32.7752551,-79.9245414
6,Concord Street,29401,32.7752691,-79.9247979
71,Gibbes Street,29401,32.7730795,-79.9402746
61 ½,Tradd Street,29401,32.7744759,-79.9304784
47,Tradd Street,29401,32.7745523,-79.9298050
75,Church Street,29401,32.7747066,-79.9291641
49,Church Street,29401,32.7734289,-79.9292774
52,Meeting Street,29401,32.7740371,-79.9305175
2,South Battery Street,29401,32.7703301,-79.9290077
24,Legare Street,29401,32.7737247,-79.9332756
9,Prices Alley,29401,32.7734095,-79.9318207
24,Church Street,29401,32.7718255,-79.9293313
17 ½,Water Street,29401,32.7731151,-79.9299798
10,Weims Court,29401,32.7730757,-79.9315046
15,Prices Alley,29401,32.7734166,-79.9320626
11,Gibbes Street,29401,32.7717000,-79.9351353
7 ½,Gibbes Street,29401,32.7717169,-79.9347677
1 ½,Gibbes Street,29401,32.7718744,-79.9343233
3,Legare Street,29401,32.7713588,-79.9341247
42,South Battery Street,29401,32.7708038,-79.9324607
48,South Battery Street,29401,32.7708109,-79.9330021
48 ½,South Battery Street,29401,32.7710382,-79.9330688
19,Lamboll Street,29401,32.7714203,-79.9329229
3,King Street,29401,32.7708818,-79.9321679
1,Lamboll Street,29401,32.7716623,-79.9311814
9,Lamboll Street,29401,32.7716555,-79.9317272
24,South Battery Street,29401,32.7707128,-79.9311320
3,Stoll's Alley,29401,32.7734609,-79.9279715
68,Church Street,29401,32.7742899,-79.9286843
72,Church Street,29401,32.7744246,-79.9288757
53,East Bay Street,29401,32.7740447,-79.9277997
171,Tradd Street,29401,32.7736363,-79.9389396
12,Council Street,29401,32.7732212,-79.9375685
153,Tradd Street,29401,32.7738680,-79.9369562
6,Greenhill Street,29401,32.7732350,-79.9362162
95,Lenwood Boulevard,29401,32.7738017,-79.9359280
71,Lenwood Boulevard,29401,32.7728968,-79.9358369
121,Tradd Street,29401,32.7740972,-79.9345866
63,King Street,29401,32.7739412,-79.9331034
97,Tradd Street,29401,32.7743425,-79.9327904
99,Tradd Street,29401,32.7742970,-79.9329022
12,Legare Street,29401,32.7728435,-79.9333775
10 ½,Legare Street,29401,32.7725455,-79.9334097
28,Lamboll Street,29401,32.7716279,-79.9335754
22 ½,Lamboll Street,29401,32.7720095,-79.9332222
2,Exchange Street,29401,32.7769037,-79.9255696
6,Prioleau Street,29401,32.7770091,-79.9257710
8,Prioleau Street,29401,32.7771477,-79.9257798
2,East Elliott Street,29401,32.7765237,-79.9256702
6,East Elliott Street,29401,32.7765183,-79.9259172
53,Concord Street,29401,32.7761012,-79.9258077
61,Concord Street,29401,32.7763252,-79.9257550
59,Concord Street,29401,32.7762735,-79.9257705
13-15,North Adgers Wharf,29401,32.7755732,-79.9263413
35,North Adgers Wharf,29401,32.7755864,-79.9268191
37,North Adgers Wharf,29401,32.7755867,-79.9268809
39,North Adgers Wharf,29401,32.7755889,-79.9269775
96,East Bay Street,29401,32.7755037,-79.9270227
18,South Adgers Wharf,29401,32.7753441,-79.9268509
8-6,South Adgers Wharf,29401,32.7753553,-79.9263428
4,South Adgers Wharf,29401,32.7753577,-79.9261951
6,Tradd Street,29401,32.7751792,-79.9277011
12,Tradd Street,29401,32.7751247,-79.9279644
14,Tradd Street,29401,32.7751159,-79.9280363
16,Tradd Street,29401,32.7751211,-79.9281006
85,East Bay Street,29401,32.7754344,-79.9273798
83,East Bay Street,29401,32.7753518,-79.9273776
14,Bedon's Alley,29401,32.7757823,-79.9281279
17,Elliott Street,29401,32.7759778,-79.9281133
11,Elliott Street,29401,32.7760485,-79.9279353
7,Elliott Street,29401,32.7760004,-79.9277431
105,East Bay Street,29401,32.7761445,-79.9272637
103,East Bay Street,29401,32.7760932,-79.9273212
1,Elliott Street,29401,32.7761892,-79.9273957
97-99-101,East Bay Street,29401,32.7759775,-79.9273212
95,East Bay Street,29401,32.7758464,-79.9272742
91,East Bay Street,29401,32.7757098,-79.9273516
89,East Bay Street,29401,32.7756213,-79.9273770
79-81,East Bay Street,29401,32.7752197,-79.9274806
91 ½,East Bay Street,29401,32.7757198,-79.9276599
4,Elliott Street,29401,32.7762955,-79.9275756
12,Elliott Street,29401,32.7762442,-79.9280156
18,Elliott Street,29401,32.7762119,-79.9282358
16,Elliott Street,29401,32.7762047,-79.9281729
38,Elliott Street,29401,32.7761067,-79.9290021
36,Elliott Street,29401,32.7761144,-79.9289342
106,Church Street,29401,32.7763616,-79.9290534
110,Church Street,29401,32.7764339,-79.9290655
21,Broad Street,29401,32.7766038,-79.9280644
13,Broad Street,29401,32.7765755,-79.9276519
9,Broad Street,29401,32.7766322,-79.9275025
7,Broad Street,29401,32.7766437,-79.9274541
3,Broad Street,29401,32.7766557,-79.9273833
109,East Bay Street,29401,32.7764117,-79.9273381
111,East Bay Street,29401,32.7766019,-79.9272295
86 ½,Church Street,29401,32.7752165,-79.9287820
84,Church Street,29401,32.7751506,-79.9289968
19,Ashley Avenue,29401,32.7738693,-79.9412025
17,Ashley Avenue,29401,32.7737605,-79.9410819
184 ½,Tradd Street,29401,32.7736812,-79.9412263
4,St. Michael's Alley,29401,32.7760690,-79.9297120
105,Church Street,29401,32.7761722,-79.9293650
57,Broad Street,29401,32.7764078,-79.9296560
55,Broad Street,29401,32.7763914,-79.9295999
61,Broad Street,29401,32.7763540,-79.9298351
63,Broad Street,29401,32.7763561,-79.9299355
38,Tradd Street,29401,32.7749869,-79.9292633
64,Tradd Street,29401,32.7748742,-79.9306062
8,Ropemakers Lane,29401,32.7753036,-79.9302429
10,Ropemakers Lane,29401,32.7754227,-79.9302681
12,Ropemakers Lane,29401,32.7753904,-79.9304323
63,Meeting Street,29401,32.7751953,-79.9310924
80 ½,Tradd Street,29401,32.7749335,-79.9316401
86,King Street,29401,32.7751424,-79.9318085
84 ½,King Street,29401,32.7751150,-79.9322325
106,King Street,29401,32.7758247,-79.9323239
110 ½,King Street,29401,32.7759262,-79.9324065
97,Broad Street,29401,32.7761400,-79.9323010
95,Broad Street,29401,32.7761807,-79.9322210
85,Broad Street,29401,32.7762386,-79.9317942
8,Orange Street,29401,32.7753775,-79.9332323
89,King Street,29401,32.7753292,-79.9327990
10,Orange Street,29401,32.7753884,-79.9331045
107,King Street,29401,32.7760051,-79.9329449
77 ½,King Street,29401,32.7748518,-79.9328020
75 ½,Tradd Street,29401,32.7746955,-79.9329295
40,Legare Street,29401,32.7748207,-79.9343236
112,Tradd Street,29401,32.7745669,-79.9341431
17,Orange Street,29401,32.7757814,-79.9337874
11,Orange Street,29401,32.7754006,-79.9335718
120,Tradd Street,29401,32.7744010,-79.9345933
55 ½,Legare Street,29401,32.7754688,-79.9350710
41,Legare Street,29401,32.7744497,-79.9345292
205,Broad Street,29401,32.7753622,-79.9409054
2 ½,Colonial Street,29401,32.7740389,-79.9401194
19,Rutledge Avenue,29401,32.7752840,-79.9397228
17,Rutledge Avenue,29401,32.7753065,-79.9398686
25,Logan Street,29401,32.7756439,-79.9359337
130 ½,Tradd Street,29401,32.7742315,-79.9359664
156,Tradd Street,29401,32.7740273,-79.9377373
156,Tradd Street,29401,32.7740336,-79.9376739
156,Tradd Street,29401,32.7740402,-79.9376084
156,Tradd Street,29401,32.7740232,-79.9375098
21,Logan Street,29401,32.7753930,-79.9359034
3,Savage Street,29401,32.7743532,-79.9388835
8½,Rutledge Avenue,29401,32.7746347,-79.9389277
164,Tradd Street,29401,32.7739281,-79.9384102
7,New Street,29401,32.7743131,-79.9379710
1,New Street,29401,32.7741110,-79.9381043
25 ½,New Street,29401,32.7752263,-79.9372273
360,Fishburne Street,29403,32.7905848,-79.9612590
196,Tradd Street,29401,32.7742767,-79.9439226
250,Spring St,29403,32.7868898,-79.9558865
35,Lockwood Drive,29401,32.7831496,-79.9557014
1305,South Lenevar Drive,29407,32.8052692,-80.0038993
237,Meeting Street,29401,32.7825660,-79.9322336
360,Meeting Street,29403,32.7898899,-79.9357606
171,Ashley Avenue,29425,32.7850554,-79.9489575
424,Fort Johnson Road,29412,32.7503947,-79.9059547
601,Meeting Street,29403,32.8024866,-79.9453209
511,Meeting Street,29403,32.7973142,-79.9419123
161,Seven Farms Drive,29492,32.8614515,-79.9036405
98,Wentworth Street,29401,32.7817366,-79.9367146
61,Church Street,29401,32.7740481,-79.9295109
5,Exchange Street,29401,32.7765565,-79.9263475
