House number,Street name,Postal code,Latitude,Longitude
402,South Georgia Avenue,29323,35.1435571,-81.8576279
204,South Lee Street,29323,35.1468246,-81.8561641
409,Edgefield Street,29323,35.1452093,-81.8552849
200,South Cash Avenue,29323,35.1465723,-81.8547162
102,South Georgia Avenue,29323,35.1480195,-81.8575042
201,East Manning Street,29323,35.1435588,-81.8579742
209,South Lee Street,29323,35.1462000,-81.8556746
210,East Union Street,29323,35.1441024,-81.8580749
259,York Street,29323,35.1460642,-81.8563859
204,South Cash Avenue,29323,35.1463020,-81.8548212
303,Edgefield Street,29323,35.1455915,-81.8570057
206,South Cash Avenue,29323,35.1461634,-81.8548576
319,Ohio Street,29323,35.1564892,-81.8633520
221,South Alabama Avenue,29323,35.1464324,-81.8601772
201,North Alabama Avenue,29323,35.1509983,-81.8610042
115,North Alabama Avenue,29323,35.1505745,-81.8605931
202,North Virginia Avenue,29323,35.1552967,-81.8663571
109,South Alabama Avenue,29323,35.1481192,-81.8599824
317,Ohio Street,29323,35.1566923,-81.8640008
110,Lexington Street,29323,35.1488985,-81.8677929
202,North Virginia Avenue,29323,35.1546955,-81.8665367
212,Lexington Street,29323,35.1462512,-81.8655161
122,West Cherokee Street,29323,35.1488418,-81.8611967
400,Walker Avenue,29323,35.1423149,-81.8681701
204,East Cherokee Street,29323,35.1482163,-81.8585636
402,South Alabama Avenue,29323,35.1442992,-81.8608401
209,South Florida Avenue,29323,35.1468477,-81.8612570
115,South Alabama Avenue,29323,35.1478620,-81.8599866
204,West Cherokee Street,29323,35.1489288,-81.8620166
308,North Carolina Avenue,29323,35.1557792,-81.8613891
207,Ohio Street,29323,35.1541371,-81.8643980
215,Lexington Street,29323,35.1461296,-81.8643766
9,Horizon Drive,29323,35.1448419,-81.8686054
202,North Virginia Avenue,29323,35.1549416,-81.8663713
106,Lexington Street,29323,35.1491013,-81.8677329
208,South Alabama Avenue,29323,35.1469560,-81.8606764
105,California Avenue,29323,35.1492699,-81.8654402
202,North Virginia Avenue,29323,35.1555981,-81.8666691
116,West Cherokee Street,29323,35.1488404,-81.8609425
115,Lexington Street,29323,35.1488401,-81.8672841
106,West Cherokee Street,29323,35.1488380,-81.8605967
204,Lexington Street,29323,35.1468604,-81.8662386
103,West Cherokee Street,29323,35.1484811,-81.8606277
114,South Alabama Avenue,29323,35.1479176,-81.8606542
202,North Virginia Avenue,29323,35.1555978,-81.8667245
207,Ohio Street,29323,35.1539054,-81.8642527
301,South Alabama Avenue,29323,35.1458226,-81.8599877
412,South Alabama Avenue,29323,35.1436765,-81.8608087
202,North Virginia Avenue,29323,35.1549783,-81.8663699
105,West Cherokee Street,29323,35.1484755,-81.8606881
108,West Union Street,29323,35.1465798,-81.8613629
207,Ohio Street,29323,35.1542691,-81.8644822
113,South Alabama Avenue,29323,35.1479202,-81.8599867
511,Laurens Street,29323,35.1516747,-81.8689423
320,Richland Street,29323,35.1437913,-81.8675605
202,North Virginia Avenue,29323,35.1552585,-81.8663567
603,Fairfield Street,29323,35.1504025,-81.8689561
116,South Alabama Avenue,29323,35.1479140,-81.8605387
103,Richland Street,29323,35.1501502,-81.8685187
104,Lexington Street,29323,35.1490766,-81.8678722
209,West Manning Street,29323,35.1424130,-81.8646510
304,South Florida Avenue,29323,35.1455926,-81.8620908
202,North Virginia Avenue,29323,35.1548418,-81.8663739
218,Lexington Street,29323,35.1459374,-81.8653873
201,North Alabama Avenue,29323,35.1510492,-81.8610024
604,Fairfield Street,29323,35.1508017,-81.8689713
400,Walker Avenue,29323,35.1426724,-81.8682590
124,South Alabama Avenue,29323,35.1475117,-81.8605714
202,North Virginia Avenue,29323,35.1555953,-81.8664476
211,South Florida Avenue,29323,35.1467152,-81.8612429
105,South Alabama Avenue,29323,35.1483250,-81.8599761
207,California Avenue,29323,35.1471910,-81.8678728
704,Berkeley Street,29323,35.1547558,-81.8696723
711,Berkeley Street,29323,35.1543530,-81.8711475
207,Ohio Street,29323,35.1542651,-81.8641087
511,West Cherokee Street,29323,35.1537612,-81.8685771
202,North Virginia Avenue,29323,35.1550193,-81.8663721
116,Lexington Street,29323,35.1487334,-81.8677331
106,Delaware Street,29323,35.1479388,-81.8647939
601,West Cherokee Street,29323,35.1547251,-81.8691704
202,North Carolina Avenue,29323,35.1524618,-81.8616226
202,North Virginia Avenue,29323,35.1546952,-81.8665902
124,West Cherokee Street,29323,35.1488423,-81.8612788
110,Ted Circle,29323,35.1463017,-81.8658047
309,South Texas Avenue,29323,35.1522557,-81.8705236
114,West Cherokee Street,29323,35.1488395,-81.8608597
314,Richland Street,29323,35.1443887,-81.8678454
202,North Virginia Avenue,29323,35.1550810,-81.8663692
403,West Cherokee Street,29323,35.1512202,-81.8665990
305,South Florida Avenue,29323,35.1451101,-81.8615998
400,South Florida Avenue,29323,35.1446927,-81.8622730
223,South Alabama Avenue,29323,35.1462751,-81.8600217
119,South Alabama Avenue,29323,35.1477140,-81.8599918
202,Lexington Street,29323,35.1472684,-81.8666446
130,Streamside Drive,29323,35.1479094,-81.8655092
101,South Alabama Avenue,29323,35.1484301,-81.8599736
205,South Alabama Avenue,29323,35.1470903,-81.8599987
207,Ohio Street,29323,35.1538769,-81.8640092
213,South Alabama Avenue,29323,35.1467692,-81.8602108
400,Walker Avenue,29323,35.1427746,-81.8682764
202,North Virginia Avenue,29323,35.1552174,-81.8663616
207,Lexington Street,29323,35.1469139,-81.8654703
400,South Alabama Avenue,29323,35.1444133,-81.8608729
106,East Chester Street,29323,35.1471619,-81.8595420
111,South Alabama Avenue,29323,35.1479820,-81.8601670
430,South Virginia Avenue,29323,35.1478930,-81.8663054
108,North Carolina Avenue,29323,35.1496692,-81.8618689
117,South Alabama Avenue,29323,35.1478163,-81.8599882
214,Lexington Street,29323,35.1462631,-81.8653084
405,South Texas Avenue,29323,35.1517273,-81.8710444
201,North Alabama Avenue,29323,35.1509570,-81.8610057
275,Richland Street,29323,35.1462042,-81.8670123
202,North Virginia Avenue,29323,35.1555947,-81.8665226
287,Richland Street,29323,35.1457271,-81.8672738
128,West Cherokee Street,29323,35.1488436,-81.8614891
110,North Alabama Avenue,29323,35.1499584,-81.8600424
202,North Carolina Avenue,29323,35.1524578,-81.8614431
125,Lexington Street,29323,35.1487644,-81.8671576
834,Saluda Street,29323,35.1535236,-81.8733528
202,North Carolina Avenue,29323,35.1525150,-81.8619188
123,South Alabama Avenue,29323,35.1475082,-81.8599947
207,Ohio Street,29323,35.1542621,-81.8642828
110,California Avenue,29323,35.1486610,-81.8659807
112,Mckinney Street,29323,35.1435290,-81.8655916
202,North Virginia Avenue,29323,35.1547004,-81.8664742
755,Fairfield Street,29323,35.1479031,-81.8712829
112,West Cherokee Street,29323,35.1488388,-81.8607572
202,South Alabama Avenue,29323,35.1471969,-81.8606698
202,West Cherokee Street,29323,35.1489176,-81.8618888
126,West Cherokee Street,29323,35.1488431,-81.8613621
308,West Manning Street,29323,35.1428896,-81.8659441
400,Walker Avenue,29323,35.1425512,-81.8678677
202,North Virginia Avenue,29323,35.1555959,-81.8665691
219,West Cherokee Street,29323,35.1475707,-81.8628177
114,Mckinney Street,29323,35.1434251,-81.8659426
143,Lexington Street,29323,35.1482512,-81.8670194
219,South Alabama Avenue,29323,35.1464968,-81.8601135
404,South Alabama Avenue,29323,35.1441842,-81.8609339
105,Richland Street,29323,35.1500409,-81.8684581
201,North Alabama Avenue,29323,35.1509141,-81.8610069
305,North Carolina Avenue,29323,35.1551900,-81.8622134
207,Streamside Drive,29323,35.1484735,-81.8651851
13,Lexington Street,29323,35.1482003,-81.8675462
102,East Chester Street,29323,35.1471678,-81.8598672
207,Ohio Street,29323,35.1542539,-81.8639748
114,California Avenue,29323,35.1482786,-81.8660334
404,South Florida Avenue,29323,35.1443960,-81.8623363
202,North Virginia Avenue,29323,35.1554404,-81.8663568
122,South Alabama Avenue,29323,35.1477057,-81.8605882
110,Delaware Street,29323,35.1473925,-81.8648075
108,East Chester Street,29323,35.1471613,-81.8595110
107,South Alabama Avenue,29323,35.1482198,-81.8599787
514,West Cherokee Street,29323,35.1542347,-81.8682671
309,Richland Street,29323,35.1451312,-81.8676539
202,North Virginia Avenue,29323,35.1553392,-81.8663557
214,South Virginia Avenue,29323,35.1516297,-81.8672323
201,North Alabama Avenue,29323,35.1508702,-81.8610086
608,Fairfield Street,29323,35.1508102,-81.8694062
248,Ezell Circle,29323,35.1508477,-81.8729273
120,South Alabama Avenue,29323,35.1477748,-81.8605869
401,West Cherokee Street,29323,35.1508429,-81.8665019
217,South Alabama Avenue,29323,35.1465642,-81.8601151
406,Richland Street,29323,35.1425879,-81.8674147
110,South Alabama Avenue,29323,35.1481278,-81.8605661
116,Delaware Street,29323,35.1469368,-81.8647797
213,North Alabama Avenue,29323,35.1529805,-81.8607467
102,South Alabama Avenue,29323,35.1484733,-81.8605263
211,South Alabama Avenue,29323,35.1469279,-81.8600069
202,North Virginia Avenue,29323,35.1553847,-81.8663580
207,Ohio Street,29323,35.1538927,-81.8641115
112,South Alabama Avenue,29323,35.1479844,-81.8606526
400,Walker Avenue,29323,35.1423373,-81.8680392
202,North Carolina Avenue,29323,35.1525042,-81.8618258
207,Ohio Street,29323,35.1541336,-81.8642028
303,North Carolina Avenue,29323,35.1549050,-81.8619783
406,South Florida Avenue,29323,35.1441988,-81.8623759
202,North Virginia Avenue,29323,35.1549035,-81.8663745
214,South Alabama Avenue,29323,35.1468201,-81.8606794
101,Foster Circle,29323,35.1506727,-81.8715742
120,West Cherokee Street,29323,35.1488415,-81.8611116
306,Lexington Street,29323,35.1442338,-81.8642456
105,Marion Street,29323,35.1443342,-81.8615094
202,North Virginia Avenue,29323,35.1546943,-81.8667081
404,West Manning Street,29323,35.1413426,-81.8673815
118,West Cherokee Street,29323,35.1488411,-81.8610258
215,Richland Street,29323,35.1486792,-81.8683795
300,South Alabama Avenue,29323,35.1459462,-81.8607961
107,West Cherokee Street,29323,35.1484793,-81.8607715
408,North Carolina Avenue,29323,35.1574672,-81.8615134
119,South Alabama Avenue,29323,35.1477713,-81.8599899
115,Ted Circle,29323,35.1464524,-81.8656705
208,West Cherokee Street,29323,35.1488542,-81.8621762
302,North Texas Avenue,29323,35.1529427,-81.8704403
207,Ohio Street,29323,35.1539204,-81.8643838
205,California Avenue,29323,35.1471869,-81.8675395
102,Nevada Street,29323,35.1434091,-81.8632034
202,North Virginia Avenue,29323,35.1546933,-81.8666474
184,Eagle Ridge Drive,29323,35.1541429,-81.8586246
201,South Alabama Avenue,29323,35.1471726,-81.8601184
204,South Alabama Avenue,29323,35.1471288,-81.8606727
400,South Florida Avenue,29323,35.1447282,-81.8622677
110,East Chester Street,29323,35.1471579,-81.8594395
105,North Alabama Avenue,29323,35.1493404,-81.8605785
405,West Cherokee Street,29323,35.1510918,-81.8665326
7,Horizon Drive,29323,35.1449093,-81.8686296
202,North Virginia Avenue,29323,35.1546912,-81.8667657
703,Berkeley Street,29323,35.1542101,-81.8692929
102,Lexington Street,29323,35.1499939,-81.8687325
206,South Kentucky Avenue,29323,35.1468626,-81.8591581
137,Lexington Street,29323,35.1483856,-81.8670001
202,Carolina Avenue,29323,35.1524567,-81.8615374
281,Richland Street,29323,35.1460827,-81.8669256
118,South Alabama Avenue,29323,35.1478469,-81.8605850
206,South Alabama Avenue,29323,35.1470588,-81.8606741
121,South Alabama Avenue,29323,35.1476454,-81.8599924
104,East Chester Street,29323,35.1471630,-81.8596422
202,North Virginia Avenue,29323,35.1555955,-81.8666244
207,Ohio Street,29323,35.1541268,-81.8640346
120,Foster Circle,29323,35.1510100,-81.8712061
400,Walker Avenue,29323,35.1424678,-81.8678570
202,North Carolina Avenue,29323,35.1524927,-81.8617265
207,Ohio Street,29323,35.1540986,-81.8638946
507,West Cherokee Street,29323,35.1528639,-81.8677439
810,South Alabama Avenue,29323,35.1335718,-81.8569750
26247,Csx Rr Tracks,29323,35.1360422,-81.8639460
675,Redline Avenue,29323,35.1374828,-81.8638779
716,South Alabama Avenue,29323,35.1360730,-81.8631539
718,South Alabama Avenue,29323,35.1358648,-81.8631734
718,South Alabama Avenue,29323,35.1359623,-81.8631636
714,South Alabama Avenue,29323,35.1362524,-81.8631293
720,South Alabama Avenue,29323,35.1357894,-81.8631942
712,South Alabama Avenue,29323,35.1366949,-81.8630885
715,South Alabama Avenue,29323,35.1357462,-81.8617788
602,Redline Avenue,29323,35.1405272,-81.8640516
616,Redline Avenue,29323,35.1393725,-81.8642535
614,Redline Avenue,29323,35.1395398,-81.8642495
401,West Manning Street,29323,35.1411460,-81.8667298
618,Redline Avenue,29323,35.1392084,-81.8642543
201,North Alabama Avenue,29323,35.1508178,-81.8610053
610,Redline Avenue,29323,35.1398757,-81.8643905
102,North Alabama Avenue,29323,35.1488707,-81.8600915
109,West Cherokee Street,29323,35.1484834,-81.8608629
408,South Alabama Avenue,29323,35.1440244,-81.8608115
107,Hampton Street,29323,35.1514730,-81.8597969
795,South Alabama Avenue,29323,35.1330805,-81.8613545
805,South Alabama Avenue,29323,35.1332446,-81.8591062
212,North Alabama Avenue,29323,35.1527656,-81.8594675
401,South Alabama Avenue,29323,35.1439532,-81.8599360
100,Liberty Street,29323,35.1373803,-81.8593781
750,South Alabama Avenue,29323,35.1344794,-81.8632381
307,South Georgia Avenue,29323,35.1452805,-81.8570935
405,Edgefield Street,29323,35.1453075,-81.8556840
501,Pickens Street,29323,35.1453645,-81.8546000
205,East Cherokee Street,29323,35.1491390,-81.8579330
504,Pickens Street,29323,35.1450470,-81.8543030
202,North Georgia Avenue,29323,35.1509015,-81.8567945
208,South Lee Street,29323,35.1463420,-81.8562105
101,South Georgia Avenue,29323,35.1477525,-81.8571125
201,South Lee Street,29323,35.1470392,-81.8555771
305,South Lee Street,29323,35.1455080,-81.8560725
309,South Georgia Avenue,29323,35.1451070,-81.8571095
307,East Cherokee Street,29323,35.1488185,-81.8560975
310,East Cherokee Street,29323,35.1481195,-81.8557865
304,East Cherokee Street,29323,35.1483105,-81.8567325
104,South Georgia Avenue,29323,35.1477630,-81.8575065
212,South Cash Avenue,29323,35.1457055,-81.8549710
212,York Street,29323,35.1458035,-81.8579185
207,North Georgia Avenue,29323,35.1513740,-81.8574865
403,Pickens Street,29323,35.1448080,-81.8558665
405,Pickens Street,29323,35.1448945,-81.8555855
201,South Cash Avenue,29323,35.1463000,-81.8542550
196,North Georgia Avenue,29323,35.1505625,-81.8568215
509,Pickens Street,29323,35.1458110,-81.8539040
212,East Union Street,29323,35.1437805,-81.8578900
305,Edgefield Street,29323,35.1454982,-81.8567573
401,Pickens Street,29323,35.1446860,-81.8562475
105,South Georgia Avenue,29323,35.1475185,-81.8570640
312,South Lee Street,29323,35.1449065,-81.8567815
210,South Cash Avenue,29323,35.1460088,-81.8549995
209,East Union Street,29323,35.1442755,-81.8575785
103,South Lee Street,29323,35.1477740,-81.8553785
302,East Cherokee Street,29323,35.1483195,-81.8571110
407,Edgefield Street,29323,35.1452685,-81.8555045
314,South Georgia Avenue,29323,35.1447200,-81.8576695
308,South Lee Street,29323,35.1452410,-81.8567610
209,East Cherokee Street,29323,35.1488445,-81.8574715
406,Pickens Street,29323,35.1445765,-81.8549595
106,South Georgia Avenue,29323,35.1476010,-81.8575110
205,South Lee Street,29323,35.1464200,-81.8554829
207,East Union Street,29323,35.1447470,-81.8582880
104,Brock Road,29323,35.1469140,-81.8552815
212,Hampton Street,29323,35.1515345,-81.8578670
305,East Cherokee Street,29323,35.1488640,-81.8564365
308,South Georgia Avenue,29323,35.1452205,-81.8576100
211,South Lee Street,29323,35.1459705,-81.8559525
103,Brock Road,29323,35.1468180,-81.8550230
506,Pickens Street,29323,35.1451465,-81.8541135
313,South Georgia Avenue,29323,35.1446500,-81.8570785
202,South Cash Avenue,29323,35.1464080,-81.8548285
210,Hampton Street,29323,35.1514015,-81.8582530
502,Pickens Street,29323,35.1449625,-81.8545115
207,South Georgia Avenue,29323,35.1467200,-81.8569395
310,South Lee Street,29323,35.1450775,-81.8567650
407,Pickens Street,29323,35.1449485,-81.8554260
214,Hampton Street,29323,35.1517025,-81.8574335
207,East Cherokee Street,29323,35.1489035,-81.8578875
312,South Georgia Avenue,29323,35.1449340,-81.8576365
190,South Cash Avenue,29323,35.1470020,-81.8546760
206,East Union Street,29323,35.1443920,-81.8584175
311,South Georgia Avenue,29323,35.1449340,-81.8570965
205,North Georgia Avenue,29323,35.1511360,-81.8574880
106,North Georgia Avenue,29323,35.1494445,-81.8568365
214,York Street,29323,35.1457905,-81.8575620
211,South Kentucky Avenue,29323,35.1463495,-81.8582735
308,East Cherokee Street,29323,35.1482650,-81.8561335
303,South Lee Street,29323,35.1456380,-81.8560430
203,South Lee Street,29323,35.1467717,-81.8555080
411,Edgefield Street,29323,35.1452260,-81.8551195
203,North Georgia Avenue,29323,35.1507395,-81.8576290
208,East Union Street,29323,35.1441370,-81.8582900
310,South Georgia Avenue,29323,35.1450645,-81.8576035
306,East Cherokee Street,29323,35.1482880,-81.8563685
301,East Cherokee Street,29323,35.1488710,-81.8570085
508,Pickens Street,29323,35.1451970,-81.8538000
206,East Cherokee Street,29323,35.1482800,-81.8582110
403,Edgefield Street,29323,35.1453370,-81.8559385
112,California Avenue,29323,35.1484400,-81.8660320
303,North Alabama Avenue,29323,35.1549785,-81.8606045
403,North Carolina Avenue,29323,35.1566805,-81.8621400
314,South Kentucky Avenue,29323,35.1446565,-81.8591955
205,South Florida Avenue,29323,35.1468575,-81.8614875
208,California Avenue,29323,35.1474630,-81.8682320
263,Richland Street,29323,35.1468954,-81.8681443
208,South Kentucky Avenue,29323,35.1467180,-81.8591495
402,North Alabama Avenue,29323,35.1564355,-81.8597640
6,Horizon Drive,29323,35.1451770,-81.8683975
308,North Alabama Avenue,29323,35.1560265,-81.8597840
126,Lexington Street,29323,35.1484735,-81.8677050
102,California Avenue,29323,35.1499125,-81.8658190
411,South Kentucky Avenue,29323,35.1436490,-81.8586530
204,South Florida Avenue,29323,35.1468840,-81.8621230
2,Horizon Drive,29323,35.1452055,-81.8681595
505,Fairfield Street,29323,35.1500410,-81.8680105
410,South Florida Avenue,29323,35.1437345,-81.8628780
704,Fairfield Street,29323,35.1505975,-81.8709485
102,West Marion Street,29323,35.1447555,-81.8609935
411,North Carolina Avenue,29323,35.1575750,-81.8621240
510,Laurens Street,29323,35.1521900,-81.8689050
108,California Avenue,29323,35.1488150,-81.8660575
708,Fairfield Street,29323,35.1502050,-81.8710675
230,North Carolina Avenue,29323,35.1527630,-81.8615820
111,North Virginia Avenue,29323,35.1542790,-81.8673775
401,North Alabama Avenue,29323,35.1565840,-81.8605770
306,South Texas Avenue,29323,35.1523600,-81.8698275
203,South Florida Avenue,29323,35.1470425,-81.8613530
404,Parris Alley,29323,35.1440995,-81.8612765
215,North Alabama Avenue,29323,35.1533955,-81.8606890
313,South Kentucky Avenue,29323,35.1453025,-81.8587690
207,South Florida Avenue,29323,35.1467150,-81.8614470
508,Fairfield Street,29323,35.1509640,-81.8680780
401,South Florida Avenue,29323,35.1443845,-81.8617930
205,East Union Street,29323,35.1448988,-81.8584628
316,Lexington Street,29323,35.1434405,-81.8641880
405,South Florida Avenue,29323,35.1438210,-81.8619400
412,Richland Street,29323,35.1418225,-81.8671970
5,Horizon Drive,29323,35.1449385,-81.8683160
102,East Union Street,29323,35.1451875,-81.8595515
302,Lexington Street,29323,35.1448910,-81.8645155
302,North Alabama Avenue,29323,35.1546225,-81.8593880
269,Richland Street,29323,35.1464620,-81.8671900
103,Berkeley Street,29323,35.1540660,-81.8613075
407,South Texas Avenue,29323,35.1514470,-81.8705530
403,South Kentucky Avenue,29323,35.1442650,-81.8587430
400,Walker Avenue,29323,35.1420155,-81.8677485
203,East Cherokee Street,29323,35.1488935,-81.8585715
405,North Carolina Avenue,29323,35.1569935,-81.8621255
505,Fairfield Street,29323,35.1503335,-81.8680530
103,East Chester Street,29323,35.1475805,-81.8595340
412,South Florida Avenue,29323,35.1434785,-81.8626370
219,Lexington Street,29323,35.1454210,-81.8642680
110,Mckinney Street,29323,35.1435985,-81.8652600
409,South Florida Avenue,29323,35.1432950,-81.8621260
319,Richland Street,29323,35.1436850,-81.8671750
503,South Alabama Avenue,29323,35.1424795,-81.8601660
501,West Cherokee Street,29323,35.1523895,-81.8674235
110,Mckinney Street,29323,35.1433225,-81.8653625
90,Horizon Drive,29323,35.1455315,-81.8688265
148,Lexington Street,29323,35.1478485,-81.8673490
702,Saluda Street,29323,35.1535265,-81.8706200
205,Berkeley Street,29323,35.1541800,-81.8625845
508,West Cherokee Street,29323,35.1533885,-81.8675530
118,California Avenue,29323,35.1480710,-81.8669760
400,Walker Avenue,29323,35.1421105,-81.8680115
306,North Carolina Avenue,29323,35.1554485,-81.8613795
238,Richland Street,29323,35.1481178,-81.8691333
410,South Florida Avenue,29323,35.1436705,-81.8625470
403,North Alabama Avenue,29323,35.1567195,-81.8607790
112,North Alabama Avenue,29323,35.1504927,-81.8598890
108,Delaware Street,29323,35.1477665,-81.8647715
100,East Marion Street,29323,35.1447570,-81.8594500
230,South Alabama Avenue,29323,35.1462250,-81.8607270
206,California Avenue,29323,35.1475665,-81.8678790
109,Mckinney Street,29323,35.1438800,-81.8649335
201,West Cherokee Street,29323,35.1483195,-81.8619955
304,South Texas Avenue,29323,35.1524880,-81.8698775
211,North Alabama Avenue,29323,35.1527675,-81.8608040
109,Mckinney Street,29323,35.1438552,-81.8653523
212,South Virginia Avenue,29323,35.1511815,-81.8674835
207,North Alabama Avenue,29323,35.1518940,-81.8607120
210,South Virginia Avenue,29323,35.1514145,-81.8674860
511,Saluda Street,29323,35.1529780,-81.8691060
407,Fairfield Street,29323,35.1503370,-81.8663715
204,California Avenue,29323,35.1477805,-81.8675405
310,Lexington Street,29323,35.1438130,-81.8641295
201,North Virginia Avenue,29323,35.1547695,-81.8674355
509,Laurens Street,29323,35.1516560,-81.8686550
414,South Florida Avenue,29323,35.1431975,-81.8626760
502,South Kentucky Avenue,29323,35.1427275,-81.8593415
140,Ohio Street,29323,35.1519940,-81.8640850
206,South Virginia Avenue,29323,35.1509155,-81.8674700
303,South Florida Avenue,29323,35.1453600,-81.8615125
302,North Carolina Avenue,29323,35.1548585,-81.8613840
323,Ohio Street,29323,35.1564180,-81.8640730
406,South Texas Avenue,29323,35.1517165,-81.8695730
215,Ezell Circle,29323,35.1503735,-81.8720585
505,Laurens Street,29323,35.1516645,-81.8681700
100,Richland Street,29323,35.1501470,-81.8689775
306,North Alabama Avenue,29323,35.1556790,-81.8597475
400,Walker Avenue,29323,35.1426910,-81.8680270
703,Saluda Street,29323,35.1530965,-81.8707775
430,South Virginia Avenue,29323,35.1481020,-81.8667210
304,North Alabama Avenue,29323,35.1553305,-81.8597840
106,West Union Street,29323,35.1458705,-81.8615350
401,South Texas Avenue,29323,35.1518750,-81.8705125
310,North Carolina Avenue,29323,35.1559400,-81.8613905
602,Saludia Street,29323,35.1534775,-81.8695395
310,West Manning Street,29323,35.1421252,-81.8659756
104,California Avenue,29323,35.1495010,-81.8660815
240,Utah Street,29323,35.1540275,-81.8718105
509,West Cherokee Street,29323,35.1535187,-81.8683659
126,North Carolina Avenue,29323,35.1511475,-81.8618735
413,North Carolina Avenue,29323,35.1577690,-81.8621145
308,South Alabama Avenue,29323,35.1451695,-81.8607305
404,South Kentucky Avenue,29323,35.1443185,-81.8591950
512,Fairfield Street,29323,35.1508475,-81.8685430
304,North Carolina Avenue,29323,35.1551620,-81.8613830
801,Saluda Street,29323,35.1519885,-81.8724960
101,Lexington Street,29323,35.1496220,-81.8677560
401,North Carolina Avenue,29323,35.1563830,-81.8621715
606,Fairfield Street,29323,35.1507985,-81.8692095
311,West Cherokee Street,29323,35.1502775,-81.8658055
407,North Carolina Avenue,29323,35.1571945,-81.8621270
115,East Marion Street,29323,35.1441455,-81.8595215
215,Ohio Street,29323,35.1552305,-81.8640090
406,North Carolina Avenue,29323,35.1572390,-81.8615070
109,West Union Street,29323,35.1464205,-81.8613560
240,Richland Street,29323,35.1474590,-81.8690015
605,West Cherokee Street,29323,35.1550590,-81.8696075
104,Delaware Street,29323,35.1481525,-81.8647420
213,Lexington Street,29323,35.1463130,-81.8647700
209,North Alabama Avenue,29323,35.1523085,-81.8607110
403,South Florida Avenue,29323,35.1441230,-81.8619015
106,California Avenue,29323,35.1490255,-81.8661315
408,South Texas Avenue,29323,35.1513115,-81.8699320
102,West Union Street,29323,35.1456705,-81.8609555
306,South Florida Avenue,29323,35.1452360,-81.8621230
205,South Kentucky Avenue,29323,35.1470720,-81.8584975
112,Foster Circle,29323,35.1507795,-81.8712565
306,South Virginia Avenue,29323,35.1495035,-81.8673405
317,Richland Street,29323,35.1439135,-81.8672540
409,Richland Street,29323,35.1422845,-81.8666175
322,Richland Street,29323,35.1433320,-81.8675445
108,Hampton Street,29323,35.1503695,-81.8594465
501,South Alabama Avenue,29323,35.1427345,-81.8601380
512,Berkeley Street,29323,35.1548490,-81.8679985
316,Richland Street,29323,35.1441395,-81.8677660
111,East Marion Street,29323,35.1443525,-81.8595150
106,Mckinney Street,29323,35.1435525,-81.8647730
217,Ohio Street,29323,35.1554500,-81.8647730
605,Saluda Street,29323,35.1529465,-81.8695095
407,South Florida Avenue,29323,35.1435540,-81.8620880
403,Saluda Street,29323,35.1529490,-81.8652355
507,Saluda Street,29323,35.1529785,-81.8684220
119,Mckinney Street,29323,35.1433812,-81.8671351
416,South Kentucky Avenue,29323,35.1436465,-81.8592330
102,South Virginia Avenue,29323,35.1520655,-81.8673360
315,Richland Street,29323,35.1440925,-81.8673030
408,South Alabama Avenue,29323,35.1440120,-81.8608405
207,North Virginia Avenue,29323,35.1552590,-81.8674575
402,South Florida Avenue,29323,35.1448145,-81.8629785
417,South Alabama Avenue,29323,35.1432910,-81.8597805
109,Lexington Street,29323,35.1490030,-81.8673005
408,Richland Street,29323,35.1420805,-81.8672420
112,East Marion Street,29323,35.1450170,-81.8595530
321,Richland Street,29323,35.1435506,-81.8671982
402,West Manning Street,29323,35.1414250,-81.8670870
107,North Alabama Avenue,29323,35.1493400,-81.8606050
513,West Cherokee Street,29323,35.1539599,-81.8687167
408,South Kentucky Avenue,29323,35.1439855,-81.8592625
106,Hampton Street,29323,35.1507428,-81.8595109
112,Delaware Street,29323,35.1472260,-81.8648035
314,South Alabama Avenue,29323,35.1447770,-81.8606300
110,East Marion Street,29323,35.1447505,-81.8596135
103,West Oconee Street,29323,35.1578810,-81.8612740
104,West Union Street,29323,35.1458211,-81.8612919
317,South Kentucky Avenue,29323,35.1446710,-81.8587490
504,West Cherokee Street,29323,35.1529880,-81.8672253
409,North Carolina Avenue,29323,35.1573850,-81.8621190
315,South Kentucky Avenue,29323,35.1450620,-81.8586705
203,Lexington Street,29323,35.1475310,-81.8661265
511,Fairfield Street,29323,35.1503665,-81.8683680
110,Hampton Street,29323,35.1505090,-81.8594375
102,North Alabama Avenue,29323,35.1488775,-81.8600295
524,Fairfield Street,29323,35.1508225,-81.8698835
280,West Cherokee Street,29323,35.1495320,-81.8645085
407,West Cherokee Street,29323,35.1516545,-81.8667200
401,South Kentucky Avenue,29323,35.1443975,-81.8587395
501,Fairfield Street,29323,35.1502345,-81.8675385
304,South Alabama Avenue,29323,35.1454670,-81.8607235
109,Manning Street,29323,35.1424595,-81.8609925
102,Berkeley Street,29323,35.1546225,-81.8614515
402,West Cherokee Street,29323,35.1510760,-81.8656020
11,Mcbrayer Street,29323,35.1554390,-81.8679750
408,Saluda Street,29323,35.1534255,-81.8665405
509,Fairfield Street,29323,35.1503415,-81.8681820
499,Laurens Street,29323,35.1516755,-81.8680045
409,North Alabama Avenue,29323,35.1575615,-81.8605600
311,Richland Street,29323,35.1449625,-81.8674555
414,South Alabama Avenue,29323,35.1433325,-81.8608950
113,South Florida Avenue,29323,35.1483555,-81.8614550
206,North Georgia Avenue,29323,35.1513130,-81.8585330
600,Fairfield Street,29323,35.1507815,-81.8705505
713,Fairfield Street,29323,35.1495575,-81.8708765
211,Ohio Street,29323,35.1546710,-81.8638770
508,Laurens Street,29323,35.1521505,-81.8684755
712,Fairfield Street,29323,35.1499465,-81.8713110
106,West Marion Street,29323,35.1447785,-81.8612620
203,California Avenue,29323,35.1474510,-81.8674525
202,South Florida Avenue,29323,35.1471255,-81.8620570
310,South Kentucky Avenue,29323,35.1450150,-81.8592290
400,Walker Avenue,29323,35.1416100,-81.8677855
210,Lexington Street,29323,35.1465575,-81.8658585
1,Horizon Drive,29323,35.1449830,-81.8680145
309,South Florida Avenue,29323,35.1448000,-81.8616010
307,North Alabama Avenue,29323,35.1558250,-81.8606385
104,Mckinney Street,29323,35.1433790,-81.8645410
305,North Alabama Avenue,29323,35.1552790,-81.8606125
205,North Alabama Avenue,29323,35.1515420,-81.8607415
229,Ezell Circle,29323,35.1498765,-81.8724045
359,South Virginia Avenue,29323,35.1488030,-81.8666345
404,North Carolina Avenue,29323,35.1568275,-81.8614670
309,South Alabama Avenue,29323,35.1448960,-81.8599345
121,West Cherokee Street,29323,35.1483305,-81.8612765
104,West Greenwood Street,29323,35.1564730,-81.8614415
312,South Kentucky Avenue,29323,35.1448520,-81.8591795
510,Berkeley Street,29323,35.1547235,-81.8683550
302,South Florida Avenue,29323,35.1460605,-81.8620250
104,North Florida Avenue,29323,35.1493335,-81.8614310
311,South Kentucky Avenue,29323,35.1455100,-81.8587605
202,Berkeley Street,29323,35.1546430,-81.8621665
309,North Carolina Avenue,29323,35.1556955,-81.8621860
305,South Virginia Avenue,29323,35.1496065,-81.8667710
421,South Alabama Avenue,29323,35.1430990,-81.8599005
308,Lexington Street,29323,35.1439825,-81.8641960
202,Richland Street,29323,35.1496190,-81.8692950
405,North Alabama Avenue,29323,35.1571220,-81.8605790
310,South Alabama Avenue,29323,35.1449110,-81.8607040
528,Laurens Street,29323,35.1520634,-81.8698430
303,South Alabama Avenue,29323,35.1453215,-81.8600495
146,North Carolina Avenue,29323,35.1516425,-81.8618870
304,West Manning Street,29323,35.1428940,-81.8643805
408,South Florida Avenue,29323,35.1440690,-81.8624505
503,West Cherokee Street,29323,35.1526400,-81.8675590
110,North Virginia Avenue,29323,35.1540020,-81.8666730
3,Horizon Drive,29323,35.1449525,-81.8681985
4,Horizon Drive,29323,35.1452170,-81.8682790
515,West Cherokee Street,29323,35.1542679,-81.8689337
307,North Carolina Avenue,29323,35.1554235,-81.8621760
218,South Alabama Avenue,29323,35.1466893,-81.8606602
604,West Cherokee Street,29323,35.1549920,-81.8689150
410,South Texas Avenue,29323,35.1511395,-81.8705440
613,Fairfield Street,29323,35.1501640,-81.8701435
102,North Carolina Avenue,29323,35.1493335,-81.8618385
142,Lexington Street,29323,35.1480555,-81.8675220
720,Fairfield Street,29323,35.1492508,-81.8720268
708,Berkeley Street,29323,35.1547490,-81.8703140
405,South Kentucky Avenue,29323,35.1441335,-81.8587475
309,West Manning Street,29323,35.1415020,-81.8662220
301,North Alabama Avenue,29323,35.1546925,-81.8606830
116,Mckinney Street,29323,35.1433000,-81.8661005
104,North Carolina Avenue,29323,35.1494210,-81.8621775
308,South Florida Avenue,29323,35.1450210,-81.8622250
124,Foster Circle,29323,35.1509210,-81.8715825
400,Walker Avenue,29323,35.1418150,-81.8677010
111,Mckinney Street,29323,35.1439090,-81.8658680
115,South Florida Avenue,29323,35.1477820,-81.8614725
201,California Avenue,29323,35.1476615,-81.8672220
312,West Manning Street,29323,35.1418085,-81.8664655
106,Richland Street,29323,35.1498350,-81.8687415
716,Fairfield Street,29323,35.1496530,-81.8720025
201,Richland Street,29323,35.1494170,-81.8683845
513,Fairfield Street,29323,35.1503970,-81.8686230
209,Berkeley Street,29323,35.1540365,-81.8650100
404,Richland Street,29323,35.1428125,-81.8674435
503,Fairfield Street,29323,35.1503695,-81.8678630
306,West Manning Street,29323,35.1429080,-81.8647545
503,Saluda Street,29323,35.1529675,-81.8680000
509,Saluda Street,29323,35.1528590,-81.8687050
106,West Manning Street,29323,35.1432650,-81.8614595
311,West Manning Street,29323,35.1413140,-81.8664855
107,Waddell Alley,29323,35.1480020,-81.8612040
223,Ezell Circle,29323,35.1500525,-81.8722090
512,West Cherokee Street,29323,35.1539105,-81.8679840
721,Fairfield Street,29323,35.1490710,-81.8711905
118,Lexington Street,29323,35.1485230,-81.8670090
104,North Alabama Avenue,29323,35.1490955,-81.8600150
311,North Carolina Avenue,29323,35.1559970,-81.8621620
714,Fairfield Street,29323,35.1497195,-81.8715525
108,North Virginia Avenue,29323,35.1536885,-81.8667400
407,South Kentucky Avenue,29323,35.1439885,-81.8587190
206,Pickens Avenue,29323,35.1383660,-81.8581300
631,South Georgia Avenue,29323,35.1364970,-81.8571515
309,Hidden Acres Drive,29323,35.1352295,-81.8563670
604,South Alabama Avenue,29323,35.1405677,-81.8620456
612,Redline Avenue,29323,35.1396975,-81.8641155
610,Redline Avenue,29323,35.1398620,-81.8640945
600,Redline Avenue,29323,35.1407090,-81.8640605
106,Pickens Avenue,29323,35.1383595,-81.8593990
403,West Manning Street,29323,35.1409300,-81.8668770
104,Pickens Avenue,29323,35.1383780,-81.8598160
204,Pickens Avenue,29323,35.1383760,-81.8584725
606,Redline Avenue,29323,35.1401975,-81.8640905
730,South Alabama Avenue,29323,35.1352150,-81.8629197
405,West Manning Street,29323,35.1407700,-81.8671105
406,West Manning Street,29323,35.1411515,-81.8675195
608,Redline Avenue,29323,35.1400295,-81.8640970
108,Pickens Avenue,29323,35.1383575,-81.8591090
102,Pickens Avenue,29323,35.1383805,-81.8602720
202,Pickens Avenue,29323,35.1383750,-81.8588105
620,Redline Avenue,29323,35.1389920,-81.8640970
604,Redline Avenue,29323,35.1403580,-81.8640815
407,West Manning Street,29323,35.1405910,-81.8674050
740,South Alabama Avenue,29323,35.1348992,-81.8631309
220,South Alabama Avenue,29323,35.1465993,-81.8605773
