House number,Street name,Postal code,Latitude,Longitude
8301,Farrow Road,29203,34.0932085,-80.9756450
4500,Stuart Street,29207,34.0119628,-80.9378125
610,Faison Drive,29203,34.0894333,-80.9865942
3003,Rosewood Drive,29205,33.9884686,-81.0005603
6090,Garners Ferry Road,29209,33.9814462,-80.9686260
3403,North Main Street,29203-6434,34.0304367,-81.0426645
1749,Sunset Drive,29203,34.0299355,-81.0326328
"100, Space1040",Columbiana Drive,29212,34.0780982,-81.1566172
3720,Rosewood Drive,29205,33.9875604,-80.9888914
3801,Rosewood Drive,29205,33.9881053,-80.9883844
715,Crowson Road,29205,33.9910433,-80.9743837
4601,Devine Street,29205,33.9906534,-80.9746348
921,Sumter Street,29201,33.9985675,-81.0307934
1221,Main Street,29201,34.0016296,-81.0339515
931,Senate Street,29201,33.9989303,-81.0369344
625,Main Street,29201,33.9940328,-81.0305402
271,Harbison Boulevard,29212,34.0716316,-81.1616099
271,Harbison Boulevard,29212,34.0715583,-81.1617005
5901,Fairfield Road,29203,34.0651788,-81.0233915
1320,Main Street,29201,34.0033149,-81.0342325
1777,Saint Julian Place,29204,34.0189979,-81.0027376
2902,Two Notch Road,29204-1438,34.0350921,-81.0035984
1223,Lincoln Street,29201,34.0005403,-81.0390730
1219,Lincoln Street,29201,34.0004634,-81.0390398
919,Gervais Street,29201,34.0001848,-81.0376729
1010,Gervais Street,29201,34.0002544,-81.0362828
905,Gervais Street,29201,34.0000366,-81.0381684
807,Gervais Street,29201,33.9995695,-81.0396155
715,Gervais Street,29201,33.9993769,-81.0404895
1217,College Street,29201,33.9976364,-81.0309260
900,Assembly Street,29201,33.9971590,-81.0329009
801,Gadsden Street,29201,33.9994557,-81.0399798
1601,Main Street,29201,34.0067568,-81.0362015
1211,Taylor Street,29201,34.0069621,-81.0353689
1714,Broad River Road,29210,34.0338706,-81.0882292
3900,North Main Street,29203,34.0376748,-81.0405272
3514,North Main Street,29203,34.0326390,-81.0419334
410,Columbiana Drive,29212,34.0864485,-81.1625634
C3,South Beltline Boulevard,29205,33.9838579,-80.9809393
276,Harbison Boulevard,29212,34.0725601,-81.1579093
918,Huger Street,29201,33.9946406,-81.0431814
4347,Fort Jackson Boulevard,29205,33.9919371,-80.9740025
1001,Harden Street,29205,34.0026702,-81.0183611
3223,Devine Street,29205,33.9977888,-80.9948051
1556,Main Street,29201,34.0065407,-81.0356723
1538,Main Street,29201,34.0061768,-81.0355157
1501,Main Street,29201,34.0053345,-81.0364482
1400,Main Street,29201,34.0041322,-81.0345831
1301,Main Street,29201,34.0027275,-81.0344059
1811,Pickens Street,29201,34.0116623,-81.0311077
276,Harbison Boulevard,29212,34.0725974,-81.1578205
1313,Elmwood Ave,29201,34.0143282,-81.0367806
1527,Blanding Street,29201,34.0099492,-81.0307433
256,Harbison Boulevard,29212,34.0704782,-81.1583824
272,Harbison Boulevard,29212,34.0718260,-81.1569837
275,Park Terrace Drive,29212,34.0708148,-81.1534043
320,Harbison Boulevard,29212,34.0727610,-81.1552080
320,Harbison Boulevard,29212,34.0729394,-81.1549844
320,Harbison Boulevard,29212,34.0731381,-81.1546815
320,Harbison Boulevard,29212,34.0733031,-81.1544335
275,Harbison Boulevard,29212,34.0748738,-81.1580521
275,Harbison Boulevard,29212,34.0745167,-81.1587934
275,Harbison Boulevard,29212,34.0734663,-81.1603481
275,Harbison Boulevard,29212,34.0732508,-81.1602167
131,Harbison Boulevard,29212,34.0682330,-81.1663357
189,Harbison Boulevard,29212,34.0699982,-81.1638260
201,Harbison Boulevard,29212,34.0705292,-81.1631971
450,Gracern Road,29210,34.0136385,-81.0774971
418,Bush River Road,29210,34.0303384,-81.0922695
302,Bush River Road,29210,34.0318830,-81.0915481
421,Bush River Road,29210,34.0315096,-81.0914462
2011,Devine Street,29205,33.9987820,-81.0167825
1001,Harden Street,29205,34.0022169,-81.0183932
160,Assembly Street,29201,33.9871390,-81.0287750
136,South Assembly Street,29201,33.9867750,-81.0286005
144,Harbison Boulevard,29212,34.0675233,-81.1630342
150,Harbison Boulevard,29212,34.0681446,-81.1620768
1619,Pendleton Street,29201,34.0010619,-81.0248261
4000,North Main Street,29203,34.0391127,-81.0401586
3730,North Main Street,29203,34.0355585,-81.0414511
1320,Bush River Road,29210,34.0297194,-81.1066719
1130,Kinley Road,29212,34.0915810,-81.1632899
7523,Garners Ferry Road,29209,33.9620791,-80.9435646
7541,Garners Ferry Road,29209,33.9613263,-80.9414282
7521,Garners Ferry Road,29209,33.9629860,-80.9425373
7501,Garners Ferry Road,29209,33.9648781,-80.9438893
3852,Rosewood Drive,29205,33.9874003,-80.9868012
2001,Rosewood Drive,29205,33.9855331,-81.0127082
100,Columbiana Circle,29212,34.0791308,-81.1582199
100,Columbiana Circle,29212,34.0802557,-81.1574023
100,Columbiana Circle,29212,34.0788185,-81.1566801
2800,Rosewood Drive,29205-3412,33.9872376,-81.0032747
1426,Main Street,29201,34.0046915,-81.0347144
6070,Garners Ferry Road,29209,33.9832798,-80.9679785
1320,Main Street,29201,34.0031466,-81.0341348
1426,Main Street,29201,34.0045553,-81.0347670
2009,Devine Street,29205,33.9987635,-81.0168554
1728,Main Street,29201,34.0088805,-81.0367170
901,South Holly Street,29205,33.9810294,-80.9989478
1000-1046,Airport Boulevard,29205,33.9777244,-81.0006013
1402,Jim Hamilton Boulevard,29205,33.9765844,-81.0018485
6306,Garners Ferry Road,29209,33.9809956,-80.9624177
232,Skyland Drive,29210,34.0147300,-81.0662638
1320,Main St,29201,34.0032322,-81.0342033
3508,N Main St,29203,34.0321660,-81.0419476
1237,Gadsden Street,29201,34.0003293,-81.0407782
2300,Bull Street,29201,34.0185496,-81.0347191
131,Harbison Boulevard,29212,34.0682881,-81.1662443
1655,Bernardin Avenue,29204,34.0145267,-81.0143484
3,Richland Medical Park Drive,29203,34.0274088,-81.0342411
334,Harbison Boulevard,29212,34.0745918,-81.1549465
334,Harbison Boulevard,29212,34.0744158,-81.1546983
250,Harbison Boulevard,29212,34.0717901,-81.1595756
3514,North Main Street,29203,34.0327392,-81.0419409
220,Stoneridge Drive,29210,34.0144529,-81.0792936
801,Gervais Street,29201,33.9998613,-81.0401151
1649,Main Street,29201,34.0077772,-81.0366269
275,Harbison Boulevard,29212,34.0743317,-81.1594520
1221,Bower Parkway,29212,34.0697159,-81.1572912
2417,Monroe Street,29205,33.9926737,-81.0110403
1201,Main Street,29201,34.0013303,-81.0347938
5424,Forest Drive,29206,34.0202180,-80.9493846
5424,Forest Drive,29206,34.0201269,-80.9497212
5550,Forest Drive,29206,34.0213779,-80.9483834
5560,Forest Drive,29206,34.0212479,-80.9483358
5570,Forest Drive,29206,34.0210556,-80.9482849
5580,Forest Drive,29206,34.0208527,-80.9482098
5590,Forest Drive,29206,34.0206104,-80.9481427
106,Percival Road,29206,34.0238972,-80.9502724
933,Gervais Street,29201,34.0003208,-81.0372185
1217,College Street,29201,33.9976264,-81.0309637
1122,Lady Street,29201,34.0022301,-81.0347294
275,Park Terrace Drive,29212,34.0708495,-81.1533249
275,Park Terrace Drive,29212,34.0708894,-81.1532567
1304,Bower Parkway,29212,34.0705149,-81.1519700
1290,Bower Parkway,29212,34.0701994,-81.1524559
1221,Main Street,29201,34.0015562,-81.0341237
631B,Harden,29201,33.9982919,-81.0159134
275,Harbison Boulevard,29212,34.0739490,-81.1606507
275,Harbison Boulevard,29212,34.0740404,-81.1604453
275,Harbison Boulevard,29212,34.0741116,-81.1602185
275,Harbison Boulevard,29212,34.0742677,-81.1598092
275,Harbison Boulevard,29212,34.0744378,-81.1591042
1537,Main Street,29201,34.0062921,-81.0359767
275,Harbison Boulevard,29212,34.0747989,-81.1581393
1122,Lady Street,29201,34.0022585,-81.0346519
220,Faison Drive,29203,34.0792534,-80.9804777
1500,Woodrow Street,29205,34.0098797,-81.0040729
3922,Rosewood Drive,29205,33.9874549,-80.9854862
1128,Devine Street,29201,33.9941587,-81.0309711
601,Main Street,29201,33.9931895,-81.0303960
1201,Main Street,29201,34.0011954,-81.0349377
1430,Sumter Street,29201,34.0056052,-81.0333893
4010,North Main Street,29203,34.0394017,-81.0402067
1705,College Street,29208,34.0002145,-81.0230295
631 Suite C,Harden Street,29205,33.9983477,-81.0159285
2761,Rosewood Drive,29205,33.9874620,-81.0048806
2800,Rosewood Drive,29205,33.9872003,-81.0036710
2910,Rosewood Drive,29205,33.9879493,-81.0010451
3132,Two Notch Road,29204,34.0387618,-81.0013036
601,Main Street,29201,33.9934085,-81.0302677
300,Main Street,29201,33.9894241,-81.0280843
2814,Huron Street,29205,33.9817796,-81.0029339
706,South Woodrow Street,29205,33.9818274,-81.0056721
415,South Edisto Avenue,29205,33.9841830,-81.0114849
1830,Rosewood Drive,29205,33.9842998,-81.0138948
1830,Rosewood Drive,29205,33.9842458,-81.0140691
2760,Rosewood Drive,29205,33.9871243,-81.0049272
207,Pickens Street,29205,33.9899828,-81.0216392
207,Pickens Street,29205,33.9900874,-81.0216822
221,Pickens Street,29205,33.9902887,-81.0217644
217,Pickens Street,29205,33.9901834,-81.0217111
1400,Jim Hamilton Boulevard,29205,33.9726870,-80.9947847
701,Whaley Street,29201,33.9854438,-81.0355644
701,Whaley Street,29201,33.9856049,-81.0354607
701,Whaley Street,29201,33.9857436,-81.0356662
1109,Assembly Street,29201,33.9997689,-81.0350642
2501,Heyward Street,29205,33.9915941,-81.0095628
702,Cross Hill Road,29205,33.9931369,-80.9751686
421,Bush River Road,29210,34.0324272,-81.0941101
421,Broad River Road,29210,34.0343893,-81.0902772
4430,Broad River Road,29210,34.0674871,-81.1167267
4416,Broad River Road,29210,34.0670566,-81.1162952
4400,Broad River Road,29210,34.0663767,-81.1158367
1122,Lady Street,29201,34.0022101,-81.0347900
340,Columbiana Drive,29212,34.0832878,-81.1598265
378,Columbiana Drive,29212,34.0851555,-81.1618489
278,Columbiana Drive,29212,34.0852888,-81.1616593
1217,Lincoln Street,29201,34.0003877,-81.0390070
1215,Lincoln Street,29201,34.0003061,-81.0389717
1213,Lincoln Street,29201,34.0002238,-81.0389362
1211,Lincoln Street,29201,34.0001433,-81.0389014
1209,Lincoln Street,29201,34.0001123,-81.0388879
823,Gervais Street,29201,34.0000784,-81.0391198
823,Gervais Street,29201,33.9997647,-81.0389879
1314,Lincoln Street,29201,34.0017515,-81.0391893
1537,Main Street,29201,34.0063340,-81.0359950
1116,Taylor Street,29201,34.0062430,-81.0366096
1202,Sumter Street,29201,34.0023310,-81.0319879
1305,Lady Street,29201,34.0033833,-81.0321878
1218,Taylor Street,29201,34.0067531,-81.0349547
1227,Taylor Street,29201,34.0072024,-81.0346803
5,Geology Road,29212,34.0805795,-81.1211447
5500,Broad River Road,29212,34.0800004,-81.1279608
1217,Blanding Street,29201,34.0083563,-81.0357741
1213-1215,Blanding Street,29201,34.0083312,-81.0358581
1708,Main Street,29201,34.0083558,-81.0364967
1710,Main Street,29201,34.0083946,-81.0365130
1712,Main Street,29201,34.0084492,-81.0365359
1716,Main Street,29201,34.0085220,-81.0365665
1420,Sumter Street,29201,34.0053852,-81.0331905
805,Gregg Street,29205,33.9995400,-81.0201192
928,Main Street,29201,33.9981265,-81.0319385
921,Main Street,29201,33.9979178,-81.0322780
1114,College Street,29201,33.9966628,-81.0324450
1322,Assembly Street,29201,34.0028928,-81.0358919
1324,Assembly Street,29201,34.0029875,-81.0359331
1328,Assembly Street,29201,34.0030619,-81.0359654
1213,Lady Street,29201,34.0029861,-81.0336036
1225,Lady Street,29201,34.0031692,-81.0330041
1320,Washington Street,29201,34.0046116,-81.0318718
1340,Washington Street,29201,34.0044075,-81.0327291
1233,Washington Street,29201,34.0044271,-81.0338560
1200,Hampton Street,29201,34.0052633,-81.0346863
1515,Main Street,29201,34.0057775,-81.0359777
1900,Assembly Street,29201,34.0104173,-81.0391998
1224,Taylor Street,29201,34.0068043,-81.0347852
1009,Gervais Street,29201,34.0005553,-81.0364524
1001,Gervais Street,29201,34.0004572,-81.0367665
1012,Gervais Street,29201,34.0002991,-81.0361330
916,Gervais Street,29201,33.9998229,-81.0376746
804,Gervais Street,29201,33.9991524,-81.0396162
708,Lady Street,29201,34.0000852,-81.0414797
720,Lady Street,29201,34.0002068,-81.0412045
724,Lady Street,29201,34.0002605,-81.0410557
1231,Lincoln Street,29201,34.0008267,-81.0392180
911,Gervais Street,29201,34.0000672,-81.0380861
920,Lady Street,29201,34.0013275,-81.0376557
918,Lady Street,29201,34.0012843,-81.0378122
1200,Lincoln Street,29201,34.0004911,-81.0385845
910,Washington Street,29201,34.0024068,-81.0390657
1324,Gadsden Street,29201,34.0015875,-81.0409131
1331,Gadsden Street,29201,34.0015876,-81.0413973
1315,Gadsden Street,29201,34.0012735,-81.0412464
1416,Park Street,29201,34.0035449,-81.0381468
1418,Park Street,29201,34.0037104,-81.0382363
1919,Blanding Street,29201,34.0118484,-81.0245805
1601,Richland Street,29201,34.0128480,-81.0310713
2000,Hampton Street,29201,34.0089925,-81.0218057
2020,Hampton Street,29201,34.0086688,-81.0209645
1711,Shivers Road,29210,34.0577594,-81.1021475
1741,Shivers Road,29210,34.0588114,-81.1003807
1200,Pickens Street,29201,34.0037937,-81.0264138
1024,Elmwood Avenue,29201,34.0122619,-81.0407705
1531,Washington Street,29201,34.0061596,-81.0286936
1501,Senate Street,29201,34.0019814,-81.0277883
930,Elmwood Avenue,29201,34.0118294,-81.0423110
818,Elmwood Avenue,29201,34.0113904,-81.0441419
1527,Gervais Street,29201,34.0034045,-81.0275268
901,Washington Street,29201,34.0027007,-81.0395352
811,Washington Street,29201,34.0028925,-81.0402673
822,Gervais Street,29201,33.9991952,-81.0389372
819,Gervais Street,29201,33.9997066,-81.0392512
1019,Assembly Street,29201,33.9985772,-81.0345660
1022,Senate Street,29201,33.9983859,-81.0355268
1022,Senate Street,29201,33.9988251,-81.0354299
900,Senate Street,29201,33.9981261,-81.0374026
924,Senate Street,29201,33.9984908,-81.0364180
1000,Lady Street,29201,34.0014739,-81.0372583
1314,Park Street,29201,34.0025072,-81.0371813
823,Lady Street,29201,34.0011087,-81.0394388
1337,Assembly Street,29201,34.0031508,-81.0366066
1800,Huger Street,29201,34.0060714,-81.0482228
1220,Sumter Street,29201,33.9996382,-81.0307150
1321,Pendleton Street,29201,33.9994284,-81.0298991
514,Main Street,29201,33.9922062,-81.0285256
400,Assembly Street,29201,33.9904520,-81.0300587
401,Main Street,29201,33.9907702,-81.0293333
1115,Assembly Street,29201,33.9998486,-81.0350903
1419,Pendleton Street,29201,33.9999242,-81.0282976
1500,Senate Street,29201,34.0011665,-81.0275861
1111,Bull Street,29201,34.0023325,-81.0287769
1400,Gervais Street,29201,34.0022231,-81.0299227
1404,Gervais Street,29201,34.0022656,-81.0297792
1415,Gervais Street,29201,34.0028675,-81.0294691
1421,Gervais Street,29201,34.0029271,-81.0291640
1217,Bull Street,29201,34.0032106,-81.0291337
1911,Thurmond Mall,29201,34.0079851,-81.0479863
400,Calhoun Street,29201,34.0077607,-81.0509194
1913,Huger Street,29201,34.0077050,-81.0498265
401,Laurel Street,29201,34.0055919,-81.0499351
825,Main Street,29201,33.9968470,-81.0317817
700,Hampton Street,29201,34.0034019,-81.0430252
1100,Gervais Street,29201,34.0003192,-81.0331250
1026,Sumter Street,29201,34.0000911,-81.0308202
1230,Pendleton Street,29201,33.9986161,-81.0309561
1221,Main Street,29201,34.0017029,-81.0341930
1901,Main Street,29201,34.0108540,-81.0383345
100,Columbiana Circle,29212,34.0788357,-81.1571081
910,Sumter Street,29201,33.9983863,-81.0299687
1324,Marion Street,29201,34.0040126,-81.0305896
1812,Lincoln Street,29201,34.0081973,-81.0416039
1800,Lincoln Street,29201,34.0080587,-81.0419035
21,Governor's Hill,29201,34.0072650,-81.0427380
211,Gervais Street,29201,33.9972249,-81.0480299
801,Lincoln Street,29208,33.9948015,-81.0373186
1122,Lady Street,29201,34.0021919,-81.0344950
1231,Sumter Street,29201,34.0025507,-81.0326653
1247,Sumter Street,29201,34.0027953,-81.0326623
1515,Main Street,29201,34.0059014,-81.0362027
4000,Pavillion Tower Circle,29201,34.0095965,-81.0478178
3000,Pavillion Tower Circle,29201,34.0098365,-81.0481975
1000,Pavillion Tower Circle,29201,34.0092650,-81.0488893
2000,Pavillion Tower Circle,29201,34.0096464,-81.0487897
1333,Main Street,29201,34.0031501,-81.0348252
1155,Lady Street,29201,34.0027152,-81.0347170
1441,Main Street,29201,34.0048195,-81.0355602
1501,Main Street,29201,34.0053151,-81.0364719
1431,Assembly Street,29201-3101,34.0041763,-81.0374249
1601,Assembly Street,29201,34.0068282,-81.0387643
1801,Main Street,29201,34.0093807,-81.0377038
1100,Laurel Street,29201,34.0087124,-81.0380665
1500,Senate Street,29201,34.0011064,-81.0275514
1520,Senate Street,29201,34.0012051,-81.0270490
901,Richland Street,29201,34.0100306,-81.0420036
1225,Lady Street,29201,34.0032631,-81.0330367
139,Columbiana Drive,29212,34.0756701,-81.1588040
211,Lanneau Court,29212,34.0752850,-81.1594450
217,Lanneau Court,29212,34.0751868,-81.1603231
165,Columbiana Drive,29212,34.0770031,-81.1598537
291,Harbison Boulevard,29212,34.0738757,-81.1574873
370,Harbison Boulevard,29212,34.0761699,-81.1527056
331,Harbison Boulevard,29212,34.0752911,-81.1555439
1009,Gervais Street,29201,34.0006605,-81.0364905
511,Lady Street,29201,33.9996048,-81.0452638
501,Taylor Street,29201,34.0035798,-81.0470826
1244,Blossom Street,29208,33.9929734,-81.0285852
601,Elmwood Avenue,29201,34.0103012,-81.0505946
603,Elmwood Avenue,29201,34.0104806,-81.0500340
1911,Thurmond Mall,29201,34.0080033,-81.0480312
1616,Blanding Street,29201,34.0095182,-81.0289979
1615,Blanding Street,29201,34.0105231,-81.0294429
610,Heyward Street,29201,33.9821739,-81.0386972
600,Heyward Street,29201,33.9828323,-81.0363027
1109-1115,Assembly Street,29201,33.9997747,-81.0351689
1022,Senate Street,29201,33.9987449,-81.0353796
5195,Fernandina Road,29210,34.0783160,-81.1514400
5185,Fernandina Road,29212,34.0780010,-81.1517413
95,Woodcross Drive,29212,34.0783408,-81.1502249
955,Park Street,29201,33.9966274,-81.0357720
922,Main Street,29201,33.9980832,-81.0317734
1321,Pendleton Street,29201,33.9995836,-81.0299633
919,Sumter Street,29201,33.9984059,-81.0308481
1217,College Street,29201,33.9976696,-81.0309561
1500,Calhoun Street,29201,34.0133135,-81.0331695
2327,Main Street,29201,34.0167941,-81.0407283
1118,Union Street,29201,34.0227435,-81.0471239
1830,Rosewood Drive,29205,33.9842824,-81.0139784
5420,Forest Drive,29206,34.0213599,-80.9522875
5480,Forest Drive,29206,34.0227191,-80.9502626
1912,Pineview Road,29209,33.9511499,-80.9283370
7424,Garners Ferry Road,29209,33.9664603,-80.9435431
6518,Garners Ferry Road,29209,33.9791757,-80.9603518
6090,Garners Ferry Road,29209-0600,33.9813359,-80.9690159
4801,Garners Ferry Road,29209,33.9891010,-80.9725460
702,Cross Hill Road,29205,33.9931893,-80.9752376
702,Cross Hill Road,29205,33.9931878,-80.9757698
709,Bull Street,29208,33.9961872,-81.0262783
401,Main Street,29201,33.9906102,-81.0293912
1024,Elmwood Avenue,29201,34.0122257,-81.0409169
1000,Elmwood Avenue,29201,34.0120932,-81.0419304
930,Elmwood Avenue,29201,34.0118034,-81.0424089
2000,Park Street,29201,34.0113685,-81.0415224
900,Elmwood Avenue,29201,34.0116774,-81.0433216
1041,Marion Street,29201,34.0003852,-81.0298630
1004,Taylor Street,29201,34.0053724,-81.0389181
3,Governor's Hill,29201,34.0071260,-81.0423256
1701,Main Street,29201,34.0080041,-81.0375415
2825,Commerce Drive,29205,33.9764184,-81.0049348
1009,Airport Boulevard,29205,33.9766184,-81.0029594
436,Superior Street,29205,33.9816335,-81.0175565
2822,Commerce Drive,29205,33.9763012,-81.0056128
2847,Commerce Drive,29205,33.9764438,-81.0042943
933-937,Main Street,29201,33.9982122,-81.0324825
300,Sumter Street,29201,33.9900472,-81.0262960
1323,Greene Street,29225,33.9969853,-81.0283750
1830,Main Street,29201,34.0104952,-81.0371286
1800,Main Street,29201,34.0096578,-81.0368977
1801,Assembly Street,29201,34.0089833,-81.0394473
825,Main Street,29201,33.9968358,-81.0318722
1213,Lady Street,29201,34.0030768,-81.0336303
1415,Park Street,29201,34.0034731,-81.0386105
1401,Senate Street,29201,34.0013180,-81.0295574
2100,Main Street,29201,34.0138115,-81.0387031
2132,Main Street,29201,34.0145482,-81.0391728
1219,Laurel Street,29201,34.0097304,-81.0363682
1208,Laurel Street,29201,34.0092772,-81.0363891
2018A,Main Street,29201,34.0127109,-81.0380989
530,Devine Street,29201,33.9910591,-81.0403705
2338,Main Street,29201,34.0166341,-81.0400737
2042,Marion Street,29201,34.0141973,-81.0353596
2119,Sumter Street,29201,34.0145556,-81.0380304
2008,Marion Street,29201,34.0136992,-81.0350464
2110,Pickens Street,29201,34.0157364,-81.0312427
2015,Harden Street,29204,34.0169742,-81.0245354
701,Gervais Street,29201,33.9990652,-81.0415161
1209-1211,Gadsden Street,29201,33.9996829,-81.0405796
1237,Gadsden Street,29201,34.0002135,-81.0408104
916,Gervais Street,29201,33.9997216,-81.0376357
1019,Assembly Street,29201,33.9985623,-81.0346634
1012,Marion Street,29201,34.0001668,-81.0290325
1427,Pendleton Street,29201,34.0000475,-81.0281768
1508,Lady Street,29201,34.0039174,-81.0285671
1500,Lady Street,29201,34.0039790,-81.0289454
1217,Bull Street,29201,34.0031944,-81.0292132
804,Gervais Street,29201,33.9981447,-81.0391553
823,Gervais Street,29201,34.0000157,-81.0390933
1331,Gadsden Street,29201,34.0015759,-81.0414568
1328,Gadsden Street,29201,34.0017780,-81.0409253
919,Washington Street,29201,34.0029391,-81.0388741
1001,Washington Street,29201,34.0031841,-81.0379827
1416,Park Street,29201,34.0035621,-81.0380742
1000,Hampton Street,29201,34.0041409,-81.0383516
1418,Park Street,29201,34.0037369,-81.0381761
2100,Rosewood Drive,29205,33.9855430,-81.0101135
326,South Edisto Avenue,29205,33.9856717,-81.0116310
1928,Rosewood Drive,29205,33.9849072,-81.0121902
1908,Rosewood Drive,29205,33.9845122,-81.0133125
1904,Rosewood Drive,29205,33.9844425,-81.0134709
1900,Rosewood Drive,29205,33.9845412,-81.0136351
2773,Rosewood Drive,29205,33.9876236,-81.0045180
2772,Rosewood Drive,29205,33.9872214,-81.0045587
2901,Rosewood Drive,29205,33.9883721,-81.0025806
2728,Rosewood Drive,29205,33.9866818,-81.0057405
2760-2764,Rosewood Drive,29205,33.9871450,-81.0048253
818,Elmwood Avenue,29201,34.0112962,-81.0440908
2016,Lincoln Street,29201,34.0111973,-81.0432986
816,Elmwood Avenue,29201,34.0113010,-81.0445250
800,Elmwood Avenue,29201,34.0111236,-81.0449902
2019,Park Street,29201,34.0115801,-81.0423068
2020,Assembly Street,29201,34.0122870,-81.0399285
2015,Assembly Street,29201,34.0119226,-81.0406426
1215,Calhoun Street,29201,34.0126793,-81.0375499
115,Afton Court,29212,34.0757474,-81.1605170
701,Whaley Street,29201,33.9858153,-81.0355251
4,Governor's Hill,29201,34.0069875,-81.0422751
950,Taylor Street,29201,34.0051702,-81.0394655
1700,Huger Street,29201,34.0053964,-81.0473654
291,North Washington Street,29201,34.0003935,-81.0503878
5260,Forest Drive,29206,34.0221503,-80.9561388
900,Thrumond Mall,29201,34.0090879,-81.0483097
1927,Thrumond Mall,29201,34.0084702,-81.0483971
420,Huger Street,29201,33.9880683,-81.0398417
300,Catawba Street,29205,33.9844017,-81.0423009
529,Bush River Road,29210,34.0309230,-81.0963622
1410,Sumter Street,29201,34.0050715,-81.0330160
300,Catawba Street,29205,33.9845246,-81.0419074
434,Gervais Street,29201,33.9973187,-81.0451295
520,Gervais Street,29201,33.9978282,-81.0435379
504,Gervais Street,29201,33.9976315,-81.0443952
918,Lady Street,29201,34.0012310,-81.0378015
912,Lady Street,29201,34.0008693,-81.0383591
1012,Gervais Street,29201,34.0002290,-81.0361024
140,Park Central dr,29203,34.0284097,-81.0395874
718,Blanding Street,29201,34.0046928,-81.0436110
722,Blanding Street,29201,34.0055210,-81.0435662
6439,Garners Ferry Road,29209,33.9755552,-80.9597714
6497,Garners Ferry Road,29209,33.9789250,-80.9645862
5,Governor's Hill,29201,34.0068097,-81.0422277
401,Laurel Street,29201,34.0056953,-81.0498172
717,Lady Street,29201,34.0007320,-81.0417163
120,Veterans Road,29209,33.9740016,-80.9573532
811,Washington Street,29201,34.0029999,-81.0403868
630,Assembly Street,29201,33.9936944,-81.0315256
2025,Main Street,29201,34.0128637,-81.0392949
2025,Main Street,29201,34.0122593,-81.0389666
1002,Calhoun Street,29201,34.0107846,-81.0413153
930,Richland Street,29201,34.0090771,-81.0413295
1914,Park Street,29201,34.0103919,-81.0411388
1012,Laurel Street,29201,34.0076374,-81.0393137
390,Harbison Boulevard,29212,34.0808927,-81.1527978
4344,Broad River Road,29210,34.0694620,-81.0979976
1324,Gadsden Street,29201,34.0015982,-81.0408739
801,Washington Street,29201,34.0022911,-81.0411297
120,Harbison Boulevard,29212,34.0655226,-81.1673646
130,Harbison Boulevard,29212,34.0670815,-81.1670057
850,Pulaski Street,29201,33.9942663,-81.0402226
1311,Pendleton Street,29201,33.9994255,-81.0303172
915,Main Street,29201,33.9977441,-81.0323396
5801,Fairfield Road,29203,34.0637892,-81.0235162
1812,Taylor Street,29201,34.0095192,-81.0254745
1720,Taylor Street,29201,34.0090978,-81.0269530
1517,Gregg Street,29201,34.0093482,-81.0251741
1700,Taylor Street,29201,34.0089116,-81.0273990
1801,Taylor Street,29201,34.0099800,-81.0261355
1811,Taylor Street,29201,34.0099638,-81.0258416
1225,Laurel Street,29201,34.0099997,-81.0361064
1825,Sumter Street,29201,34.0106674,-81.0361689
1230,Richland Street,29201,34.0108453,-81.0362509
1726,Sumter Street,29201,34.0094485,-81.0351019
1900,Main Street,29201,34.0111232,-81.0374043
2014,Main Street,29201,34.0124471,-81.0379612
1901,Assembly Street,29201,34.0103537,-81.0399417
1900,Assembly Street,29201,34.0104887,-81.0391750
817,Calhoun Street,29201,34.0104137,-81.0440908
2003,Lincoln Street,29201,34.0106166,-81.0435881
823,Calhoun Street,29201,34.0104977,-81.0437884
2001,Lincoln Street,29201,34.0105312,-81.0435529
914,Richland Street,29201,34.0086455,-81.0418258
2010,Gadsden Street,29201,34.0105488,-81.0447919
1815,Taylor Street,29201,34.0100263,-81.0256696
1200,Lincoln Street,29201,34.0004796,-81.0385794
915,Lady Street,29201,34.0017481,-81.0384071
2005,Greene Street,29205,34.0001941,-81.0178919
2009,Greene Street,29205,34.0004388,-81.0175066
1114,College Street,29201,33.9966388,-81.0324299
1111,Greene Street,29201,33.9957499,-81.0321564
826,Assembly Street,29201,33.9961428,-81.0326996
819,Main Street,29201,33.9964497,-81.0319065
1600,Gervais Street,29201,34.0030198,-81.0267099
2001,Greene Street,29205,34.0002903,-81.0181948
1413,Laurel Street,29201,34.0109308,-81.0333698
1811,Bull Street,29201,34.0114017,-81.0329398
1413,Laurel Street,29201,34.0112070,-81.0332538
2911,Two Notch Road,29204,34.0355895,-81.0044438
2101,Walker Solomon Way,29204,34.0181267,-81.0236913
1932,Calhoun Street,29204,34.0153217,-81.0255621
1420,Elmwood Avenue,29201,34.0143783,-81.0345354
2019,Bull Street,29201,34.0140459,-81.0343174
2022,Marion Street,29201,34.0139407,-81.0351134
1340,Elmwood Avenue,29201,34.0139907,-81.0358591
1320,Elmwood Avenue,29201,34.0137385,-81.0363334
2015,Marion Street,29201,34.0134719,-81.0357813
2024,Sumter Street,29201,34.0136372,-81.0367746
1315,Calhoun Street,29201,34.0130608,-81.0362472
1307,Calhoun Street,29201,34.0128608,-81.0363512
916,Elmwood Avenue,29201,34.0116169,-81.0429494
515,Richland Street,29201,34.0076092,-81.0482781
1800,Huger Street,29201,34.0062913,-81.0483150
311,Erie Street,29201,34.0084716,-81.0526516
400,Calhoun Street,29201,34.0076757,-81.0506243
900,Assembly Street,29201,33.9970509,-81.0330220
922,Gervais Street,29201,33.9997919,-81.0373335
822,Gervais Street,29201,33.9993213,-81.0389505
1002,Gervais Street,29201,34.0000785,-81.0365182
800,Richland Street,29201,34.0083141,-81.0438020
803,Richland Street,29201,34.0090411,-81.0440617
829,Richland Street,29201,34.0093048,-81.0430832
1913,Huger Street,29201,34.0077237,-81.0497753
1051,Greene Street,29201,33.9956398,-81.0342115
925,Main Street,29201,33.9979954,-81.0325236
921,Main Street,29201,33.9979131,-81.0323806
7,Governor's Hill,29201,34.0065099,-81.0424000
380,Columbiana Drive,29212,34.0856856,-81.1614663
378,Columbiana Drive,29212,34.0852001,-81.1617643
400,Columbiana Drive,29212,34.0861508,-81.1620248
370,Columbiana Drive,29212,34.0851390,-81.1611295
724,Saluda Avenue,29205,33.9990653,-81.0169149
819,Gervais Street,29201,33.9999757,-81.0393562
1001,Senate Street,29201,33.9992996,-81.0360118
1231,Lincoln Street,29201,34.0008049,-81.0392962
902,Gervais Street,29201,33.9992429,-81.0380312
924,Senate Street,29201,33.9981880,-81.0365168
1546,Main Street,29201,34.0064307,-81.0353829
1500,Main Street,29201,34.0055974,-81.0350213
1556,Main Street,29201,34.0065297,-81.0354776
1530,Main Street,29201,34.0060808,-81.0353617
1508,Main Street,29201,34.0057820,-81.0349740
1545,Sumter Street,29201,34.0067821,-81.0344918
1544,Main Street,29201,34.0062939,-81.0353743
1224,Taylor Street,29201,34.0066301,-81.0347105
1538,Main Street,29201,34.0062322,-81.0353463
1222,Taylor Street,29201,34.0066015,-81.0348033
1214-1216-1218-1220-,Taylor Street,29201,34.0065147,-81.0349041
1519,Sumter Street,29201,34.0064133,-81.0344516
1534,Main Street,29201,34.0061743,-81.0352906
1520,Main Street,29201,34.0059862,-81.0351981
1550,Gadsden Street,29201,34.0040462,-81.0417491
1701,Senate Street,29201,34.0029314,-81.0246143
1320,Washington Street,29201,34.0045706,-81.0318563
1421,Gervais Street,29201,34.0029398,-81.0292133
631,Hampton Street,29201,34.0029761,-81.0440617
1300,Sumter Street,29201,34.0034552,-81.0323834
1411,Gervais Street,29201,34.0027325,-81.0298121
1628,Gervais Street,29201,34.0032278,-81.0257843
1206,Bull Street,29201,34.0032150,-81.0286205
1116,Henderson Street,29201,34.0032502,-81.0249503
1415,Gervais Street,29201,34.0029665,-81.0295116
630,Taylor Street,29201,34.0033302,-81.0449473
1829,Senate Street,29201,34.0036439,-81.0223682
1507,Gervais Street,29201,34.0031569,-81.0284231
1331,Lady Street,29201,34.0038604,-81.0313525
1330,Lady Street,29201,34.0032197,-81.0313450
1400,Lady Street,29201,34.0034603,-81.0304609
1710,Gervais Street,29201,34.0036588,-81.0247649
640,Taylor Street,29201,34.0034824,-81.0444591
1114,Pickens Street,29201,34.0027560,-81.0265947
1321,Lady Street,29201,34.0037936,-81.0315672
1700,Gervais Street,29201,34.0036218,-81.0251783
910,Washington Street,29201,34.0022746,-81.0390040
1314,Lincoln Street,29201,34.0017780,-81.0390691
1325,Park Street,29201,34.0024023,-81.0381995
700,Hampton Street,29201,34.0035029,-81.0430537
1218,Bull Street,29201,34.0035291,-81.0285930
1517,Gervais Street,29201,34.0033235,-81.0281727
1211,Wheat Street,29201,33.9922330,-81.0288251
1014,Greene Street,29208,33.9944880,-81.0334785
518,Main Street,29208,33.9927019,-81.0291876
516,Main Street,29208,33.9925709,-81.0291543
514,Main Street,29201,33.9923687,-81.0286067
541,Main Street,29201,33.9925979,-81.0300761
1426,Main Street,29201,34.0046872,-81.0347194
1200,Hampton Street,29201,34.0052610,-81.0347261
1201,Gervais Street,29201,34.0012428,-81.0348111
1230,Main Street,29201,34.0024494,-81.0337069
1233,Washington Street,29201,34.0045104,-81.0338852
1200,Blanding Street,29201,34.0080260,-81.0353770
1429,Senate Street,29201,34.0016588,-81.0287508
911,Gervais Street,29201,34.0001778,-81.0380952
1337,Assembly Street,29201,34.0031276,-81.0367016
1113,Taylor Street,29201,34.0065611,-81.0368597
1111,Taylor Street,29201,34.0065371,-81.0369386
1601,Main Street,29201,34.0066717,-81.0364977
1633-1635,Main Street,29201,34.0073572,-81.0366671
1637,Main Street,29201,34.0074175,-81.0367180
1611,Main Street,29201,34.0068475,-81.0366216
1227,Taylor Street,29201,34.0073394,-81.0349592
1301,Taylor Street,29220,34.0074985,-81.0340352
1528,Sumter Street,29220,34.0070022,-81.0339448
1619,Sumter Street,29201,34.0077387,-81.0349788
1217,Taylor Street,29201,34.0070571,-81.0352789
1600,Main Street,29201,34.0069489,-81.0355880
1612,Main Street,29201,34.0070785,-81.0357575
1614,Main Street,29201,34.0072146,-81.0356541
1620,Main Street,29201,34.0073580,-81.0357767
1626,Main Street,29201,34.0074680,-81.0358262
1634,Main Street,29201,34.0075930,-81.0359660
1644,Main Street,29201,34.0078835,-81.0359717
1722-1724,Main Street,29201,34.0088105,-81.0365441
1737,Main Street,29201,34.0089876,-81.0373603
1215-1217,Blanding Street,29201,34.0084583,-81.0358590
1213,Blanding Street,29201,34.0084283,-81.0359539
1209,Blanding Street,29201,34.0082876,-81.0360777
1320,Main Street,29201,34.0033315,-81.0339403
1700,Main Street,29201,34.0082132,-81.0363160
1704,Main Street,29201,34.0083489,-81.0362579
1708-1710,Main Street,29201,34.0084112,-81.0363988
1712-1716,Main Street,29201,34.0085195,-81.0364165
1720,Main Street,29201,34.0086749,-81.0364389
1728,Main Street,29201,34.0089548,-81.0365706
1338,Main Street,29201,34.0037639,-81.0343856
211-221,Main Street,29201,33.9884671,-81.0286858
1835,Assembly Street,29201,34.0090041,-81.0402364
1220,Sumter Street,29201,33.9997093,-81.0305106
1220,Pickens Street,29201,34.0041728,-81.0271874
1216,Pickens Street,29201,34.0040155,-81.0271359
1224,Pickens Street,29201,34.0043093,-81.0272666
1600,Marion Street,29220,34.0079965,-81.0323693
1527,Gervais Street,29201,34.0034590,-81.0275970
1226,Pickens Street,29201,34.0044701,-81.0273486
1913,Marion Street,29201,34.0121097,-81.0351081
2014,Sumter Street,29201,34.0131552,-81.0366707
2016,Sumter Street,29201,34.0133137,-81.0366540
1930,Marion Street,29201,34.0127479,-81.0345396
2001,Marion Street,29201,34.0132744,-81.0354449
368,Harbison Boulevard,29212,34.0739874,-81.1554092
1000,Bower Parkway,29212,34.0693581,-81.1631062
4460,Broad River Road,29210,34.0741666,-81.0980007
5300,Forest Drive,29206,34.0223190,-80.9550325
132,Harbison Boulevard,29212,34.0672872,-81.1666216
128,Harbison Boulevard,29212,34.0674436,-81.1663245
146,Harbison Boulevard,29212,34.0683059,-81.1643915
1005,Bower Parkway,29212,34.0702437,-81.1621750
1009,Bower Parkway,29212,34.0698763,-81.1618002
1007,Bower Parkway,29212,34.0700528,-81.1620316
3200,Trenholm Road,29204,34.0080517,-80.9942301
500,Spears Creek Church Road,29229,34.1094402,-80.8379142
2219,Barhamville Road,29204,34.0241102,-81.0189785
6650,Garners Ferry Road,29209,33.9785745,-80.9574028
5200,Fernandina Road,29212,34.0762293,-81.1492329
1326,Bush River Road,29210,34.0284937,-81.1084344
2708,Rosewood Drive,29205,33.9866187,-81.0060111
2742,Rosewood Drive,29205,33.9869265,-81.0052474
931,Woodrow Street,29205-1634,34.0022280,-81.0055469
5306,North Main Street,29203,34.0519207,-81.0219082
7421,Garners Ferry Road,29209-2602,33.9680083,-80.9467101
7400,Wilson Boulevard,29203,34.0752224,-80.9983082
4450,Broad River Road,29210,34.0763401,-81.1038341
410,Columbiana Drive,29212,34.0864822,-81.1625253
4546,Broad River Road,29210,34.0727880,-81.1105558
4556,Broad River Road,29210,34.0691592,-81.1167963
5426,Forest Drive,29206,34.0183503,-80.9509713
5424,Forest Drive,29206,34.0201677,-80.9493719
101,Woodcross Drive,29212,34.0791097,-81.1505017
246,Harbison Boulevard,29212,34.0693598,-81.1594478
244,Harbison Boulevard,29212,34.0697338,-81.1596552
750,Saturn Parkway,29212,34.0753425,-81.1514531
276,Harbison Boulevard,29212,34.0725470,-81.1578240
283,Harbison Boulevard,29212,34.0733695,-81.1583746
340,Columbiana Drive,29212,34.0832894,-81.1598217
330,Columbiana Drive,29212,34.0835463,-81.1593500
320,Columbiana Drive,29212,34.0827420,-81.1587349
360,Harbison Boulevard,29212,34.0739748,-81.1511094
5,Richland Medical Park Drive,29203,34.0277186,-81.0325582
2935,Colonial Drive,29203,34.0278059,-81.0287919
2435,Forest Drive,29204,34.0151173,-81.0130623
1410,Laurens Street,29201,34.0081112,-81.0214718
809,Huger Street,29201,33.9931199,-81.0432057
903,Huger Street,29201,33.9935259,-81.0435257
140,Stoneridge Drive,29210,34.0128744,-81.0696150
150,Stoneridge Drive,29210,34.0137789,-81.0706929
7901,Farrow Road,29203,34.0756905,-80.9795441
141,Stoneridge Drive,29210,34.0143721,-81.0703465
180,Stoneridge Drive,29210,34.0142340,-81.0739422
180,Stoneridge Drive,29210,34.0141295,-81.0735874
190,Stoneridge Drive,29210,34.0135498,-81.0749855
166,Stoneridge Drive,29210,34.0137460,-81.0726158
1100,Wheat Street,29201,33.9912849,-81.0296878
400,Assembly Street,29201,33.9903788,-81.0300098
350,Harbison Boulevard,29212,34.0717071,-81.1503793
294,Harbison Boulevard,29212,34.0732725,-81.1562095
1620,Pendleton Street,29201,34.0000389,-81.0247648
619,Gervais Street,29201,33.9989531,-81.0428400
900,Taylor Street,29201,34.0048308,-81.0403165
928,Main Street,29201,33.9981681,-81.0318122
1310B,Lady Street,29201,34.0030197,-81.0318408
1430,Senate Street,29201,34.0007759,-81.0282668
1020,Marion Street,29201,34.0005461,-81.0292671
701,Lady Street,29201,34.0004886,-81.0421389
1022,Senate Street,29201,33.9984405,-81.0353714
1400,Gervais Street,29201,34.0019921,-81.0298109
1404,Gervais Street,29201,34.0021298,-81.0297135
1111,Bull Street,29201,34.0022313,-81.0288652
1620,Gervais Street,29201,34.0032024,-81.0259084
1738,Gervais Street,29201,34.0036367,-81.0242806
1200,Pickens Street,29201,34.0039514,-81.0262858
1200,Henderson Street,29201,34.0040966,-81.0254083
1703,Gervais Street,29201,34.0041198,-81.0252689
1711,Gervais Street,29201,34.0042494,-81.0251371
1717,Gervais Street,29201,34.0043049,-81.0248239
1218,Henderson Street,29201,34.0045578,-81.0256221
1400,Washington Street,29201,34.0046707,-81.0309247
1420,Washington Street,29201,34.0047432,-81.0304110
1418-1424,Gadsden Street,29201,34.0028457,-81.0414510
1426-1432,Gadsden Street,29201,34.0030738,-81.0415540
806-812,Hampton Street,29201,34.0032177,-81.0412865
811,Washington Street,29201,34.0025771,-81.0405645
823,Lady Street,29201,34.0011734,-81.0396511
316,Huger Street,29201,33.9864866,-81.0391728
400-12,Huger Street,29201,33.9876406,-81.0389820
4,Fraternity Circle,29201,33.9902333,-81.0370332
707,Catawba Street,29205,33.9873055,-81.0357269
612,Whaley Street,29201,33.9840398,-81.0371506
339,Heyward Street,29201,33.9828725,-81.0392983
550,Assembly Street,29201,33.9923489,-81.0309769
1419,Pendleton Street,29201,33.9999883,-81.0283228
1431,Pendleton Street,29201,34.0001139,-81.0279386
1619,Pendleton Street,29201,34.0010837,-81.0252740
1619,Pendleton Street,29201,34.0010697,-81.0251236
1611,Pendleton Street,29201,34.0009964,-81.0253910
1420,Lady Street,29201,34.0035387,-81.0298845
1414,Lady Street,29201,34.0035350,-81.0301180
1501,Lady Street,29201,34.0047106,-81.0291629
1509,Lady Street,29201,34.0046774,-81.0287487
1515,Lady Street,29201,34.0047621,-81.0283873
1315,Pickens Street,29201,34.0051072,-81.0282680
1340,Bull Street,29201,34.0052627,-81.0295771
1508,Washington Street,29201,34.0052805,-81.0292552
1500,Hampton Street,29220,34.0065248,-81.0299192
1500,Hampton Street,29220,34.0059657,-81.0293122
1401,Pickens Street,29201,34.0061993,-81.0287105
1518,Hampton Street,29201,34.0066877,-81.0294084
1419,Bull Street,29220,34.0062067,-81.0305718
1426,Hampton Street,29220,34.0064588,-81.0306949
1447,Hampton Street,29220,34.0069744,-81.0309380
1525,Bull Street,29201,34.0075405,-81.0311737
1428,Taylor Street,29201,34.0076881,-81.0315292
1612,Marion Street,29201,34.0084593,-81.0326487
1410,Blanding Street,29201,34.0088267,-81.0325013
1430,Blanding Street,29201,34.0091048,-81.0318093
1502,Blanding Street,29201,34.0092471,-81.0312953
1612,Bull Street,29201,34.0088034,-81.0310841
1600,Bull Street,29201,34.0083798,-81.0309712
1507,Taylor Street,29201,34.0084690,-81.0308368
1509,Taylor Street,29201,34.0085111,-81.0307266
1511,Taylor Street,29201,34.0085411,-81.0306403
1519,Taylor Street,29201,34.0086869,-81.0302885
1523-1525,Taylor Street,29201,34.0087542,-81.0300764
1531,Taylor Street,29201,34.0087515,-81.0298725
1514,Taylor Street,29201,34.0081282,-81.0303617
1516,Taylor Street,29201,34.0080883,-81.0302472
1520,Taylor Street,29201,34.0081273,-81.0298611
1520,Bull Street,29201,34.0076512,-81.0305209
1513,Hampton Street,29201,34.0072008,-81.0300073
1517,Hampton Street,29201,34.0073097,-81.0297838
1531,Hampton Street,29201,34.0073879,-81.0292879
1513,Pickens Street,29201,34.0077387,-81.0295171
1328,Blanding Street,29220,34.0086016,-81.0335163
1303,Blanding Street,29201,34.0087527,-81.0346861
1315,Blanding Street,29201,34.0089763,-81.0342834
1321,Blanding Street,29201,34.0090243,-81.0341188
1720,Sumter Street,29201,34.0092870,-81.0349655
1308,Laurel Street,29201,34.0096127,-81.0347656
1727,Sumter Street,29201,34.0095165,-81.0357365
1323,Pendleton Street,29201,33.9995414,-81.0297558
1006,Marion Street,29201,33.9999442,-81.0290159
898,Barnwell Street,29208,34.0002965,-81.0215235
1731,College Street,29208,34.0003083,-81.0225727
2108,Devine Street,29205,33.9986642,-81.0150989
2112,Devine Street,29205,33.9986136,-81.0150185
734,Harden Street,29205,33.9998648,-81.0160735
1111,Laurel Street,29201,34.0093838,-81.0381178
1103,Laurel Street,29201,34.0092056,-81.0386268
1813,Main Street,29201,34.0097583,-81.0377601
1022,Calhoun Street,29201,34.0110384,-81.0404156
1003,Richland Street,29201,34.0099733,-81.0407735
1845,Assembly Street,29201,34.0095239,-81.0400399
1115,Calhoun Street,29201,34.0119718,-81.0393947
2014,Assembly Street,29201,34.0118581,-81.0398205
2001,Assembly Street,29201,34.0116605,-81.0405316
2026,Assembly Street,29201,34.0124553,-81.0399913
1301,Richland Street,29201,34.0119660,-81.0358940
1315,Richland Street,29201,34.0116511,-81.0353414
1828,Sumter Street,29201,34.0109157,-81.0356608
1820,Sumter Street,29201,34.0106154,-81.0353521
1301,Laurel Street,29201,34.0100281,-81.0353921
1640,Freed Street,29201,34.0182537,-81.0312171
1516,Calhoun Street,29201,34.0134330,-81.0325801
10,Governor's Hill,29201,34.0063255,-81.0429859
9,Governor's Hill,29201,34.0063699,-81.0428265
8,Governor's Hill,29201,34.0064427,-81.0426470
11,Governor's Hill,29201,34.0065424,-81.0430242
12,Governor's Hill,29201,34.0066252,-81.0430871
27,Governor's Hill,29201,34.0066524,-81.0427423
28,Governor's Hill,29201,34.0067295,-81.0427930
13,Governor's Hill,29201,34.0067155,-81.0431077
29,Governor's Hill,29201,34.0068806,-81.0428740
15,Governor's Hill,29201,34.0068956,-81.0431847
16,Governor's Hill,29201,34.0069752,-81.0432571
18,Governor's Hill,29201,34.0071348,-81.0432135
19,Governor's Hill,29201,34.0071791,-81.0430920
30,Governor's Hill,29201,34.0070057,-81.0428827
23,Governor's Hill,29201,34.0070725,-81.0426421
24,Governor's Hill,29201,34.0069775,-81.0425695
25,Governor's Hill,29201,34.0068446,-81.0425172
26,Governor's Hill,29201,34.0067146,-81.0425040
2,Governor's Hill,29201,34.0072868,-81.0424174
1623,Gadsden Street,29201,34.0054122,-81.0431223
1625,Gadsden Street,29201,34.0055015,-81.0431406
730,Blanding Street,29201,34.0056595,-81.0431947
728,Blanding Street,29201,34.0056228,-81.0433115
1907,Thrumond Mall,29201,34.0075190,-81.0487670
1935,Wayne Street,29201,34.0089925,-81.0465273
1927-1919,Wayne Street,29201,34.0088081,-81.0464461
1917-1909,Wayne Street,29201,34.0085215,-81.0463187
805,Calhoun Street,29201,34.0102885,-81.0445517
821,Calhoun Street,29201,34.0104835,-81.0438953
2009,Lincoln Street,29201,34.0108156,-81.0437124
2007,Lincoln Street,29201,34.0107247,-81.0436403
2016,Gadsden Street,29201,34.0107232,-81.0448862
719,Laurel Street,29201,34.0073079,-81.0444491
723,Laurel Street,29201,34.0073280,-81.0442786
1801,Gadsden Street,29201,34.0073930,-81.0440050
1809,Gadsden Street,29201,34.0076537,-81.0441268
1817,Gadsden Street,29201,34.0078000,-81.0443005
1821,Gadsden Street,29201,34.0079432,-81.0443327
1823,Gadsden Street,29201,34.0080613,-81.0443948
1825,Gadsden Street,29201,34.0082906,-81.0444090
712,Richland Street,29201,34.0080521,-81.0450561
1820,Wayne Street,29201,34.0077525,-81.0454521
1820,Wayne Street,29201,34.0076465,-81.0454151
701-709,Richland Street,29201,34.0086859,-81.0458350
701-709,Richland Street,29201,34.0088195,-81.0454125
701-709,Richland Street,29201,34.0090000,-81.0457334
712,Calhoun Street,29201,34.0094189,-81.0457196
714,Calhoun Street,29201,34.0094684,-81.0454970
720,Calhoun Street,29201,34.0095743,-81.0453084
1929,Gadsden Street,29201,34.0096466,-81.0450817
1925,Gadsden Street,29201,34.0095016,-81.0449698
1919,Gadsden Street,29201,34.0092953,-81.0448931
1911,Gadsden Street,29201,34.0091045,-81.0449332
1905,Gadsden Street,29201,34.0089304,-81.0447894
1901,Gadsden Street,29201,34.0087484,-81.0447094
2008,Lincoln Street,29201,34.0109712,-81.0432310
903,Calhoun Street,29201,34.0107239,-81.0431521
907,Calhoun Street,29201,34.0108130,-81.0429358
917,Calhoun Street,29201,34.0109213,-81.0426098
923,Calhoun Street,29201,34.0109628,-81.0423521
900,Calhoun Street,29201,34.0101848,-81.0428274
925,Calhoun Street,29201,34.0110234,-81.0422037
2001,Park Street,29201,34.0110705,-81.0419723
2009,Park Street,29201,34.0112929,-81.0422109
1004,Calhoun Street,29201,34.0108346,-81.0411538
829,Richland Street,29201,34.0097590,-81.0432646
1919,Thrumond Mall,29201,34.0081948,-81.0491691
714,Washington Street,29201,34.0014270,-81.0418341
714,Washington Street,29201,34.0012737,-81.0419253
900,Senate Street,29201,33.9979769,-81.0371739
730,Elmwood Avenue,29201,34.0106274,-81.0456151
815,Elmwood Avenue,29201,34.0123220,-81.0449966
711,Elmwood Avenue,29201,34.0114297,-81.0464914
315,Assembly Street,29201,33.9893626,-81.0306592
345,Assembly Street,29201,33.9896358,-81.0306586
1600,Park Circle,29201,33.9945890,-81.0226672
207-221,Pickens Street,29205,33.9900264,-81.0217712
610,Pickens Street,29201,33.9957031,-81.0237822
616,Pickens Street,29201,33.9959702,-81.0239084
618,Pickens Street,29201,33.9960977,-81.0239654
628,Pickens Street,29201,33.9963026,-81.0237927
628,Pickens Street,29201,33.9963644,-81.0240508
630-634,Pickens Street,29201,33.9964988,-81.0241169
700,Pickens Street,29201,33.9968002,-81.0242319
728,Pickens Street,29201,33.9971629,-81.0243652
1600,Greene Street,29201,33.9975009,-81.0244883
1215,Elmwood Avenue,29201,34.0139483,-81.0383921
1219,Elmwood Avenue,29201,34.0139320,-81.0381736
1223,Elmwood Avenue,29201,34.0139862,-81.0379965
1229,Elmwood Avenue,29201,34.0140614,-81.0377735
1231,Elmwood Avenue,29201,34.0140972,-81.0376557
2751,Bull Street,29201,34.0253580,-81.0392053
1501,Senate Street,29201,34.0019628,-81.0278153
1429,Greene Street,29208,33.9975686,-81.0264183
1603,Blossom Street,29201,33.9956738,-81.0235256
603,Henderson Street,29201,33.9959741,-81.0232156
617,Henderson Street,29201,33.9963106,-81.0232886
621,Henderson Street,29201,33.9964441,-81.0233555
623,Henderson Street,29201,33.9965622,-81.0233951
639,Henderson Street,29201,33.9970055,-81.0236992
641,Henderson Street,29201,33.9971409,-81.0237923
613-615,Henderson Street,29201,33.9961705,-81.0232003
637,Henderson Street,29201,33.9968261,-81.0236136
627,Henderson Street,29201,33.9966813,-81.0234782
709,Henderson Street,29201,33.9974131,-81.0237716
649-645,Henderson Street,29201,33.9972674,-81.0239163
1612,Greene Street,29201,33.9976969,-81.0241699
1614,Greene Street,29201,33.9977386,-81.0241167
1616,Greene Street,29201,33.9977569,-81.0240549
1618,Greene Street,29201,33.9977717,-81.0240006
1620,Greene Street,29201,33.9977903,-81.0239286
1622,Greene Street,29201,33.9978268,-81.0238743
1630,Greene Street,29201,33.9978386,-81.0235222
700,Henderson Street,29201,33.9973022,-81.0232496
708,Henderson Street,29201,33.9974136,-81.0232635
716,Henderson Street,29201,33.9975547,-81.0233143
1634,Greene Street,29201,33.9979773,-81.0232770
1638-1640,Greene Street,29201,33.9980259,-81.0230808
1702,Greene Street,29201,33.9980924,-81.0227640
1708,Greene Street,29201,33.9982459,-81.0224492
1710,Greene Street,29201,33.9982902,-81.0223018
1716,Greene Street,29201,33.9983161,-81.0221497
701-705,Barnwell Street,29201,33.9978214,-81.0220807
1707-1709,Devine Street,29201,33.9974110,-81.0229982
1715,Devine Street,29201,33.9976434,-81.0228853
1723,Devine Street,29201,33.9977832,-81.0224336
1727,Devine Street,29201,33.9978144,-81.0222676
814,Henderson Street,29201,33.9989188,-81.0230362
816,Henderson Street,29201,33.9990935,-81.0230748
820,Henderson Street,29201,33.9994262,-81.0233101
1710,College Street,29201,33.9994718,-81.0231491
1714,College Street,29201,33.9995245,-81.0229460
1716,College Street,29201,33.9995860,-81.0227533
1718,College Street,29201,33.9996402,-81.0225800
1728,College Street,29201,33.9997116,-81.0223756
1730,College Street,29201,33.9997666,-81.0222115
819,Barnwell Street,29205,33.9993879,-81.0221475
1717,Greene Street,29201,33.9988166,-81.0222118
1719,Greene Street,29201,33.9988047,-81.0220310
1723-1725-1727,Greene Street,29201,33.9988351,-81.0218330
1801,Greene Street,29205,33.9990412,-81.0212964
806,Barnwell Street,29205,33.9992030,-81.0213553
812,Barnwell Street,29205,33.9993581,-81.0214706
2,Gibbes Court,29205,33.9995484,-81.0215504
4,Gibbes Court,29205,33.9995878,-81.0213875
6,Gibbes Court,29205,33.9996397,-81.0212029
10,Gibbes Court,29205,33.9996992,-81.0209740
16,Gibbes Court,29205,33.9997827,-81.0207923
20,Gibbes Court,29205,33.9998304,-81.0206446
30,Gibbes Court,29205,33.9998979,-81.0204539
32,Gibbes Court,29205,33.9999499,-81.0202621
817,Gregg Street,29205,33.9997125,-81.0202070
805-807,Gregg Street,29205,33.9995767,-81.0201250
1833-1835,Greene Street,29205,33.9994062,-81.0200484
1829-1831,Greene Street,29205,33.9993558,-81.0202131
1827,Greene Street,29205,33.9993281,-81.0203564
1819,Greene Street,29205,33.9992780,-81.0205405
1811-1813,Greene Street,29205,33.9992124,-81.0207669
1807-1809,Greene Street,29205,33.9991603,-81.0209616
1720-1722-1724-1726,Greene Street,29205,33.9984708,-81.0217035
1730,Greene Street,29205,33.9985224,-81.0214768
1800,Greene Street,29205,33.9985773,-81.0213366
1804,Greene Street,29205,33.9985876,-81.0212165
1808,Greene Street,29205,33.9986899,-81.0210197
1812,Greene Street,29205,33.9987525,-81.0207337
1814,Greene Street,29205,33.9987810,-81.0206343
1816,Greene Street,29205,33.9988041,-81.0205569
1824,Greene Street,29205,33.9988565,-81.0204129
1826,Greene Street,29205,33.9989091,-81.0202561
1828,Greene Street,29205,33.9989645,-81.0200716
1830,Greene Street,29205,33.9990206,-81.0198934
1832,Greene Street,29205,33.9990635,-81.0197175
1900,Greene Street,29205,33.9991255,-81.0195460
1906-1908,Greene Street,29205,33.9992000,-81.0193851
705,Laurens Street,29205,33.9986158,-81.0193257
1851,Devine Street,29205,33.9985342,-81.0195193
1843,Devine Street,29205,33.9984081,-81.0198107
1847,Devine Street,29205,33.9986053,-81.0197585
1827,Devine Street,29205,33.9983745,-81.0199741
1823,Devine Street,29205,33.9983266,-81.0201263
1821,Devine Street,29205,33.9982993,-81.0202938
1905-1915,Greene Street,29205,33.9997131,-81.0196077
812-826,Gregg Street,29205,34.0000482,-81.0198991
1917,Greene Street,29205,33.9998358,-81.0193323
805-815,Laurens Street,29205,33.9999787,-81.0191119
817-823,Laurens Street,29205,34.0003303,-81.0192722
1930,College Street,29205,34.0006327,-81.0194910
1938,College Street,29205,34.0006812,-81.0193335
822-824,Laurens Street,29205,34.0004746,-81.0188371
826,Laurens Street,29205,34.0006304,-81.0188634
830,Laurens Street,29205,34.0008962,-81.0189279
828,Laurens Street,29205,34.0007612,-81.0189410
1912-1916-1920-1924,College Street,29205,34.0005578,-81.0197043
1908,College Street,29205,34.0005441,-81.0199755
1900,College Street,29205,34.0004907,-81.0201565
828,Gregg Street,29205,34.0003623,-81.0200804
17,Gibbes Court,29208,34.0004552,-81.0205000
15,Gibbes Court,29208,34.0003976,-81.0207934
918,Barnwell Street,29208,34.0011692,-81.0221524
915,Gregg Street,29208,34.0008605,-81.0211470
835,Gregg Street,29208,34.0006481,-81.0205853
11-13,Gibbes Court,29208,34.0002582,-81.0210301
921-923,Gregg Street,29208,34.0014458,-81.0211384
1822,Pendleton Street,29208,34.0015247,-81.0213561
1830,Pendleton Street,29208,34.0015888,-81.0212257
1723,Senate Street,29201,34.0029934,-81.0239946
1800,Gervais Street,29201,34.0042253,-81.0232386
1127,Gregg Street,29201,34.0044504,-81.0225289
1110,Barnwell Street,29201,34.0036431,-81.0232219
1110,Barnwell Street,29201,34.0037398,-81.0228975
1110,Barnwell Street,29201,34.0035143,-81.0227948
1110,Barnwell Street,29201,34.0034576,-81.0229960
1110,Barnwell Street,29201,34.0033899,-81.0232087
1102,Barnwell Street,29201,34.0032394,-81.0230873
1815,Senate Street,29201,34.0033342,-81.0227635
1122,Barnwell Street,29201,34.0038612,-81.0233677
1950,Gervais Street,29201,34.0047652,-81.0208220
1922,Gervais Street,29201,34.0044090,-81.0211326
1922,Gervais Street,29201,34.0039994,-81.0202732
1922,Gervais Street,29201,34.0041935,-81.0202307
1917,Senate Street,29201,34.0037222,-81.0208625
1911,Senate Street,29201,34.0036388,-81.0211542
1100,Gregg Street,29201,34.0035529,-81.0214404
1104,Gregg Street,29201,34.0037023,-81.0214902
1106,Gregg Street,29201,34.0038342,-81.0215607
1108,Gregg Street,29201,34.0039728,-81.0216384
1110,Gregg Street,29201,34.0041747,-81.0217080
1120,Gregg Street,29201,34.0043409,-81.0218277
1126,Gregg Street,29201,34.0045183,-81.0219254
1030-1020,Laurens Street,29201,34.0036070,-81.0201202
1016,Laurens Street,29205,34.0032937,-81.0199519
1014,Laurens Street,29205,34.0031465,-81.0199094
1012,Laurens Street,29205,34.0030075,-81.0198281
1008,Laurens Street,29205,34.0028534,-81.0197809
1002-1000,Laurens Street,29205,34.0026116,-81.0196765
934,Laurens Street,29205,34.0025158,-81.0195078
930,Laurens Street,29205,34.0022332,-81.0194882
926,Laurens Street,29205,34.0021025,-81.0194182
924,Laurens Street,29205,34.0019691,-81.0193533
920,Laurens Street,29205,34.0018217,-81.0193048
900,Laurens Street,29205,34.0012657,-81.0190590
906,Laurens Street,29205,34.0014406,-81.0191486
910,Laurens Street,29205,34.0015431,-81.0191769
911,Laurens Street,29205,34.0014044,-81.0196919
915,Laurens Street,29205,34.0015430,-81.0197632
921,Laurens Street,29205,34.0016692,-81.0198095
1932,Pendleton Street,29205,34.0018057,-81.0198210
1932,Pendleton Street,29205,34.0020433,-81.0199095
1930,Pendleton Street,29205,34.0019950,-81.0200643
1928,Pendleton Street,29205,34.0019566,-81.0202163
1906,Pendleton Street,29205,34.0018888,-81.0203869
1904,Pendleton Street,29205,34.0018333,-81.0205631
1900,Pendleton Street,29205,34.0017880,-81.0207017
920,Gregg Street,29205,34.0015779,-81.0206111
916,Gregg Street,29205,34.0014415,-81.0205299
914,Gregg Street,29205,34.0013008,-81.0204716
900,Gregg Street,29205,34.0010181,-81.0203655
1913,College Street,29205,34.0010347,-81.0201055
1915,College Street,29205,34.0011349,-81.0199013
1917,College Street,29205,34.0010720,-81.0197449
901,Laurens Street,29205,34.0011340,-81.0195637
907,Laurens Street,29205,34.0012482,-81.0196603
1329,Blanding Street,29201,34.0091524,-81.0337597
1330,Laurel Street,29201,34.0099292,-81.0340847
1415,Blanding Street,29201,34.0094951,-81.0327616
1722,Marion Street,29201,34.0099037,-81.0334532
1400,Laurel Street,29201,34.0100973,-81.0335295
1404,Laurel Street,29201,34.0101936,-81.0333369
1410,Laurel Street,29201,34.0102051,-81.0331589
1416,Laurel Street,29201,34.0101924,-81.0329829
1422,Laurel Street,29201,34.0103358,-81.0327125
1777,Bull Street,29201,34.0104811,-81.0324350
1605,Park Circle,29201,33.9952657,-81.0221820
267,Harbison Boulevard,29212,34.0713487,-81.1620826
151,Harbison Boulevard,29212,34.0689296,-81.1650262
150,Harbison Boulevard,29212-2204,34.0679648,-81.1622318
287,Harbison Boulevard,29212,34.0735856,-81.1578523
1501,Park Street,29201,34.0044062,-81.0391092
1432,Lincoln Street,29201,34.0036450,-81.0399695
1529,Assembly Street,29201,34.0055825,-81.0380368
1324,Calhoun Street,29201,34.0124540,-81.0353544
1325,Marion Street,29201,34.0124777,-81.0351646
1929,Marion Street,29201,34.0126862,-81.0352636
1327,Richland Street,29201,34.0117501,-81.0349978
1329,Richland Street,29201,34.0117602,-81.0348039
1403,Richland Street,29201,34.0119087,-81.0343328
1415,Richland Street,29201,34.0120840,-81.0339139
1425,Richland Street,29201,34.0122269,-81.0335339
1901,Bull Street,29201,34.0122848,-81.0333192
1419,Richland Street,29201,34.0121738,-81.0337301
1913,Bull Street,29201,34.0126176,-81.0334981
1919,Bull Street,29201,34.0127629,-81.0335621
1931-1925,Bull Street,29201,34.0130254,-81.0336876
1416,Calhoun Street,29201,34.0128612,-81.0340462
1316,Richland Street,29201,34.0111410,-81.0351393
1330,Richland Street,29201,34.0113554,-81.0346589
1328,Richland Street,29201,34.0113080,-81.0347651
1829,Marion Street,29201,34.0110612,-81.0345765
1817,Marion Street,29201,34.0108102,-81.0344808
1813,Marion Street,29201,34.0106476,-81.0344458
1817,Marion Street,29201,34.0106928,-81.0347711
1325,Laurel Street,29201,34.0103744,-81.0344247
1331,Laurel Street,29201,34.0104246,-81.0342802
1401,Laurel Street,29201,34.0106460,-81.0337597
1412,Richland Street,29201,34.0114626,-81.0334053
1424,Richland Street,29201,34.0115012,-81.0331940
1825,Bull Street,29201,34.0115405,-81.0329749
1430,Richland Street,29201,34.0117895,-81.0330613
1406,Richland Street,29201,34.0115543,-81.0339616
1830,Marion Street,29201,34.0115386,-81.0341449
1300,Pickens Street,29201,34.0047930,-81.0271576
1300,Henderson Street,29201,34.0058054,-81.0266755
1340,Washington Street,29201,34.0044098,-81.0327276
2001,Bull Street,29201,34.0136350,-81.0339087
1421,Calhoun Street,29201,34.0135091,-81.0341406
1417,Calhoun Street,29201,34.0134605,-81.0342731
1413,Calhoun Street,29201,34.0133803,-81.0344497
1407,Calhoun Street,29201,34.0133361,-81.0346048
1405,Calhoun Street,29201,34.0132983,-81.0347797
1401,Calhoun Street,29201,34.0132578,-81.0349735
2008,Marion Street,29201,34.0135377,-81.0349117
2011,Bull Street,29201,34.0138984,-81.0342528
2006,Sumter Street,29201,34.0129308,-81.0365821
2000,Sumter Street,29201,34.0128310,-81.0364519
2025,Marion Street,29201,34.0138789,-81.0358044
2025,Marion Street,29201,34.0137659,-81.0361414
1308,Elmwood Avenue,29201,34.0137536,-81.0366291
2032,Sumter Street,29201,34.0136947,-81.0369461
700,Blanding Street,29201,34.0052756,-81.0443456
706,Blanding Street,29201,34.0053311,-81.0441667
1624,Wayne Street,29201,34.0051084,-81.0442139
5422,Forest Drive,29206,34.0201258,-80.9515698
1518,Washington Street,29201,34.0055491,-81.0287775
1524,Washington Street,29201,34.0055840,-81.0286751
1417,Pickens Street,29201,34.0066050,-81.0289394
1427,Pickens Street,29201,34.0069644,-81.0290282
1512,Blanding Street,29201,34.0092212,-81.0307994
1522,Blanding Street,29201,34.0091986,-81.0305498
1615,Pickens Street,29201,34.0091982,-81.0301300
1621-1623,Pickens Street,29201,34.0093328,-81.0301372
1505,Blanding Street,29201,34.0098356,-81.0314775
1517,Blanding Street,29201,34.0100036,-81.0308749
1527,Blanding Street,29201,34.0100556,-81.0307317
1531,Blanding Street,29201,34.0100887,-81.0304772
1711,Pickens Street,29201,34.0103580,-81.0306148
1715,Pickens Street,29201,34.0104791,-81.0306908
1725,Pickens Street,29201,34.0108748,-81.0309304
1512,Laurel Street,29201,34.0107196,-81.0314871
1508,Laurel Street,29201,34.0106483,-81.0316273
5340,Forest Drive,29206,34.0227246,-80.9540533
110,Percival Road,29206,34.0236367,-80.9494800
5417,Forest Drive,29206,34.0240410,-80.9525732
4464,Devine Street,29205,33.9897043,-80.9768179
4464,Devine Street,29205,33.9905978,-80.9774705
4301,Fort Jackson Boulevard,29205,33.9918473,-80.9759661
350,Harbison Boulevard,29212,34.0728424,-81.1522859
368,Harbison Boulevard,29212,34.0751306,-81.1540175
275,Harbison Boulevard,29212,34.0728070,-81.1603049
275,Harbison Boulevard,29212,34.0736606,-81.1606933
400,Harbison Boulevard,29212,34.0809024,-81.1497754
400,Palmetto Health Parkway,29212,34.0879322,-81.1598591
201,Lake Murray Boulevard,29063,34.0857870,-81.1522196
301,Club Ridge Road,29045,34.1259413,-80.8222770
1600,Harden Street,29204,34.0139674,-81.0198846
1530,Harden Street,29204,34.0105333,-81.0198647
434,Columbiana Drive,29212,34.0872877,-81.1636876
525,Galway Lane,29209,33.9710186,-80.9619854
2000-2020,Hampton Street,29201,34.0088052,-81.0213767
1920,Bull Street,29201,34.0131328,-81.0327295
1916,Bull Street,29201,34.0128859,-81.0329507
1910,Bull Street,29201,34.0127314,-81.0328851
1501,Richland Street,29201,34.0123819,-81.0327758
1511,Richland Street,29201,34.0124534,-81.0325643
1515,Richland Street,29201,34.0126324,-81.0323367
1519,Richland Street,29201,34.0126449,-81.0321217
1511,Richland Street,29201,34.0125533,-81.0324407
1923,Pickens Street,29201,34.0133078,-81.0321714
1925,Pickens Street,29201,34.0134064,-81.0319586
1921,Pickens Street,29201,34.0132415,-81.0318938
1917,Pickens Street,29201,34.0131427,-81.0318473
1915,Pickens Street,29201,34.0130478,-81.0318318
1911,Pickens Street,29201,34.0129492,-81.0317680
1531,Richland Street,29201,34.0127538,-81.0315867
1529,Richland Street,29201,34.0127352,-81.0316786
1523,Richland Street,29201,34.0127212,-81.0319543
312,Laurel Street,29201,34.0036387,-81.0520827
1316,Pickens Street,29201,34.0052920,-81.0276334
1318,Pickens Street,29201,34.0054425,-81.0277346
1338,Pickens Street,29201,34.0059593,-81.0279149
1332,Pickens Street,29201,34.0056597,-81.0279234
1336,Pickens Street,29201,34.0058654,-81.0279153
1400,Pickens Street,29201,34.0063069,-81.0279943
1600,Hampton Street,29201,34.0070940,-81.0281979
1600,Hampton Street,29201,34.0069903,-81.0274402
1701,Washington Street,29201,34.0067906,-81.0268604
1601,Hampton Street,29201,34.0075917,-81.0287716
1607,Hampton Street,29201,34.0081013,-81.0285533
1608,Taylor Street,29201,34.0085197,-81.0290103
1600,Taylor Street,29201,34.0084604,-81.0292130
1614,Taylor Street,29201,34.0084746,-81.0285879
1616,Taylor Street,29201,34.0086196,-81.0285319
1645,Hampton Street,29201,34.0080626,-81.0278730
1705,Hampton Street,29201,34.0082120,-81.0270866
1634,Taylor Street,29201,34.0088047,-81.0280146
1727,Hampton Street,29201,34.0084979,-81.0261829
1528,Blanding Street,29201,34.0095324,-81.0304219
1534,Blanding Street,29201,34.0095896,-81.0302371
1804,Bull Street,29201,34.0111087,-81.0321614
1812,Bull Street,29201,34.0113218,-81.0322443
1814,Bull Street,29201,34.0114568,-81.0322724
1816-1822,Bull Street,29201,34.0115940,-81.0322580
1824,Bull Street,29201,34.0117524,-81.0323911
1500,Richland Street,29201,34.0119795,-81.0324856
1516,Richland Street,29201,34.0120376,-81.0320866
1518,Richland Street,29201,34.0121241,-81.0319048
1522,Richland Street,29201,34.0121846,-81.0317222
1526,Richland Street,29201,34.0122199,-81.0315878
1530,Richland Street,29201,34.0122659,-81.0314262
1817,Pickens Street,29201,34.0119152,-81.0312561
1815,Pickens Street,29201,34.0118141,-81.0312720
1813,Pickens Street,29201,34.0117281,-81.0312200
1811,Pickens Street,29201,34.0116414,-81.0311848
1511,Laurel Street,29201,34.0112726,-81.0318337
1517,Laurel Street,29201,34.0113719,-81.0315622
1521,Laurel Street,29201,34.0114039,-81.0313914
1529,Laurel Street,29201,34.0114332,-81.0312009
1531,Laurel Street,29201,34.0114631,-81.0310580
1920,Pickens Street,29201,34.0136701,-81.0312856
1601,Richland Street,29201,34.0129302,-81.0311382
1623,Richland Street,29201,34.0131588,-81.0303473
1627,Richland Street,29201,34.0131980,-81.0302080
1631,Richland Street,29201,34.0132300,-81.0300153
1907,Henderson Street,29201,34.0133966,-81.0300606
1909,Henderson Street,29201,34.0134963,-81.0301342
1915,Henderson Street,29201,34.0136474,-81.0301927
1919,Henderson Street,29201,34.0137419,-81.0302572
1921,Henderson Street,29201,34.0138596,-81.0303169
1925,Henderson Street,29201,34.0139856,-81.0303911
1931,Henderson Street,29201,34.0142118,-81.0304414
1725,Gervais Street,29201,34.0045002,-81.0246580
1727,Gervais Street,29201,34.0044280,-81.0242865
1227,Barnwell Street,29201,34.0049810,-81.0248457
1801,Gervais Street,29201,34.0046984,-81.0237588
1811,Gervais Street,29201,34.0046943,-81.0234568
1815,Gervais Street,29201,34.0047543,-81.0233191
1835,Gervais Street,29201,34.0050127,-81.0229296
1236,Gregg Street,29201,34.0061544,-81.0222376
1929,Gervais Street,29201,34.0057066,-81.0212858
1309,Gregg Street,29201,34.0063212,-81.0232955
1315,Gregg Street,29201,34.0065196,-81.0233812
1327,Gregg Street,29201,34.0068784,-81.0236010
1333,Gregg Street,29201,34.0070504,-81.0236892
1812,Washington Street,29201,34.0069971,-81.0240869
1808,Washington Street,29201,34.0069623,-81.0243064
1806,Washington Street,29201,34.0068717,-81.0244751
1802,Washington Street,29201,34.0068429,-81.0246678
1800,Washington Street,29201,34.0068236,-81.0247969
1717,Washington Street,29201,34.0071449,-81.0258567
1411,Barnwell Street,29201,34.0072716,-81.0256726
1415,Barnwell Street,29201,34.0075810,-81.0257041
1417,Barnwell Street,29201,34.0076525,-81.0257618
1732,Hampton Street,29201,34.0079085,-81.0258234
1728,Hampton Street,29201,34.0078841,-81.0259800
1722,Hampton Street,29201,34.0078121,-81.0261232
1718,Hampton Street,29201,34.0077509,-81.0263221
1712,Hampton Street,29201,34.0076697,-81.0264566
1420,Henderson Street,29201,34.0072452,-81.0268409
1330,Gregg Street,29201,34.0073137,-81.0231381
1912,Washington Street,29201,34.0074836,-81.0226043
1914,Washington Street,29201,34.0075062,-81.0224205
1918,Washington Street,29201,34.0075969,-81.0221294
1400,Barnwell Street,29201,34.0071882,-81.0249013
1406,Barnwell Street,29201,34.0073023,-81.0249975
1812,Hampton Street,29201,34.0080677,-81.0250443
1804,Hampton Street,29201,34.0081637,-81.0251837
1444,Barnwell Street,29201,34.0080935,-81.0253072
1818,Hampton Street,29201,34.0082078,-81.0246374
1433,Gregg Street,29201,34.0080486,-81.0242611
1840,Hampton Street,29201,34.0083747,-81.0241838
1840,Hampton Street,29201,34.0084371,-81.0244916
1427,Gregg Street,29201,34.0079623,-81.0240551
1417,Gregg Street,29201,34.0077901,-81.0240845
1405,Gregg Street,29201,34.0076415,-81.0239887
1401,Gregg Street,29201,34.0075247,-81.0239376
1408,Gregg Street,29201,34.0079579,-81.0234599
1414,Gregg Street,29201,34.0081161,-81.0235295
1420,Gregg Street,29201,34.0082973,-81.0235826
1422,Gregg Street,29201,34.0083991,-81.0236252
1406,Gregg Street,29201,34.0078409,-81.0234304
1430-1434,Gregg Street,29201,34.0085203,-81.0237188
1900,Hampton Street,29201,34.0086231,-81.0238226
1908,Hampton Street,29201,34.0087107,-81.0234919
1910,Hampton Street,29201,34.0086954,-81.0233609
1922-1924-1926,Hampton Street,29201,34.0088854,-81.0230646
1425,Cherokee Street,29201,34.0086199,-81.0229153
1421,Cherokee Street,29201,34.0084370,-81.0228513
1419,Cherokee Street,29201,34.0083365,-81.0228236
1417,Cherokee Street,29201,34.0082574,-81.0227503
1413,Cherokee Street,29201,34.0081660,-81.0227066
1409,Cherokee Street,29201,34.0080630,-81.0226934
1405,Cherokee Street,29201,34.0079911,-81.0226310
1401,Cherokee Street,29201,34.0078954,-81.0226162
1422,Cherokee Street,29201,34.0086240,-81.0225485
1424,Cherokee Street,29201,34.0087081,-81.0226058
1426,Cherokee Street,29201,34.0088004,-81.0226541
1428,Cherokee Street,29201,34.0088921,-81.0226886
1430,Cherokee Street,29201,34.0089881,-81.0226908
1929,Hampton Street,29204,34.0096259,-81.0229859
1916,Taylor Street,29204,34.0097370,-81.0238567
1911,Hampton Street,29204,34.0092367,-81.0233533
1911,Hampton Street,29204,34.0092142,-81.0235381
1905,Hampton Street,29204,34.0090595,-81.0238140
1506,Gregg Street,29204,34.0091425,-81.0240425
1510,Gregg Street,29204,34.0092896,-81.0241120
1516,Gregg Street,29204,34.0094293,-81.0241509
1522,Gregg Street,29204,34.0097000,-81.0242901
1900,Taylor Street,29204,34.0099615,-81.0244435
1906,Taylor Street,29204,34.0100155,-81.0242660
1801,Hampton Street,29201,34.0085999,-81.0255535
1803,Hampton Street,29201,34.0086279,-81.0254480
1807,Hampton Street,29201,34.0087105,-81.0252665
1813,Hampton Street,29201,34.0087322,-81.0251030
1817,Hampton Street,29201,34.0087629,-81.0249391
1819,Hampton Street,29201,34.0088036,-81.0248127
1821,Hampton Street,29201,34.0088786,-81.0246933
1511,Gregg Street,29201,34.0091147,-81.0246594
1513,Gregg Street,29201,34.0092681,-81.0247377
1510,Barnwell Street,29201,34.0089254,-81.0255970
1506,Barnwell Street,29201,34.0087886,-81.0256552
1703,Taylor Street,29201,34.0097582,-81.0277102
1713-1717,Taylor Street,29201,34.0097154,-81.0273798
1719,Taylor Street,29201,34.0096421,-81.0270532
1725,Taylor Street,29201,34.0097738,-81.0269560
1735,Taylor Street,29201,34.0097446,-81.0267016
1615,Barnwell Street,29201,34.0100658,-81.0269602
1800,Blanding Street,29201,34.0106587,-81.0264294
1804,Blanding Street,29201,34.0107560,-81.0262283
1614,Barnwell Street,29201,34.0103927,-81.0263648
1819,Taylor Street,29201,34.0101873,-81.0254468
1831,Taylor Street,29201,34.0102762,-81.0251497
1831,Taylor Street,29201,34.0105117,-81.0253967
1910,Blanding Street,29204,34.0110527,-81.0245759
1930,Blanding Street,29204,34.0112412,-81.0240584
1921,Taylor Street,29204,34.0106640,-81.0237930
2001,Taylor Street,29204,34.0109112,-81.0227599
1942,Laurel Street,29201,34.0121796,-81.0244661
1850,Laurel Street,29201,34.0122755,-81.0257218
1901,Blanding Street,29201,34.0118892,-81.0251526
1825,Blanding Street,29201,34.0115549,-81.0260495
1800,Laurel Street,29201,34.0119095,-81.0267495
1739,Blanding Street,29201,34.0111969,-81.0274943
1715,Blanding Street,29201,34.0110872,-81.0278104
1700,Henderson Street,29201,34.0107968,-81.0282730
1730,Henderson Street,29201,34.0112843,-81.0281097
1709,Barnwell Street,29201,34.0114772,-81.0278771
1704,Laurel Street,29201,34.0115879,-81.0286615
1750,Laurel Street,29201,34.0118121,-81.0278178
1818,Blanding Street,29201,34.0109714,-81.0256643
1616,Richland Street,29201,34.0123136,-81.0302423
1703,Laurel Street,29201,34.0122164,-81.0289510
1709,Laurel Street,29201,34.0122577,-81.0286891
1818,Henderson Street,29201,34.0125291,-81.0290402
1717,Laurel Street,29201,34.0122799,-81.0283789
1727,Laurel Street,29201,34.0123750,-81.0280380
1731,Laurel Street,29201,34.0126872,-81.0279604
1815-1821,Barnwell Street,29201,34.0129566,-81.0282699
1710,Richland Street,29201,34.0131961,-81.0283258
1824,Barnwell Street,29201,34.0133280,-81.0274870
1813,Laurel Street,29201,34.0129086,-81.0268116
1809,Laurel Street,29201,34.0126757,-81.0270100
1812,Barnwell Street,29201,34.0130608,-81.0272417
1825,Laurel Street,29201,34.0131308,-81.0265375
1822,Richland Street,29201,34.0136263,-81.0269464
1823,Gregg Street,29201,34.0137578,-81.0267338
1900,Richland Street,29201,34.0138646,-81.0259226
1917,Laurel Street,29201,34.0133620,-81.0254584
1901,Laurel Street,29201,34.0130122,-81.0256801
1810-1808,Gregg Street,29201,34.0132385,-81.0258340
1814,Gregg Street,29201,34.0133621,-81.0258468
1925,Laurel Street,29201,34.0138593,-81.0250233
2001,Laurel Street,29204,34.0140462,-81.0233764
1910,Gregg Street,29201,34.0146070,-81.0261732
1922,Calhoun Street,29201,34.0148928,-81.0265346
1922,Calhoun Street,29201,34.0150400,-81.0266254
1900,Calhoun Street,29201,34.0152641,-81.0267404
1922,Calhoun Street,29201,34.0151532,-81.0264753
1924,Calhoun Street,29204,34.0153794,-81.0261550
1924,Calhoun Street,29204,34.0150730,-81.0260861
1924,Calhoun Street,29204,34.0151866,-81.0258386
1900,Barnwell Street,29201,34.0141158,-81.0275366
1913,Gregg Street,29201,34.0146071,-81.0271266
1898,Calhoun Street,29201,34.0151423,-81.0272269
1898,Calhoun Street,29201,34.0150703,-81.0274607
1898,Calhoun Street,29201,34.0151082,-81.0273427
1898,Calhoun Street,29201,34.0149928,-81.0276985
1924,Barnwell Street,29201,34.0147227,-81.0277830
1918,Barnwell Street,29201,34.0145461,-81.0277331
1916,Barnwell Street,29201,34.0144333,-81.0281191
1920,Barnwell Street,29201,34.0145537,-81.0281856
1928,Barnwell Street,29201,34.0147393,-81.0282814
1911,Barnwell Street,29201,34.0141125,-81.0287024
1917,Barnwell Street,29201,34.0143015,-81.0287943
1721,Richland Street,29201,34.0137949,-81.0287521
1826,Henderson Street,29201,34.0128806,-81.0292481
1830,Henderson Street,29201,34.0129992,-81.0292587
1706,Richland Street,29201,34.0130818,-81.0290843
1708,Richland Street,29201,34.0131127,-81.0289516
1701,Richland Street,29201,34.0133589,-81.0295779
1703,Richland Street,29201,34.0133868,-81.0294605
1705,Richland Street,29201,34.0134254,-81.0293610
1711,Richland Street,29201,34.0135011,-81.0291464
1908,Henderson Street,29201,34.0136563,-81.0296114
1912,Henderson Street,29201,34.0137708,-81.0296643
1914,Henderson Street,29201,34.0138392,-81.0297009
1916,Henderson Street,29201,34.0139013,-81.0297653
1920,Henderson Street,29201,34.0140388,-81.0297702
1930,Henderson Street,29201,34.0141720,-81.0298957
1700,Calhoun Street,29201,34.0143335,-81.0300192
1704,Calhoun Street,29201,34.0143756,-81.0298770
1708,Calhoun Street,29201,34.0144065,-81.0297611
1710,Calhoun Street,29201,34.0144171,-81.0296145
1714,Calhoun Street,29201,34.0144696,-81.0294686
1716,Calhoun Street,29201,34.0144939,-81.0293257
1718,Calhoun Street,29201,34.0145236,-81.0292085
1921,Barnwell Street,29201,34.0145391,-81.0288209
1923,Barnwell Street,29201,34.0146287,-81.0288558
1925,Barnwell Street,29201,34.0147110,-81.0288962
901,Harden Street,29205,34.0017539,-81.0177941
7412,Broad River Road,29063,34.0972900,-81.1609679
7339,Broad River Road,29063,34.0955506,-81.1596815
1917,Harden Street,29204,34.0159152,-81.0244424
1915,Harden Street,29204,34.0154794,-81.0241448
1901,Harden Street,29204,34.0151458,-81.0237524
2021,Blanding Street,29204,34.0126354,-81.0227738
2020,Laurel Street,29204,34.0129436,-81.0232869
2001,Blanding Street,29204,34.0125362,-81.0235455
1732,Harden Street,29204,34.0129856,-81.0227922
1725,Harden Street,29204,34.0127592,-81.0224982
2018,Taylor Street,29204,34.0107854,-81.0216727
1601,Harden Street,29204,34.0112726,-81.0219537
1607,Harden Street,29204,34.0114464,-81.0219751
2027,Taylor Street,29204,34.0111290,-81.0221868
6439,Garners Ferry Road,29466,33.9746601,-80.9599238
6880,Garners Ferry Road,29209,33.9769032,-80.9565398
1875,Harden Street,29204,34.0147988,-81.0243515
2015,Calhoun Street,29204,34.0164535,-81.0246526
2015,Calhoun Street,29204,34.0166398,-81.0245225
2013,Harden Street,29204,34.0165856,-81.0243275
2101,Oak Street,29204,34.0179373,-81.0213366
2025,Harden Street,29204,34.0175046,-81.0246022
1100,South Holly Street,29205,33.9780498,-80.9955496
2230,Commerce Drive,29205,33.9775027,-81.0089729
2237,Commerce Drive,29205,33.9779351,-81.0084451
1014,Adeline Drive,29205,33.9774666,-81.0051897
1918,Mitchell Street,29205,33.9794472,-81.0113542
515,Superior Street,29205,33.9817991,-81.0166454
1340,Rosewood Drive,29201,33.9824507,-81.0191892
1334,Rosewood Drive,29205,33.9821130,-81.0195273
1366,Rosewood Drive,29205,33.9829195,-81.0179547
1731,Shivers Road,29210,34.0585442,-81.1007083
1741,Shivers Road,29210,34.0588273,-81.1003736
5420,Broad River Road,29212,34.0813839,-81.1214213
5400,Broad River Road,29212,34.0766133,-81.1259924
950,Jackson Avenue,29203,34.0389057,-81.0418132
7550,Benning Road,29207,34.0183989,-80.9280861
501,Gervais Street,29201,33.9982263,-81.0442259
1225,Pickens Street,29201,34.0040930,-81.0278687
1522,Lady Street,29201,34.0043054,-81.0278234
1518,Lady Street,29201,34.0042271,-81.0280596
7309,Top Forest Drive,29209,33.9696002,-80.9512014
7333,Garners Ferry Road,29209,33.9696016,-80.9504360
7300,Garners Ferry Road,29209,33.9711535,-80.9487338
201,East Exchange Boulevard,29209,33.9699397,-80.9533230
7351,Garners Ferry Road,29209,33.9697292,-80.9483369
7385,Garners Ferry Road,29209,33.9694810,-80.9476463
7337,Garner's Ferry Road,29209-2110,33.9696023,-80.9496983
333,Etiwan Avenue,29205,33.9865858,-81.0102902
2338,Gervais Street,29205,34.0071535,-81.0140546
2324,Gervais Street,29205,34.0066063,-81.0147008
438,Columbiana Drive,29212,34.0876698,-81.1637973
2600,Rosewood Drive,29205,33.9863199,-81.0070201
2221,Rosewood Drive,29205,33.9866456,-81.0084268
1825,Rosewood Drive,29205,33.9847368,-81.0147430
1425,Rosewood Drive,29205,33.9837623,-81.0173277
1332,Rosewood Drive,29205,33.9824074,-81.0198976
1510,Laurens Street,29204,34.0099173,-81.0224739
2001,Hampton Street,29204,34.0095408,-81.0223105
2005,Hampton Street,29204,34.0097406,-81.0220915
2011,Hampton Street,29204,34.0098207,-81.0217429
1507,Harden Street,29204,34.0101502,-81.0216434
2008,Taylor Street,29204,34.0104228,-81.0222177
2012,Taylor Street,29204,34.0105987,-81.0221419
2014,Taylor Street,29204,34.0106615,-81.0220237
2006,Taylor Street,29204,34.0105074,-81.0224468
2000,Taylor Street,29204,34.0103697,-81.0227319
2200,Gervais Street,29205,34.0062249,-81.0172422
2218,Gervais Street,29205,34.0062698,-81.0165191
2240,Gervais Street,29205,34.0064863,-81.0164238
3818,116 W Lake Drive,29205,33.9958737,-80.9867566
701,Adger Road,29205,33.9994684,-80.9942247
921,Atlas Road,29209,33.9652951,-80.9451179
220,East Exchange Boulevard,29209,33.9686361,-80.9523997
240,East Exchange Boulevard,29209-2172,33.9679857,-80.9524758
250,East Exchange Boulevard,29209,33.9671873,-80.9521846
1116,Blanding Street,29201,34.0075454,-81.0371510
1114,Blanding Street,29201,34.0074086,-81.0373311
1108,Blanding Street,29201,34.0073708,-81.0375394
1224,Sumter Street,29201,34.0028082,-81.0318300
4488,Fort Jackson Boulevard,29209,33.9923434,-80.9696851
301,Gervais Street,29201,33.9989303,-81.0480904
1031,Assembly Street,29201,33.9989330,-81.0347807
1501,Senate Street,29201,34.0022242,-81.0276518
1527,Senate Street,29201,34.0019935,-81.0270299
1922,Gervais Street,29201,34.0041764,-81.0208371
804,Gervais Street,29201,33.9989138,-81.0395200
707,Gervais Street,29201,33.9994579,-81.0408994
715,Gervais Street,29201,33.9994385,-81.0405094
1717,Washington Street,29201,34.0072521,-81.0260784
220,Faison Drive,29203,34.0858517,-80.9832354
604,South Bonham Road,29205,33.9829369,-80.9915678
602,South Bonham Road,29205,33.9831535,-80.9915967
1912,Rosewood Drive,29205,33.9844902,-81.0130531
3005,Devine Street,29205,33.9982292,-80.9986719
3005,Devine Street,29205,33.9981558,-80.9983257
1918,Seneca Avenue,29205,33.9919701,-81.0151050
1426 Main street,Main Street,29201,34.0049355,-81.0351797
6090,Garners Ferry Road,29209,33.9807972,-80.9675179
131,Sumter Street,29201,33.9878955,-81.0262576
4998,Broad River Road,29212,34.0789203,-81.1282245
4502,Broad River Road,29210,34.0699865,-81.1179678
3200,Lyles Street,29201,34.0240681,-81.0522733
619,King Street,29205,33.9975160,-81.0077794
2925,Devine Street,29205,33.9982578,-80.9996002
301,Beckman Road,29203,34.0812720,-80.9792731
421,Broad River Road,29210,34.0331421,-81.0912946
114,South Shandon Street,29205,33.9895348,-81.0004304
20,Hampton Springs Court,29209,33.9823458,-80.9467820
26,Hampton Springs Court,29209,33.9825534,-80.9469341
32,Hampton Springs Court,29209,33.9827912,-80.9469060
1320,House Street,29204,34.0108913,-81.0104813
1324,House Street,29204,34.0110135,-81.0105650
1,Tombee Court,29209,33.9883723,-80.9492640
4730,Muir Street,29203,34.0553265,-81.0117147
1929,High Street,29201,34.0326932,-81.0298169
1800,Mitchell Street,29205,33.9800888,-81.0132234
1815,Mitchell Street,29205,33.9805336,-81.0124089
1906,Superior Street,29205,33.9816144,-81.0109164
717,South Edisto Avenue,29205,33.9813700,-81.0104897
740,South Edisto Avenue,29205,33.9803550,-81.0100546
728,South Edisto Avenue,29205,33.9806842,-81.0099800
724,South Edisto Avenue,29205,33.9809839,-81.0099201
718,South Edisto Avenue,29205,33.9812275,-81.0097999
810,South Edisto Avenue,29205,33.9799119,-81.0101276
906,South Edisto Avenue,29205,33.9792188,-81.0100819
812,South Edisto Avenue,29205,33.9796617,-81.0101796
3102,Bronx Road,29204,34.0376460,-81.0044105
5719,Fairfield Road,29204,34.0633488,-81.0238011
1401,Assembly Street,29201,34.0035920,-81.0372201
130,South Waccamaw Avenue,29205,33.9894585,-81.0120177
6892,Garners Ferry Road,29209,33.9760059,-80.9568851
6,Forest Hills Court,29204,34.0136194,-81.0070880
1550,Freed Street,29201,34.0179538,-81.0350579
901,Washington Street,29201,34.0028563,-81.0395160
2901,Rosewood Drive,29205,33.9879607,-81.0036023
5604,Forest Drive,29206,34.0232692,-80.9485035
512,Percival Road,29206,34.0308851,-80.9418838
140,Parkridge Drive,29212,34.0833179,-81.1558692
2119,Sumter Street,29201,34.0144401,-81.0383389
1206,Scott Street,29201,34.0146230,-81.0389883
2107,Sumter Street,29201,34.0143350,-81.0377758
1206,Scott Street,29201,34.0146612,-81.0387920
150,Park Central Dr,29203,34.0279223,-81.0399034
2847,Devine,29201,33.9983779,-81.0018448
6070,Garners Ferry Road,29209,33.9831484,-80.9676704
6080,Garners Ferry Road,29209,33.9828786,-80.9671587
141,Pelham Drive,29209,33.9819482,-80.9667553
5910,Garners Ferry Road,29209,33.9825061,-80.9691428
4400,Fort Jackson Boulevard,29209,33.9906317,-80.9724963
4400,Fort Jackson Boulevard,29209,33.9908538,-80.9722660
7410,Garners Ferry Road,29209,33.9696946,-80.9443370
7338,Garners Ferry Road,29209,33.9705630,-80.9482217
57,Bradstone Circle,29063,34.0903506,-81.1487532
61,Bradstone Circle,29063,34.0905126,-81.1487999
65,Bradstone Circle,29063,34.0906811,-81.1489631
69,Bradstone Circle,29063,34.0907926,-81.1491180
73,Bradstone Circle,29063,34.0908563,-81.1493005
77,Bradstone Circle,29063,34.0908674,-81.1495028
81,Bradstone Circle,29063,34.0908367,-81.1497003
85,Bradstone Circle,29063,34.0907504,-81.1499065
89,Bradstone Circle,29063,34.0906643,-81.1500539
93,Bradstone Circle,29063,34.0905481,-81.1502296
751,Fountain Lake Road,29209,33.9524005,-80.9434043
747,Fountain Lake Road,29209,33.9524976,-80.9435359
743,Fountain Lake Road,29209,33.9525805,-80.9436537
739,Fountain Lake Road,29209,33.9526992,-80.9437624
735,Fountain Lake Road,29209,33.9527716,-80.9438995
735,Fountain Lake Road,29209,33.9528888,-80.9439909
731,Fountain Lake Road,29209,33.9529595,-80.9441373
755,Fountain Lake Road,29209,33.9523347,-80.9432084
759,Fountain Lake Road,29209,33.9524396,-80.9430032
756,Fountain Lake Road,29209,33.9525625,-80.9428743
752,Fountain Lake Road,29209,33.9527640,-80.9428657
748,Fountain Lake Road,29209,33.9528834,-80.9430237
744,Fountain Lake Road,29209,33.9529320,-80.9432111
740,Fountain Lake Road,29209,33.9529687,-80.9433413
736,Fountain Lake Road,29209,33.9530598,-80.9434798
732,Fountain Lake Road,29209,33.9531523,-80.9436381
728,Fountain Lake Road,29209,33.9532462,-80.9437051
7831,Garners Ferry Road,29209,33.9542127,-80.9285062
643,Fountain Lake Road,29209,33.9538546,-80.9451790
1518,Henderson Street,29201,34.0086447,-81.0272433
3922,Rosewood Drive,29205,33.9874176,-80.9854930
1898,Gadsden Street,29201,34.0078763,-81.0437019
2440,Millwood Avenue,29205,34.0063481,-81.0120118
2250,Gervais Street,29205,34.0065069,-81.0161485
1909,Washington Street,29201,34.0078521,-81.0228946
1505,Harden Street,29204,34.0100885,-81.0212770
1412,Cherokee Street,29201,34.0082843,-81.0223579
1000,Lady Street,29201,34.0013285,-81.0369427
1001,Gervais Street,29201,34.0005596,-81.0368166
2470,Millwood Avenue,29205,34.0056996,-81.0102934
1004,Short Street,29205,34.0054560,-81.0108137
2480,Millwood Avenue,29205,34.0056774,-81.0095961
2341,Pendleton Street,29205,34.0052343,-81.0132222
1010,Pine Street,29205,34.0047035,-81.0163433
4201,North Main Street,29229,34.0423764,-81.0393275
1642,Enoree Avenue,29205,33.9894139,-81.0191024
2213,Rosewood Drive,29205,33.9865123,-81.0087123
550,Columbiana Drive,29063,34.0903513,-81.1687060
185,Stoneridge Drive,29210,34.0154416,-81.0742483
406,Howard Street,29205,33.9867175,-81.0052235
1322,Gadsden Street,29201,34.0015328,-81.0408552
820,Sumter Street,29201,33.9972169,-81.0296491
2016,Assembly Street,29201,34.0121786,-81.0398715
1720,Devonshire Drive,29204,34.0171555,-81.0034831
1825,Saint Julian Place,29204,34.0192145,-81.0039503
1800,Saint Julian Place,29204,34.0194877,-81.0026615
1609,Blossom Street,29201,33.9957789,-81.0233872
1717,Devine Street,29201,33.9976663,-81.0227260
2909,Devine Street,29205,33.9982637,-81.0003964
2442,Devine Street,29205,33.9982764,-81.0093027
3014,Devine Street,29205,33.9975130,-80.9980504
2814,Huron Street,29205,33.9817380,-81.0029229
801,South Maple Street,29205,33.9815555,-81.0036358
706,South Woodrow Street,29205,33.9818278,-81.0056715
608,South Saluda Avenue,29205,33.9821060,-81.0112620
650,South Edisto Avenue,29205,33.9822370,-81.0106397
526,South Saluda Avenue,29205,33.9828129,-81.0114844
530,South Saluda Avenue,29205,33.9826493,-81.0114357
415,South Edisto Avenue,29205,33.9841781,-81.0114818
1823,Superior Street,29205,33.9817536,-81.0119935
1831,Superior Street,29205,33.9819029,-81.0118064
401,South Edisto Avenue,29205,33.9849801,-81.0117480
2000,Rosewood Drive,29205,33.9851710,-81.0111739
2120,Rosewood Drive,29205,33.9857910,-81.0094472
2206,Rosewood Drive,29205,33.9861148,-81.0084266
2210,Rosewood Drive,29205,33.9861793,-81.0082262
423,Howard Street,29205,33.9860798,-81.0057190
1350,Rosewood Drive,29205,33.9827341,-81.0185161
523,Superior Street,29205,33.9811119,-81.0160250
655,Superior Street,29205,33.9805377,-81.0141723
912,South Edisto Avenue,29205,33.9789516,-81.0100250
1791,Mitchell Street,29205,33.9809482,-81.0133995
1914,Wiley Street,29205,33.9803114,-81.0112373
701,South Edisto Avenue,29205,33.9816447,-81.0103794
534,Congaree Avenue,29205,33.9970568,-81.0160544
1717,Enoree Avenue,29205,33.9902456,-81.0186209
15,Myrtle Court,29205,33.9938303,-81.0191789
203,Saluda Avenue,29205,33.9920233,-81.0166355
303,Saluda Avenue,29205,33.9928097,-81.0173925
418,Edisto Avenue,29205,33.9947149,-81.0168330
1917,Seneca Avenue,29205,33.9924084,-81.0153757
232,South Marion Street,29205,33.9845021,-81.0190301
116,South Marion Street,29205,33.9872484,-81.0225401
1501,Rosewood Drive,29205,33.9839952,-81.0166502
100,South Pickens Street,29205,33.9881255,-81.0201565
109,South Saluda Avenue,29205,33.9892483,-81.0150278
2601,Rosewood Drive,29205,33.9870390,-81.0070980
1313,Hamrick Street,29201,33.9790985,-81.0247005
1015,Ferguson Street,29201,33.9812270,-81.0277891
2311,Wilmot Avenue,29205,33.9950350,-81.0134896
2818,Blossom Street,29205,33.9963715,-81.0026216
2701,Heyward Street,29205,33.9911886,-81.0057140
330,South Woodrow Street,29205,33.9875109,-81.0063183
722,Heyward Street,29201,33.9839036,-81.0338679
100,Wayne Street,29201,33.9841947,-81.0350627
702,Whaley Street,29201,33.9850043,-81.0350318
107,Church Street,29201,33.9835023,-81.0378686
110,Tryon Street,29201,33.9831894,-81.0389392
529,Richland Street,29201,34.0077051,-81.0479109
1320,Barnwell Street,29201,34.0066607,-81.0247554
1412,Barnwell Street,29201,34.0075241,-81.0250882
1410,Barnwell Street,29201,34.0074281,-81.0250123
1813,Washington Street,29201,34.0075074,-81.0243726
1119,Greene Street,29201,33.9958414,-81.0315915
2006,Gervais Street,29201,34.0052858,-81.0199907
1819,Devine Street,29205,33.9982732,-81.0204371
171-719,Laurens Street,29205,33.9989881,-81.0192289
1620,Lady Street,29201,34.0045044,-81.0266846
1821,Pickens Street,29201,34.0120402,-81.0313173
1607,Hampton Street,29201,34.0077796,-81.0284256
1214,Henderson Street,29201,34.0045045,-81.0254244
1914-1916,Greene Street,29205,33.9992705,-81.0191333
301,Pickens Street,29205,33.9912219,-81.0220554
1520,Rice Street,29205,33.9917329,-81.0223454
1520,Rice Street,29205,33.9918746,-81.0224077
1520,Rice Street,29205,33.9920156,-81.0224724
1520,Rice Street,29205,33.9921537,-81.0225432
1520,Rice Street,29205,33.9918064,-81.0228944
1520,Rice Street,29205,33.9916381,-81.0228503
1520,Rice Street,29205,33.9914839,-81.0226611
1520,Rice Street,29205,33.9915552,-81.0224944
318,Bull Street,29205,33.9915046,-81.0234424
320,Bull Street,29205,33.9915889,-81.0234856
322,Bull Street,29205,33.9917018,-81.0234674
1520,Rice Street,29205,33.9918145,-81.0226043
1717,Marion Street,29201,34.0096042,-81.0339524
1917,Lady Street,29201,34.0065838,-81.0221676
1907,Lady Street,29201,34.0064523,-81.0224542
4430,Broad River Road,29210,34.0674871,-81.1167295
4416,Broad River Road,29210,34.0670650,-81.1163137
4400,Broad River Road,29210,34.0663750,-81.1157836
1514-1518,Pickens Street,29201,34.0080866,-81.0288046
106,Hillpine Road,29212,34.0813317,-81.1414747
4700,Broad River Road,29210,34.0712095,-81.1182376
4900,Broad River Road,29212,34.0726248,-81.1215218
4900,Broad River Road,29212,34.0766772,-81.1181007
920,Lady Street,29201,34.0012865,-81.0376416
705,Gervais Street,29201,33.9993566,-81.0412269
708,Lady Street,29201,33.9999115,-81.0414027
711,Gervais Street,29201,33.9994870,-81.0407149
724,Lady Street,29201,34.0000256,-81.0409495
720,Lady Street,29201,34.0000909,-81.0411431
1314,Park Street,29201,34.0024745,-81.0370301
1328,Assembly Street,29201,34.0030987,-81.0358566
1324,Assembly Street,29201,34.0030193,-81.0358514
1322,Assembly Street,29201,34.0029266,-81.0357931
1229,Lincoln Street,29201,34.0007066,-81.0392147
1225,Lincoln Street,29201,34.0006231,-81.0391774
1209-1215,Lincoln Street,29201,34.0002081,-81.0389722
911,Lady Street,29201,34.0017431,-81.0387343
1331,Park Street,29201,34.0026724,-81.0382597
928,Washington Street,29201,34.0026028,-81.0383808
721,Lady Street,29201,34.0009078,-81.0414451
729,Lady Street,29201,34.0009625,-81.0411873
1315,Gadsden Street,29201,34.0012175,-81.0414010
714,Washington Street,29201,34.0011711,-81.0417172
714,Washington Street,29201,34.0011378,-81.0419365
1120,Taylor Street,29201,34.0062383,-81.0365164
1310A,Lady Street,29201,34.0030132,-81.0321532
1332-1334,Sumter Street,29201,34.0041403,-81.0326159
1310,Washington Street,29201,34.0043802,-81.0325255
1316,Washington Street,29201,34.0043782,-81.0324098
1208,Washington Street,29201,34.0038354,-81.0341555
2006 ,Taylor Street,29204,34.0105888,-81.0225466
1519,Harden Street,29204,34.0104046,-81.0215751
1517,Harden Street,29204,34.0103462,-81.0213936
1509,Harden Street,29204,34.0102357,-81.0213844
2009,Harden Street,29204,34.0102816,-81.0221068
5,Geology Road,29212,34.0806472,-81.1212363
1623,Marion Street,29220,34.0084718,-81.0334839
1333,Taylor Street,29220,34.0077011,-81.0333996
1519,Marion Street,29220,34.0065663,-81.0325280
5400,Broad River Road,29212,34.0787343,-81.1243580
1847,Devine Street,29205,33.9984362,-81.0196815
1931,Sumter Street,29201,34.0119682,-81.0371466
1319,Calhoun Street,29201,34.0130791,-81.0357852
1323-1325,Blanding Street,29201,34.0092978,-81.0340998
1100,Elmwood Avenue,29201,34.0126646,-81.0399320
1927,Marion Street,29201,34.0125432,-81.0352487
1905,Marion Street,29201,34.0118812,-81.0348439
1835,Assembly Street,29201,34.0087286,-81.0400959
1727,Harden Street,29204,34.0129181,-81.0225687
2000,Laurel Street,29204,34.0130140,-81.0238835
1810,Greene Street,29205,33.9987437,-81.0208195
1802,Sumter Street,29201,34.0101232,-81.0354109
1830,Sumter Street,29201,34.0109944,-81.0357073
1320,Richland Street,29201,34.0111786,-81.0350088
1708,Laurel Street,29201,34.0117659,-81.0284465
1423,Bull Street,29220,34.0063534,-81.0306903
2100,Bull Street,29201,34.0142897,-81.0325010
1418,Elmwood Avenue,29201,34.0142638,-81.0348627
1408,Elmwood Avenue,29201,34.0142199,-81.0349824
1401,Hampton Street,29201,34.0067539,-81.0317697
1610,Greene Street,29201,33.9976690,-81.0242867
1610,Greene Street,29201,33.9974602,-81.0241992
1214,Gregg Street,29201,34.0055137,-81.0223498
1216,Gregg Street,29201,34.0056451,-81.0222978
1218,Gregg Street,29201,34.0057141,-81.0224353
5300,Broad River Road,29210,34.0787453,-81.1101407
1711,Shivers Road,29210,34.0577108,-81.1022339
914,Richland Street,29201,34.0090044,-81.0418020
914,Richland Street,29201,34.0089046,-81.0421265
1748,Shivers Road,29210,34.0583104,-81.0997564
1720,Shivers Road,29210,34.0572283,-81.1014948
1745,Shivers Road,29210,34.0594021,-81.0995943
1830,Shivers Road,29210,34.0581112,-81.0966818
1881,Shivers Road,29210,34.0606294,-81.0893145
1227,Barnwell Street,29201,34.0049207,-81.0250324
1227,Barnwell Street,29201,34.0050437,-81.0250857
1227,Barnwell Street,29201,34.0051034,-81.0248942
1227,Barnwell Street,29201,34.0051622,-81.0251390
1227,Barnwell Street,29201,34.0052242,-81.0249485
1616,Gervais Street,29201,34.0031573,-81.0263241
2119,Sumter Street,29201,34.0143023,-81.0381928
1006-1004,Laurens Street,29205,34.0027338,-81.0197289
1840,Hampton Street,29201,34.0083644,-81.0243138
1501,Gervais Street,29201,34.0030400,-81.0285956
1527,Richland Street,29201,34.0127168,-81.0317844
1510,Calhoun Street,29201,34.0134134,-81.0328157
1928,Taylor Street,29201,34.0101148,-81.0231908
1926,Taylor Street,29201,34.0101740,-81.0233769
1924,Taylor Street,29201,34.0099316,-81.0235260
1901-1903,Hampton Street,29204,34.0090254,-81.0239758
1800,Taylor Street,29201,34.0093650,-81.0258328
1516,Barnwell Street,29201,34.0092986,-81.0256214
500,Wildlife Parkway,29210,34.0087208,-81.0724676
1000,Assembly Street,29201,33.9989735,-81.0337105
1401,Washington Street,29201,34.0054783,-81.0310983
1715,Broad River Road,29210,34.0337500,-81.0894090
1221,Gregg Street,29201,34.0056012,-81.0231697
800,Huger Street,29201,33.9929816,-81.0421420
809,Calhoun Street,29201,34.0103934,-81.0444220
1015,Assembly Street,29201,33.9980694,-81.0350124
410,Superior Street,29205,33.9823719,-81.0181887
333,Etiwan Avenue,29205,33.9865572,-81.0102282
612,Devine Street,29201,33.9909150,-81.0392678
2501,Heyward Street,29205,33.9914665,-81.0096285
2827,Wheat Street,29205,33.9955883,-81.0019801
4444,Broad River Road,29210,34.0689436,-81.1172776
5500,Broad River Road,29212,34.0800841,-81.1278865
1730,Main Street,29201,34.0090636,-81.0366607
1306,Hampton Street,29201,34.0053791,-81.0326163
2100,Bull Street,29201,34.0144599,-81.0330070
1715,Bull Street,29201,34.0097361,-81.0322795
1721,Shivers Road,29210,34.0583076,-81.1020680
1100,Sumter Street,29201,34.0014101,-81.0308404
