House number,Street name,Postal code,Latitude,Longitude
101,East Arctic Avenue,29439,32.6547985,-79.9395889
2,Center Street,29439,32.6552286,-79.9403712
87,Center Street,29439,32.6589875,-79.9430589
83,Center Street,29439,32.6589316,-79.9428938
81,Center Street,29439,32.6588093,-79.9429109
55,Center Street,29439,32.6576097,-79.9423577
106,West Huron Avenue,29439,32.6573278,-79.9426720
50,Center Street,29439,32.6575962,-79.9418769
105,West Huron Avenue,29439,32.6570585,-79.9424840
41,Center Street,29439,32.6569540,-79.9420343
39,Center Street,29439,32.6567618,-79.9417816
31,Center Street,29439,32.6564371,-79.9417181
32B,Center Street,29439,32.6567077,-79.9413364
32A,Center Street,29439,32.6566507,-79.9412219
20,Center Street,29439,32.6561496,-79.9409439
18,Center Street,29439,32.6559163,-79.9408380
106,East Ashley Avenue,29439,32.6559476,-79.9402666
201,West Erie Avenue,29439,32.6556458,-79.9439062
1640,East Ashley Avenue,29439,32.6763065,-79.8995565
1720,East Ashley Avenue,29439,32.6805135,-79.8938225
1627,East Ashley Avenue,29439,32.6751510,-79.8997290
1657,East Ashley Avenue,29439,32.6767475,-79.8977140
902,East Arctic Avenue,29439,32.6628690,-79.9228430
1013,East Arctic Avenue,29439,32.6638755,-79.9191035
1006,East Arctic Avenue,29439,32.6643886,-79.9191402
1115,East Ashley Avenue,29439,32.6654255,-79.9169495
1705,East Ashley Avenue,29439,32.6794420,-79.8940195
1685B,East Ashley Avenue,29439,32.6781655,-79.8953255
1568,East Ashley Avenue,29439,32.6720983,-79.9048492
1301,East Ashley Avenue,29439,32.6666100,-79.9140205
910,East Ashley Avenue,29439,32.6636090,-79.9222650
1591,East Ashley Avenue,29439,32.6730765,-79.9026240
1405,East Ashley Avenue,29439,32.6675970,-79.9112775
902,East Ashley Avenue,29439,32.6633110,-79.9230875
1666,East Ashley Avenue,29439,32.6776660,-79.8976275
1742,East Ashley Avenue,29439,32.6817950,-79.8921510
1645,East Ashley Avenue,29439,32.6760235,-79.8985210
1723,East Ashley Avenue,29439,32.6805608,-79.8927797
1508,East Ashley Avenue,29439,32.6690095,-79.9091595
1516,East Ashley Avenue,29439,32.6694675,-79.9084465
1002,East Arctic Avenue,29439,32.6637815,-79.9205840
1021,East Arctic Avenue,29439,32.6641700,-79.9183965
1656,East Ashley Avenue,29439,32.6771115,-79.8983510
1740,East Ashley Avenue,29439,32.6816480,-79.8922985
1306,East Ashley Avenue,29439,32.6671000,-79.9137505
1695,East Ashley Avenue,29439,32.6788680,-79.8947165
1696,East Ashley Avenue,29439,32.6792505,-79.8954250
915,East Arctic Avenue,29439,32.6629565,-79.9213125
1668,East Ashley Avenue,29439,32.6776795,-79.8973945
1680,East Ashley Avenue,29439,32.6783465,-79.8965720
1707A,East Ashley Avenue,29439,32.6796005,-79.8938875
906,East Arctic Avenue,29439,32.6630155,-79.9223930
1709B,East Ashley Avenue,29439,32.6794774,-79.8935238
913,East Arctic Avenue,29439,32.6628625,-79.9215545
1646,East Ashley Avenue,29439,32.6765985,-79.8991060
1654,East Ashley Avenue,29439,32.6770470,-79.8985525
1015,East Arctic Avenue,29439,32.6639155,-79.9188630
1649,East Ashley Avenue,29439,32.6762745,-79.8982405
1114,East Ashley Avenue,29439,32.6656580,-79.9173610
1728,East Ashley Avenue,29439,32.6809385,-79.8932335
1709A,East Ashley Avenue,29439,32.6796745,-79.8937435
1644,East Ashley Avenue,29439,32.6766055,-79.8993685
1650,East Ashley Avenue,29439,32.6768900,-79.8988735
1698,East Ashley Avenue,29439,32.6794675,-79.8953360
1571,East Ashley Avenue,29439,32.6719315,-79.9043620
1510,East Ashley Avenue,29439,32.6691040,-79.9089595
1685A,East Ashley Avenue,29439,32.6784160,-79.8955890
1714,East Ashley Avenue,29439,32.6801495,-79.8942335
1702,East Ashley Avenue,29439,32.6796085,-79.8949580
1409,East Ashley Avenue,29439,32.6677360,-79.9108775
1604,East Ashley Avenue,29439,32.6742240,-79.9020415
1317,East Ashley Avenue,29439,32.6672080,-79.9122755
1663,East Ashley Avenue,29439,32.6770035,-79.8971930
1716,East Ashley Avenue,29439,32.6802920,-79.8941250
1690,East Ashley Avenue,29439,32.6790125,-79.8959585
1210,East Arctic Avenue,29439,32.6659415,-79.9153150
1015,East Ashley Avenue,29439,32.6645820,-79.9192520
904,East Arctic Avenue,29439,32.6630765,-79.9226375
1736,East Ashley Avenue,29439,32.6814195,-79.8926240
904,East Ashley Avenue,29439,32.6634680,-79.9229630
912,East Ashley Avenue,29439,32.6637650,-79.9220225
1016,East Ashley Avenue,29439,32.6648605,-79.9193970
1305,East Ashley Avenue,29439,32.6667720,-79.9135115
1410,East Ashley Avenue,29439,32.6682955,-79.9112050
1684,East Ashley Avenue,29439,32.6785500,-79.8962735
1014,East Ashley Avenue,29439,32.6647535,-79.9195740
917,East Arctic Avenue,29439,32.6630900,-79.9211170
1704,East Ashley Avenue,29439,32.6796405,-79.8947315
1655,East Ashley Avenue,29439,32.6766845,-79.8979020
1118,East Ashley Avenue,29439,32.6658945,-79.9170245
1009,East Arctic Avenue,29439,32.6636455,-79.9195145
914,East Ashley Avenue,29439,32.6638180,-79.9218430
1319,East Ashley Avenue,29439,32.6672960,-79.9120520
1643,East Ashley Avenue,29439,32.6759240,-79.8986605
1710,East Ashley Avenue,29439,32.6799280,-79.8945330
1625,East Ashley Avenue,29439,32.6750870,-79.8999100
1687,East Ashley Avenue,29439,32.6784460,-79.8953650
1669,East Ashley Avenue,29439,32.6773450,-79.8967865
1683A,East Ashley Avenue,29439,32.6783095,-79.8957400
1686,East Ashley Avenue,29439,32.6786730,-79.8961230
1412,East Ashley Avenue,29439,32.6683410,-79.9109385
1563,East Ashley Avenue,29439,32.6715030,-79.9049040
1011,East Arctic Avenue,29439,32.6637895,-79.9192985
1664,East Ashley Avenue,29439,32.6774535,-79.8976505
1402,East Ashley Avenue,29439,32.6678785,-79.9118150
1220,East Ashley Avenue,29439,32.6667545,-79.9145015
1718,East Ashley Avenue,29439,32.6804425,-79.8940130
1518,East Ashley Avenue,29439,32.6696750,-79.9082650
1693,East Ashley Avenue,29439,32.6788045,-79.8949125
1575,East Ashley Avenue,29439,32.6721895,-79.9040245
1732,East Ashley Avenue,29439,32.6811525,-79.8928975
1707B,East Ashley Avenue,29439,32.6793725,-79.8936745
1580,East Ashley Avenue,29439,32.6730250,-79.9040285
1578,East Ashley Avenue,29439,32.6728345,-79.9040765
1678,East Ashley Avenue,29439,32.6782780,-79.8967270
1706,East Ashley Avenue,29439,32.6797670,-79.8945840
1307,East Ashley Avenue,29439,32.6667590,-79.9133115
1703,East Ashley Avenue,29439,32.6793645,-79.8941915
1691,East Ashley Avenue,29439,32.6786745,-79.8950855
1520,East Ashley Avenue,29439,32.6697755,-79.9080980
1711,East Ashley Avenue,29439,32.6797905,-79.8935920
1641,East Ashley Avenue,29439,32.6758155,-79.8988130
1642,East Ashley Avenue,29439,32.6763365,-79.8993480
1689,East Ashley Avenue,29439,32.6786435,-79.8953060
1589,East Ashley Avenue,29439,32.6730145,-79.9028085
1606,East Ashley Avenue,29439,32.6743575,-79.9018110
908,East Ashley Avenue,29439,32.6635620,-79.9225140
1721,East Ashley Avenue,29439,32.6803445,-79.8928745
1651,East Ashley Avenue,29439,32.6763725,-79.8980815
1661,East Ashley Avenue,29439,32.6770680,-79.8975200
1660,East Ashley Avenue,29439,32.6772310,-79.8979440
1309,East Ashley Avenue,29439,32.6668915,-79.9131310
1022,East Ashley Avenue,29439,32.6651160,-79.9190520
906,East Ashley Avenue,29439,32.6635065,-79.9226890
1581,East Ashley Avenue,29439,32.6724805,-79.9034625
919,East Arctic Avenue,29439,32.6632435,-79.9209710
1607,East Ashley Avenue,29439,32.6741320,-79.9012170
1676,East Ashley Avenue,29439,32.6783380,-79.8970695
1605,East Ashley Avenue,29439,32.6740280,-79.9014590
1112,East Ashley Avenue,29439,32.6656970,-79.9176725
1719,East Ashley Avenue,29439,32.6802555,-79.8930295
1628,East Ashley Avenue,29439,32.6756520,-79.9002400
1667,East Ashley Avenue,29439,32.6772475,-79.8969445
1407,East Ashley Avenue,29439,32.6676825,-79.9110985
1012,East Ashley Avenue,29439,32.6647260,-79.9198410
1019,East Arctic Avenue,29439,32.6640740,-79.9184895
920,East Ashley Avenue,29439,32.6642025,-79.9213035
1564,East Ashley Avenue,29439,32.6718785,-79.9052100
1717,East Ashley Avenue,29439,32.6801485,-79.8931565
1316,East Ashley Avenue,29439,32.6674540,-79.9126775
1621,East Ashley Avenue,29439,32.6748535,-79.9001700
1218,East Ashley Avenue,29439,32.6666410,-79.9147075
1210,East Ashley Avenue,29439,32.6664165,-79.9156055
909,East Arctic Avenue,29439,32.6627000,-79.9219515
1647,East Ashley Avenue,29439,32.6761685,-79.8983875
1638,East Ashley Avenue,29439,32.6761535,-79.8994500
1662,East Ashley Avenue,29439,32.6774275,-79.8978965
1682,East Ashley Avenue,29439,32.6784710,-79.8964255
1565,East Ashley Avenue,29439,32.6715365,-79.9047890
1002,East Ashley Avenue,29439,32.6642665,-79.9208605
1308,East Ashley Avenue,29439,32.6671905,-79.9135140
1697,East Ashley Avenue,29439,32.6789310,-79.8945565
912,East Arctic Avenue,29439,32.6633305,-79.9217845
1512,East Ashley Avenue,29439,32.6691930,-79.9087530
1673,East Ashley Avenue,29439,32.6775905,-79.8965435
1619,East Ashley Avenue,29439,32.6747885,-79.9003750
1679A,East Ashley Avenue,29439,32.6780215,-79.8960870
1216,East Ashley Avenue,29439,32.6666230,-79.9149340
110,E Cooper Ave,29439,32.6564875,-79.9403400
1701,East Ashley Avenue,29439,32.6792625,-79.8943280
1658,East Ashley Avenue,29439,32.6772035,-79.8981735
1403,East Ashley Avenue,29439,32.6674670,-79.9114995
911,East Arctic Avenue,29439,32.6627900,-79.9217735
1712,East Ashley Avenue,29439,32.6801260,-79.8944680
1731,East Ashley Avenue,29439,32.6809895,-79.8921315
1622,East Ashley Avenue,29439,32.6754025,-79.9007580
1652,East Ashley Avenue,29439,32.6769990,-79.8987505
1679B,East Ashley Avenue,29439,32.6778290,-79.8957935
1569,East Ashley Avenue,29439,32.6717780,-79.9045620
1574,East Ashley Avenue,29439,32.6724860,-79.9043270
1212,East Ashley Avenue,29439,32.6666200,-79.9154115
1550,East Ashley Avenue,29439,32.6719260,-79.9072010
1597,East Ashley Avenue,29439,32.6735035,-79.9021565
1730,East Ashley Avenue,29439,32.6810445,-79.8930940
1311,East Ashley Avenue,29439,32.6669810,-79.9128685
1734,East Ashley Avenue,29439,32.6812920,-79.8928535
1700,East Ashley Avenue,29439,32.6795220,-79.8951230
1617,East Ashley Avenue,29439,32.6746830,-79.9005170
1623,East Ashley Avenue,29439,32.6749920,-79.9000620
1681A,East Ashley Avenue,29439,32.6782070,-79.8959010
1615,East Ashley Avenue,29439,32.6745690,-79.9006590
1566,East Ashley Avenue,29439,32.6719900,-79.9050400
1677A,East Ashley Avenue,29439,32.6778995,-79.8962900
1406,East Ashley Avenue,29439,32.6681800,-79.9114280
1524,East Ashley Avenue,29439,32.6699350,-79.9077850
1699,East Ashley Avenue,29439,32.6792105,-79.8946045
1595,East Ashley Avenue,29439,32.6733980,-79.9023865
1003,East Arctic Avenue,29439,32.6634375,-79.9201515
1313,East Ashley Avenue,29439,32.6670495,-79.9126695
901,East Arctic Avenue,29439,32.6624220,-79.9225490
1683B,East Ashley Avenue,29439,32.6780490,-79.8954700
1653A,East Ashley Avenue,29439,32.6765320,-79.8980425
916,East Arctic Avenue,29439,32.6634215,-79.9213250
1573,East Ashley Avenue,29439,32.6720605,-79.9041730
1674,East Ashley Avenue,29439,32.6781490,-79.8971395
1724,East Ashley Avenue,29439,32.6806950,-79.8934890
1653B,East Ashley Avenue,29439,32.6763255,-79.8978060
1401,East Ashley Avenue,29439,32.6673520,-79.9116840
1504,East Ashley Avenue,29439,32.6687960,-79.9095460
1727,East Ashley Avenue,29439,32.6806870,-79.8926425
1116,East Ashley Avenue,29439,32.6657345,-79.9171715
1404,East Ashley Avenue,29439,32.6680125,-79.9115605
1570,East Ashley Avenue,29439,32.6722330,-79.9046715
1675,East Ashley Avenue,29439,32.6776585,-79.8963675
1577,East Ashley Avenue,29439,32.6722910,-79.9038475
1692,East Ashley Avenue,29439,32.6790505,-79.8957135
1010,East Ashley Avenue,29439,32.6646985,-79.9201055
1624,East Ashley Avenue,29439,32.6754965,-79.9006045
1665,East Ashley Avenue,29439,32.6771010,-79.8970270
1648,East Ashley Avenue,29439,32.6768145,-79.8990765
1007,East Arctic Avenue,29439,32.6635405,-79.9197050
1582,East Ashley Avenue,29439,32.6730160,-79.9036385
1572,East Ashley Avenue,29439,32.6724050,-79.9045055
1414,East Ashley Avenue,29439,32.6683930,-79.9107315
1303,East Ashley Avenue,29439,32.6666615,-79.9137600
1017,East Arctic Avenue,29439,32.6639720,-79.9186330
1715,East Ashley Avenue,29439,32.6800555,-79.8933730
1583,East Ashley Avenue,29439,32.6726220,-79.9033110
1001,East Arctic Avenue,29439,32.6633455,-79.9203755
1639,East Ashley Avenue,29439,32.6756705,-79.8989910
1587,East Ashley Avenue,29439,32.6728835,-79.9030275
1593,East Ashley Avenue,29439,32.6732620,-79.9025075
1670,East Ashley Avenue,29439,32.6778770,-79.8973225
1310,East Ashley Avenue,29439,32.6673165,-79.9133745
1613,East Ashley Avenue,29439,32.6744580,-79.9008090
903,East Arctic Avenue,29439,32.6624865,-79.9223460
1630,East Ashley Avenue,29439,32.6757540,-79.9000895
1104,East Ashley Avenue,29439,32.6653455,-79.9185065
1722,East Ashley Avenue,29439,32.6805870,-79.8936560
1603,East Ashley Avenue,29439,32.6738540,-79.9016145
915,East Ashley Avenue,29439,32.6636275,-79.9214520
1694,East Ashley Avenue,29439,32.6792220,-79.8956195
1006,East Ashley Avenue,29439,32.6645125,-79.9205040
907,East Arctic Avenue,29439,32.6625845,-79.9221325
1005,East Arctic Avenue,29439,32.6636295,-79.9200160
1634,East Ashley Avenue,29439,32.6758960,-79.8997175
107,East Indian Avenue,29439,32.6580030,-79.9412955
1214,East Ashley Avenue,29439,32.6665920,-79.9151760
1620,East Ashley Avenue,29439,32.6752265,-79.9008210
1008,East Ashley Avenue,29439,32.6645350,-79.9202585
1315,East Ashley Avenue,29439,32.6671590,-79.9124840
1514,East Ashley Avenue,29439,32.6693435,-79.9085825
908,East Arctic Avenue,29439,32.6631895,-79.9222315
1681B,East Ashley Avenue,29439,32.6779380,-79.8955955
705,East Arctic Avenue,29439,32.6607775,-79.9265650
1576,East Ashley Avenue,29439,32.6726285,-79.9041630
1420,East Ashley Avenue,29439,32.6685765,-79.9100785
921,East Arctic Avenue,29439,32.6632950,-79.9207350
1737,East Ashley Avenue,29439,32.6812600,-79.8917055
1204,East Ashley Avenue,29439,32.6662285,-79.9162720
1,Center Street,29439,32.6544720,-79.9405325
86,Sandbar Lane,29439,32.6583629,-79.9471985
1677B,East Ashley Avenue,29439,32.6776229,-79.8960242
1632,East Ashley Avenue,29439,32.6758947,-79.8999867
1636,East Ashley Avenue,29439,32.6762218,-79.8997966
1746,East Ashley Avenue,29439,32.6819949,-79.8916373
1744,East Ashley Avenue,29439,32.6818827,-79.8919754
1738,East Ashley Avenue,29439,32.6814555,-79.8923802
1726,East Ashley Avenue,29439,32.6807638,-79.8933178
1733,East Ashley Avenue,29439,32.6811270,-79.8919136
1302,East Ashley Avenue,29439,32.6669038,-79.9141590
1502,East Ashley Avenue,29439,32.6687052,-79.9097366
1506,East Ashley Avenue,29439,32.6689284,-79.9093579
1004,East Ashley Avenue,29439,32.6643777,-79.9206989
1304,East Ashley Avenue,29439,32.6670694,-79.9139855
1106,East Ashley Avenue,29439,32.6653102,-79.9181705
1102,East Ashley Avenue,29439,32.6652097,-79.9187575
