House number,Street name,Postal code,Latitude,Longitude
2303,Mason Road,29349,35.0307621,-82.0810403
816,Mason Road,29349,35.0311058,-82.0806209
12,West Clark Road,29349,35.0386618,-82.0861930
72,Church Avenue,29349,35.0411176,-82.0933564
8,South Main Street,29349,35.0475096,-82.0903711
5,Culp Street,29349,35.0432974,-82.0878371
27,Gosnell Avenue,29349,35.0444500,-82.0862274
12,West Clark Road,29349,35.0379304,-82.0865512
526,Mason Road,29349,35.0324695,-82.0800838
5,Culp Street,29349,35.0430449,-82.0882122
20,Mill Street,29349,35.0473476,-82.0916389
1004,Mason Road,29349,35.0309039,-82.0803744
5,Culp Street,29349,35.0429823,-82.0877774
13,Mill Street,29349,35.0473877,-82.0909416
5,Culp Street,29349,35.0429960,-82.0877292
522,Franklin Asberry Lane,29349,35.0338678,-82.0875396
11530,Asheville Highway,29349,35.0402293,-82.0836045
1002,Mason Road,29349,35.0309296,-82.0803478
2,South Humphrey Street,29349,35.0462313,-82.0918940
11811,Asheville Highway,29349,35.0403814,-82.0869427
12,West Clark Road,29349,35.0379080,-82.0868660
520,Mason Road,29349,35.0327015,-82.0802026
20,South Howard Street,29349,35.0472597,-82.0887528
1022,Mason Road,29349,35.0307431,-82.0800849
5,Culp Street,29349,35.0428979,-82.0883287
59,Mill Street,29349,35.0455286,-82.0935518
802,Mason Road,29349,35.0312492,-82.0807550
43,Mill Street,29349,35.0463349,-82.0925139
12,West Clark Road,29349,35.0379625,-82.0866973
10,Mill Street,29349,35.0476997,-82.0912227
2,South Main Street,29349,35.0477765,-82.0904771
5,Culp Street,29349,35.0434753,-82.0880671
23,Mill Street,29349,35.0470448,-82.0914332
2307,Mason Road,29349,35.0308687,-82.0811058
814,Mason Road,29349,35.0311316,-82.0805923
21,South Howard Street,29349,35.0474744,-82.0877915
12,West Clark Road,29349,35.0378863,-82.0864289
16,South Main Street,29349,35.0471758,-82.0901643
348,Arp Way,29349,35.0317589,-82.0836867
5,Culp Street,29349,35.0424410,-82.0883551
8,Amos Street,29349,35.0456794,-82.0902896
329,Arp Way,29349,35.0320273,-82.0828918
51,South Howard Street,29349,35.0451872,-82.0841208
812,Mason Road,29349,35.0311770,-82.0806549
28,Bloomwood Heights,29349,35.0417356,-82.0846909
11287,Asheville Highway,29349,35.0382189,-82.0801544
1010,Mason Road,29349,35.0308419,-82.0802619
822,Mason Road,29349,35.0310283,-82.0805372
12,West Clark Road,29349,35.0380066,-82.0868196
5,Culp Street,29349,35.0430835,-82.0881786
12,West Clark Road,29349,35.0387789,-82.0865072
2301,Mason Road,29349,35.0308170,-82.0809873
824,Mason Road,29349,35.0310541,-82.0805024
610,Nature Walk Way,29349,35.0301887,-82.0801373
12111,Asheville Highway,29349,35.0426273,-82.0922045
12,West Clark Road,29349,35.0378698,-82.0867414
518,Mason Road,29349,35.0327659,-82.0801886
5,Culp Street,29349,35.0426542,-82.0883975
22,Mill Street,29349,35.0473134,-82.0916745
1107,Mason Road,29349,35.0310890,-82.0800087
5,Culp Street,29349,35.0424913,-82.0883702
808,Mason Road,29349,35.0311203,-82.0807224
7,Bishop Street,29349,35.0476187,-82.0921741
15,Mill Street,29349,35.0473482,-82.0910089
12,West Clark Road,29349,35.0378318,-82.0865977
5,Culp Street,29349,35.0433247,-82.0877460
603,Ezra Court,29349,35.0344233,-82.0876899
7,Mill Street,29349,35.0475160,-82.0908418
2305,Mason Road,29349,35.0308277,-82.0811301
11765,Asheville Highway,29349,35.0402450,-82.0866670
12,West Clark Road,29349,35.0380407,-82.0869561
426,Gemstone Lane,29349,35.0328261,-82.0812865
8,Amos Street,29349,35.0456117,-82.0902624
1905,Mason Road,29349,35.0303984,-82.0804176
5,Culp Street,29349,35.0432823,-82.0878817
10,South Main Street,29349,35.0475514,-82.0902953
8,Mill Street,29349,35.0477677,-82.0910963
12,West Clark Road,29349,35.0387949,-82.0862448
72,South Main Street,29349,35.0431859,-82.0895281
109,Fleetwood Street,29349,35.0404902,-82.0826060
5,Culp Street,29349,35.0430263,-82.0876310
32,Church Avenue,29349,35.0399152,-82.0931956
5,Culp Street,29349,35.0434910,-82.0879669
102,Boardwalk Drive,29349,35.0416959,-82.0858916
5,Culp Street,29349,35.0426897,-82.0884088
673,Nature Walk Way,29349,35.0308574,-82.0822183
240,West Clark Road,29349,35.0348600,-82.0867569
12,West Clark Road,29349,35.0380655,-82.0865935
672,Nature Walk Way,29349,35.0311295,-82.0820766
5,Culp Street,29349,35.0430111,-82.0876846
31,Ladson Street,29349,35.0438682,-82.0923405
35,Mill Street,29349,35.0468748,-82.0918356
20,East Main Street,29349,35.0464161,-82.0890943
1907,Mason Road,29349,35.0304566,-82.0803769
5,Henderson Street,29349,35.0436341,-82.0917363
25,Mill Street,29349,35.0469993,-82.0914937
21,Mill Street,29349,35.0471322,-82.0913574
1103,Mason Road,29349,35.0312015,-82.0799708
9,Culp Street,29349,35.0422862,-82.0876291
12,West Clark Road,29349,35.0389831,-82.0867318
5,Culp Street,29349,35.0430152,-82.0882405
18,Mill Street,29349,35.0473737,-82.0915941
1024,Mason Road,29349,35.0307757,-82.0800543
5,Culp Street,29349,35.0429320,-82.0883040
33,Mill Street,29349,35.0468190,-82.0917496
2107,Mason Road,29349,35.0306577,-82.0807248
27,Mill Street,29349,35.0469521,-82.0915848
12,West Clark Road,29349,35.0381570,-82.0869026
5,Culp Street,29349,35.0428681,-82.0883642
1018,Mason Road,29349,35.0307675,-82.0802196
12,West Clark Road,29349,35.0377936,-82.0864731
5,Culp Street,29349,35.0433126,-82.0877835
18,South Howard Street,29349,35.0469390,-82.0888781
806,Mason Road,29349,35.0311993,-82.0808288
5,Culp Street,29349,35.0433624,-82.0876496
65,Mill Street,29349,35.0452192,-82.0941042
27,Culp Street,29349,35.0432147,-82.0865405
68,South Main Street,29349,35.0432974,-82.0894600
1160,Park Road,29349,35.0330914,-82.0912555
12,West Clark Road,29349,35.0385922,-82.0867554
2,Bishop Street,29349,35.0476570,-82.0914226
14,South Main Street,29349,35.0472494,-82.0902158
5,Culp Street,29349,35.0434594,-82.0882086
558,Franklin Asberry Lane,29349,35.0345776,-82.0877120
3,Mill Street,29349,35.0476261,-82.0907361
818,Mason Road,29349,35.0310800,-82.0806619
1012,Mason Road,29349,35.0308309,-82.0801605
23,South Howard Street,29349,35.0473389,-82.0875757
12,West Clark Road,29349,35.0389119,-82.0865590
420,Gemstone Lane,29349,35.0327423,-82.0809241
12,West Clark Road,29349,35.0388776,-82.0864416
10,Amos Street,29349,35.0455040,-82.0902221
1008,Mason Road,29349,35.0308145,-82.0802905
4,Blackstock Road,29349,35.0468275,-82.0912131
11285,Asheville Highway,29349,35.0381823,-82.0800365
12,Gosnell Avenue,29349,35.0449477,-82.0888672
12,West Clark Road,29349,35.0379863,-82.0871248
78,Church Avenue,29349,35.0413301,-82.0936021
5,Culp Street,29349,35.0429671,-82.0878346
108,Boardwalk Drive,29349,35.0416344,-82.0857419
322,Thacker Court,29349,35.0330946,-82.0839060
1012,Mason Road,29349,35.0308728,-82.0802334
18,Ladson Street,29349,35.0457516,-82.0919389
23,South Main Street,29349,35.0462944,-82.0891025
12,West Clark Road,29349,35.0386265,-82.0868728
5,Culp Street,29349,35.0435106,-82.0879115
418,Gemstone Lane,29349,35.0323473,-82.0807776
804,Mason Road,29349,35.0312251,-82.0807919
3,Blackstock Road,29349,35.0469383,-82.0908820
2103,Mason Road,29349,35.0305509,-82.0806821
23,Buice Street,29349,35.0433061,-82.0867536
12121,Asheville Highway,29349,35.0428413,-82.0922793
12,West Clark Road,29349,35.0384935,-82.0868210
424,Gemstone Lane,29349,35.0327957,-82.0811826
5,Culp Street,29349,35.0434642,-82.0881620
16,Mill Street,29349,35.0474132,-82.0915416
5,Culp Street,29349,35.0423996,-82.0883474
15,Gosnell Avenue,29349,35.0452047,-82.0884018
8,Blackwell Street,29349,35.0454564,-82.0922692
17,Mill Street,29349,35.0473087,-82.0910764
12,West Clark Road,29349,35.0388844,-82.0867974
571,Franklin Asberry Lane,29349,35.0348587,-82.0882001
5,Culp Street,29349,35.0431133,-82.0881467
2,Blackstock Road,29349,35.0469295,-82.0913011
1020,Mason Road,29349,35.0307106,-82.0801114
11767,Asheville Highway,29349,35.0402674,-82.0867870
12,West Clark Road,29349,35.0381199,-82.0864248
524,Mason Road,29349,35.0325323,-82.0800529
810,Mason Road,29349,35.0311495,-82.0806876
5,Culp Street,29349,35.0430610,-82.0875399
4,North Humphrey Street,29349,35.0473938,-82.0924018
19,Culp Street,29349,35.0425895,-82.0868155
12249,Asheville Highway,29349,35.0433481,-82.0932923
12,West Clark Road,29349,35.0388194,-82.0865936
14,Mill Street,29349,35.0475655,-82.0913453
14,Buice Street,29349,35.0430066,-82.0871603
5,Culp Street,29349,35.0425773,-82.0883821
28,Church Avenue,29349,35.0397649,-82.0931368
10,Church Avenue,29349,35.0392663,-82.0929251
5,Culp Street,29349,35.0426158,-82.0883862
18,Culp Street,29349,35.0421370,-82.0867291
3,Bishop Street,29349,35.0475867,-82.0918336
2105,Mason Road,29349,35.0306114,-82.0807655
12,West Clark Road,29349,35.0382115,-82.0867339
12,South Main Street,29349,35.0473293,-82.0903197
5,Culp Street,29349,35.0432686,-82.0879300
5,Blackwell Street,29349,35.0460447,-82.0922003
2101,Mason Road,29349,35.0305989,-82.0806372
28,Blackstock Road,29349,35.0442699,-82.0910599
11295,Asheville Highway,29349,35.0383071,-82.0805013
19,Mill Street,29349,35.0472543,-82.0911512
12,West Clark Road,29349,35.0387023,-82.0862794
1,Bishop Street,29349,35.0475061,-82.0916690
5,Culp Street,29349,35.0434861,-82.0880170
5,Culp Street,29349,35.0429647,-82.0882775
4,South Humphrey Street,29349,35.0459764,-82.0916110
820,Mason Road,29349,35.0309974,-82.0805782
11761,Asheville Highway,29349,35.0402405,-82.0864712
17,Bloomwood Heights,29349,35.0421947,-82.0839638
39,Mill Street,29349,35.0466557,-82.0919514
12,West Clark Road,29349,35.0382556,-82.0868562
5,Culp Street,29349,35.0433473,-82.0876925
12,West Clark Road,29349,35.0380273,-82.0864689
1101,Mason Road,29349,35.0311310,-82.0800671
29,Mill Street,29349,35.0468817,-82.0916679
11,Cross Street,29349,35.0420712,-82.0861282
12,West Clark Road,29349,35.0380848,-82.0870784
422,Gemstone Lane,29349,35.0327031,-82.0810335
5,Culp Street,29349,35.0430385,-82.0875935
1016,Mason Road,29349,35.0308000,-82.0801890
5,Culp Street,29349,35.0432533,-82.0879871
8,Cross Street,29349,35.0429271,-82.0851077
1903,Mason Road,29349,35.0303483,-82.0803197
38,Buice Street,29349,35.0423442,-82.0855223
14,South Main Street,29349,35.0473070,-82.0902612
12,West Clark Road,29349,35.0390174,-82.0868492
20,Culp Street,29349,35.0422427,-82.0866732
5,Culp Street,29349,35.0425328,-82.0883743
570,Franklin Asberry Lane,29349,35.0348133,-82.0878593
5,Mill Street,29349,35.0475884,-82.0908042
668,Nature Walk Way,29349,35.0312650,-82.0817269
1006,Mason Road,29349,35.0308747,-82.0804050
311,Arp Way,29349,35.0325629,-82.0821410
7,Bomar Street,29349,35.0474715,-82.0874124
12,West Clark Road,29349,35.0381188,-82.0867780
416,Gemstone Lane,29349,35.0323131,-82.0807116
59,Mill Street,29349,35.0455552,-82.0934916
12,West Clark Road,29349,35.0385339,-82.0869075
10,Amos Street,29349,35.0454415,-82.0901875
1901,Mason Road,29349,35.0304015,-82.0802605
5,Culp Street,29349,35.0434705,-82.0881119
11,Mill Street,29349,35.0474786,-82.0908841
21,South Main Street,29349,35.0466785,-82.0892937
12,West Clark Road,29349,35.0389248,-82.0868838
11741,Asheville Highway,29349,35.0400551,-82.0863736
12,West Clark Road,29349,35.0381640,-82.0865471
18,Church Avenue,29349,35.0395703,-82.0930523
5,Culp Street,29349,35.0435183,-82.0878740
26,Ladson Street,29349,35.0451924,-82.0924427
6,South Main Street,29349,35.0476427,-82.0904641
30,East Main Street,29349,35.0457062,-82.0875149
12,West Clark Road,29349,35.0379481,-82.0870002
5,Culp Street,29349,35.0430762,-82.0874971
6,North Humphrey Street,29349,35.0474850,-82.0926786
354,Copper Creek Circle,29349,35.0547305,-82.1083180
378,Copper Creek Circle,29349,35.0553732,-82.1094950
102,Laurel Drive,29349,35.0566007,-82.1015357
231,Woodland Avenue,29349,35.0557166,-82.1084861
259,North Main Street,29349,35.0523085,-82.1004852
184,Woodland Avenue,29349,35.0550581,-82.1073119
259,North Main Street,29349,35.0520202,-82.1005017
350,Copper Creek Circle,29349,35.0545503,-82.1082105
716,Adaline Drive,29349,35.0522845,-82.1041038
163,Woodland Avenue,29349,35.0544737,-82.1074141
259,North Main Street,29349,35.0519837,-82.1011886
326,Copper Creek Circle,29349,35.0534180,-82.1079647
193,Woodland Avenue,29349,35.0550701,-82.1077442
259,North Main Street,29349,35.0521832,-82.1015080
386,Copper Creek Circle,29349,35.0549297,-82.1096864
338,Copper Creek Circle,29349,35.0539651,-82.1079745
259,North Main Street,29349,35.0521203,-82.1014027
339,Copper Creek Circle,29349,35.0538739,-82.1083841
259,North Main Street,29349,35.0524304,-82.1004935
259,North Main Street,29349,35.0519291,-82.1010868
409,Copper Creek Circle,29349,35.0536894,-82.1099356
434,Copper Creek Circle,29349,35.0530171,-82.1099293
259,North Main Street,29349,35.0522115,-82.1004839
393,Copper Creek Circle,29349,35.0544644,-82.1094204
259,North Main Street,29349,35.0521503,-82.1014604
916,Lyday Lane,29349,35.0515247,-82.1031337
394,Copper Creek Circle,29349,35.0545649,-82.1098990
811,White Magnolia Drive,29349,35.0523150,-82.1029443
173,Woodland Avenue,29349,35.0546957,-82.1075057
116,Maple Drive,29349,35.0568221,-82.0991933
259,North Main Street,29349,35.0519537,-82.1011276
346,Copper Creek Circle,29349,35.0543621,-82.1081102
260,North Main Street,29349,35.0531367,-82.0998720
389,Copper Creek Circle,29349,35.0546703,-82.1093457
709,Adaline Drive,29349,35.0517316,-82.1036782
355,Copper Creek Circle,29349,35.0546691,-82.1087762
259,North Main Street,29349,35.0522104,-82.1015622
330,Copper Creek Circle,29349,35.0535798,-82.1078825
259,North Main Street,29349,35.0519426,-82.1004973
259,North Main Street,29349,35.0522949,-82.1017183
720,Adaline Drive,29349,35.0522727,-82.1043381
358,Copper Creek Circle,29349,35.0548773,-82.1085045
1331,Compton Bridge Road,29349,35.0599162,-82.1008152
199,Woodland Avenue,29349,35.0552339,-82.1079005
259,North Main Street,29349,35.0522614,-82.1004846
164,Woodland Avenue,29349,35.0545382,-82.1070267
382,Copper Creek Circle,29349,35.0551535,-82.1096053
259,North Main Street,29349,35.0517626,-82.1004916
174,Woodland Avenue,29349,35.0547978,-82.1071503
102,Mcintosh Lane,29349,35.0570112,-82.1075400
259,North Main Street,29349,35.0522404,-82.1016199
909,Lyday Lane,29349,35.0514864,-82.1023539
426,Copper Creek Circle,29349,35.0531647,-82.1103573
104,Laurel Drive,29349,35.0568264,-82.1017290
221,Woodland Avenue,29349,35.0555762,-82.1082928
259,North Main Street,29349,35.0519019,-82.1010393
107,Maple Drive,29349,35.0557490,-82.0989478
410,Copper Creek Circle,29349,35.0538041,-82.1103310
259,North Main Street,29349,35.0525134,-82.1004980
259,North Main Street,29349,35.0524691,-82.1004940
370,Copper Creek Circle,29349,35.0552003,-82.1090992
211,Copper Meadow Lane,29349,35.0529804,-82.1095022
917,Lyday Lane,29349,35.0512268,-82.1025536
310,Cortland Drive,29349,35.0582138,-82.1045195
259,North Main Street,29349,35.0520849,-82.1013416
915,Lyday Lane,29349,35.0513810,-82.1024830
910,Lyday Lane,29349,35.0516461,-82.1029639
315,Copper Creek Circle,29349,35.0534060,-82.1086393
153,Woodland Avenue,29349,35.0542707,-82.1073413
259,North Main Street,29349,35.0518746,-82.1009817
422,Copper Creek Circle,29349,35.0532717,-82.1105592
204,Copper Meadow Lane,29349,35.0526056,-82.1088690
259,North Main Street,29349,35.0520645,-82.1005056
402,Copper Creek Circle,29349,35.0541914,-82.1101175
259,North Main Street,29349,35.0523528,-82.1004891
212,Copper Meadow Lane,29349,35.0529595,-82.1089485
297,North Main Street,29349,35.0513652,-82.1038496
133,Woodland Avenue,29349,35.0538225,-82.1071907
119,Mcintosh Lane,29349,35.0573646,-82.1056471
366,Copper Creek Circle,29349,35.0551207,-82.1088752
259,North Main Street,29349,35.0518124,-82.1004923
405,Copper Creek Circle,29349,35.0538590,-82.1098100
259,North Main Street,29349,35.0518336,-82.1009171
198,Woodland Avenue,29349,35.0555975,-82.1076885
213,North Main Street,29349,35.0534685,-82.0997234
203,Copper Meadow Lane,29349,35.0525781,-82.1095391
183,Woodland Avenue,29349,35.0549175,-82.1076161
259,North Main Street,29349,35.0522676,-82.1016708
334,Copper Creek Circle,29349,35.0537669,-82.1078941
215,Woodland Avenue,29349,35.0554203,-82.1081038
259,North Main Street,29349,35.0518595,-82.1004929
430,Copper Creek Circle,29349,35.0531116,-82.1101492
418,Copper Creek Circle,29349,35.0534553,-82.1106111
259,North Main Street,29349,35.0519814,-82.1005012
322,Copper Creek Circle,29349,35.0532529,-82.1081014
259,North Main Street,29349,35.0519038,-82.1004968
343,Copper Creek Circle,29349,35.0541667,-82.1084763
349,Copper Creek Circle,29349,35.0543598,-82.1085619
194,Woodland Avenue,29349,35.0553297,-82.1074860
259,North Main Street,29349,35.0523916,-82.1004896
414,Copper Creek Circle,29349,35.0536047,-82.1104354
390,Copper Creek Circle,29349,35.0547498,-82.1097724
14,Bobo Street,29349,35.0487172,-82.0868091
15,Canady Street,29349,35.0500575,-82.0960689
13,North Main Street,29349,35.0481486,-82.0907794
7,Rhinehart Street,29349,35.0526109,-82.0895193
6,Church Street,29349,35.0511076,-82.0895909
23,Bobo Street,29349,35.0496376,-82.0867922
6,Church Street,29349,35.0508628,-82.0898587
4,Vanpatton Street,29349,35.0557426,-82.0907881
23,Bomar Street,29349,35.0482356,-82.0865060
9,North Main Street,29349,35.0480449,-82.0908290
12,Bobo Street,29349,35.0485984,-82.0870679
53,North Main Street,29349,35.0504306,-82.0919933
29,North Main Street,29349,35.0484541,-82.0910349
4,North Howard Street,29349,35.0493859,-82.0903791
31,Bobo Street,29349,35.0505126,-82.0866289
6,Church Street,29349,35.0511693,-82.0894988
39,North Main Street,29349,35.0488179,-82.0911193
2,Harris Street,29349,35.0524983,-82.0883485
6,Church Street,29349,35.0510745,-82.0899917
4,Carter Street,29349,35.0520135,-82.0869625
14,Bobo Street,29349,35.0488159,-82.0869993
1,South Howard Street,29349,35.0488475,-82.0897218
25,North Main Street,29349,35.0482688,-82.0909536
12,Bobo Street,29349,35.0486972,-82.0872462
8,Bishop Street,29349,35.0479230,-82.0916038
15,South Howard Street,29349,35.0480648,-82.0886062
17,Littlefield Street,29349,35.0504520,-82.0934042
6,Church Street,29349,35.0509070,-82.0898044
204,Park Street,29349,35.0572231,-82.0919917
12,North Howard Street,29349,35.0508913,-82.0907490
13,Bomar Street,29349,35.0480192,-82.0869234
1,North Main Street,29349,35.0479119,-82.0906508
16,Bobo Street,29349,35.0491474,-82.0867553
4,Bishop Street,29349,35.0477988,-82.0914861
8,North Howard Street,29349,35.0501888,-82.0903871
6,Church Street,29349,35.0512669,-82.0897679
47,Prospect Street,29349,35.0529650,-82.0877388
6,Church Street,29349,35.0510304,-82.0900461
15,Bridges Street,29349,35.0539338,-82.0906009
211,Johnson Hills Drive,29349,35.0514918,-82.0822569
44,Bobo Street,29349,35.0509594,-82.0851340
23,Bomar Street,29349,35.0485229,-82.0864847
12,Bobo Street,29349,35.0486468,-82.0871523
1,Littlefield Street,29349,35.0487066,-82.0949673
19,Bobo Street,29349,35.0493567,-82.0869459
19,North Main Street,29349,35.0482045,-82.0909150
21,Bridges Street,29349,35.0545430,-82.0901913
12,Bobo Street,29349,35.0485577,-82.0869908
10,North Howard Street,29349,35.0505348,-82.0905578
6,Church Street,29349,35.0508129,-82.0899181
15,Bridges Street,29349,35.0539849,-82.0906485
65,North Main Street,29349,35.0521735,-82.0931653
27,Prospect Street,29349,35.0521188,-82.0882082
8,Bobo Street,29349,35.0484043,-82.0874177
35,North Main Street,29349,35.0486370,-82.0911108
16,Bobo Street,29349,35.0492012,-82.0866770
14,Bobo Street,29349,35.0488623,-82.0871004
20,Carter Street,29349,35.0509737,-82.0861519
27,North Main Street,29349,35.0484044,-82.0909044
168,Wingo Street,29349,35.0486925,-82.0936123
63,North Main Street,29349,35.0520132,-82.0928856
6,Church Street,29349,35.0512379,-82.0901934
4,South Howard Street,29349,35.0484102,-82.0898351
6,Church Street,29349,35.0513285,-82.0896757
41,Prospect Street,29349,35.0527494,-82.0879217
100,Cardinal Avenue,29349,35.0550946,-82.0967976
15,Bomar Street,29349,35.0480854,-82.0866515
14,Bobo Street,29349,35.0487599,-82.0868766
16,Bobo Street,29349,35.0490718,-82.0868452
64,Bomar Street,29349,35.0511622,-82.0832761
10,Mcmillin Circle,29349,35.0531192,-82.0915317
28,Bishop Street,29349,35.0500415,-82.0923153
33,North Main Street,29349,35.0485721,-82.0910852
6,Mill Street,29349,35.0478075,-82.0910350
4,Prince Circle,29349,35.0501880,-82.0943298
15,North Main Street,29349,35.0481473,-82.0908878
6,Church Street,29349,35.0511681,-82.0902766
6,Church Street,29349,35.0509947,-82.0896823
12,Prospect Street,29349,35.0496064,-82.0892431
30,Bobo Street,29349,35.0501509,-82.0858038
27,Prospect Street,29349,35.0520991,-82.0881534
41,Bobo Street,29349,35.0508909,-82.0858198
2,Mill Street,29349,35.0478596,-82.0909597
3,North Main Street,29349,35.0478482,-82.0908017
31,North Main Street,29349,35.0485093,-82.0910596
60,North Miller Street,29349,35.0542415,-82.0942856
1420,Compton Bridge Road,29349,35.0643854,-82.0981282
6,Church Street,29349,35.0514170,-82.0899597
38,Prospect Street,29349,35.0522639,-82.0874545
6,Church Street,29349,35.0509805,-82.0901054
44,Bomar Street,29349,35.0495072,-82.0849516
27,Bomar Street,29349,35.0488286,-82.0863021
14,Culbreth Street,29349,35.0529696,-82.0893156
1,Littlejohn Street,29349,35.0541470,-82.0907976
49,North Main Street,29349,35.0500025,-82.0915859
7,North Main Street,29349,35.0480498,-82.0907033
16,Bobo Street,29349,35.0489902,-82.0869590
4,Mill Street,29349,35.0478368,-82.0909866
2,North Howard Street,29349,35.0492527,-82.0901278
6,Prospect Street,29349,35.0491715,-82.0896598
1,Culbreth Street,29349,35.0535840,-82.0898178
6,Church Street,29349,35.0514935,-82.0898858
16,Culbreth Road,29349,35.0528235,-82.0892144
30,Bishop Street,29349,35.0502767,-82.0925016
7,Littlefield Street,29349,35.0494912,-82.0943253
51,North Main Street,29349,35.0502134,-82.0916437
590,Nature Walk Way,29349,35.0305117,-82.0796066
419,Split Oak Lane,29349,35.0294436,-82.0786811
11064,Asheville Highway,29349,35.0387585,-82.0738066
1105,Mason Road,29349,35.0311611,-82.0799228
11064,Asheville Highway,29349,35.0388367,-82.0734240
333,Split Oak Lane,29349,35.0325035,-82.0778534
11064,Asheville Highway,29349,35.0386665,-82.0733146
11090,Asheville Highway,29349,35.0385008,-82.0744132
517,Nature Walk Way,29349,35.0318707,-82.0788490
11281,Asheville Highway,29349,35.0381517,-82.0798535
11068,Asheville Highway,29349,35.0385108,-82.0730754
337,Split Oak Lane,29349,35.0323273,-82.0778076
11064,Asheville Highway,29349,35.0387457,-82.0737382
535,Nature Walk Way,29349,35.0315184,-82.0784326
11064,Asheville Highway,29349,35.0388239,-82.0733491
811,Skipping Rock Court,29349,35.0301688,-82.0788280
1301,Mason Road,29349,35.0311268,-82.0797611
11068,Asheville Highway,29349,35.0383929,-82.0731096
443,Split Oak Lane,29349,35.0299303,-82.0797437
11090,Asheville Highway,29349,35.0385590,-82.0747115
11068,Asheville Highway,29349,35.0383340,-82.0731252
1501,Mason Road,29349,35.0309171,-82.0796220
11068,Asheville Highway,29349,35.0384519,-82.0730909
11090,Asheville Highway,29349,35.0385198,-82.0744985
596,Nature Walk Way,29349,35.0303912,-82.0797680
11068,Asheville Highway,29349,35.0385644,-82.0730566
523,Nature Walk Way,29349,35.0317422,-82.0786735
11068,Asheville Highway,29349,35.0386234,-82.0730410
434,Split Oak Lane,29349,35.0300165,-82.0791494
11090,Asheville Highway,29349,35.0384732,-82.0742669
1505,Mason Road,29349,35.0308081,-82.0796475
11064,Asheville Highway,29349,35.0388494,-82.0734925
541,Nature Walk Way,29349,35.0312175,-82.0783843
565,Nature Walk Way,29349,35.0306020,-82.0783778
546,Nature Walk Way,29349,35.0311449,-82.0792586
11090,Asheville Highway,29349,35.0385489,-82.0746528
435,Split Oak Lane,29349,35.0296654,-82.0794630
1507,Mason Road,29349,35.0308569,-82.0797060
11064,Asheville Highway,29349,35.0387202,-82.0735948
11090,Asheville Highway,29349,35.0384863,-82.0743373
423,Split Oak Lane,29349,35.0295160,-82.0788698
11279,Asheville Highway,29349,35.0389308,-82.0804059
11064,Asheville Highway,29349,35.0387330,-82.0736633
817,Skipping Rock Court,29349,35.0303633,-82.0786235
11090,Asheville Highway,29349,35.0387173,-82.0750782
564,Nature Walk Way,29349,35.0308913,-82.0791524
11090,Asheville Highway,29349,35.0385290,-82.0745738
431,Split Oak Lane,29349,35.0296262,-82.0792479
559,Nature Walk Way,29349,35.0309724,-82.0783546
11211,Asheville Highway,29349,35.0378565,-82.0792381
11064,Asheville Highway,29349,35.0386793,-82.0733830
415,Split Oak Lane,29349,35.0293829,-82.0784926
11211,Asheville Highway,29349,35.0377948,-82.0789285
586,Nature Walk Way,29349,35.0306323,-82.0794452
427,Split Oak Lane,29349,35.0295651,-82.0790581
11064,Asheville Highway,29349,35.0388111,-82.0732807
11090,Asheville Highway,29349,35.0384646,-82.0742021
812,Skipping Rock Court,29349,35.0300455,-82.0782627
1503,Mason Road,29349,35.0308751,-82.0795615
11064,Asheville Highway,29349,35.0386920,-82.0734580
604,Nature Walk Way,29349,35.0302707,-82.0799294
11283,Asheville Highway,29349,35.0381671,-82.0799385
11064,Asheville Highway,29349,35.0387048,-82.0735264
553,Nature Walk Way,29349,35.0309803,-82.0786729
1307,Mason Road,29349,35.0310578,-82.0796816
11231,Asheville Highway,29349,35.0379602,-82.0795593
716,Sandy Creek Way,29349,35.0291938,-82.0777115
826,East Frank Bush Avenue,29349,35.0265941,-82.0816354
402,West Story Bush Lane,29349,35.0233008,-82.0818595
618,East Dateria Way,29349,35.0258078,-82.0809229
707,West Dateria Way,29349,35.0244443,-82.0817780
822,East Frank Bush Avenue,29349,35.0261787,-82.0817612
622,East Dateria Way,29349,35.0259209,-82.0811304
718,West Dateria Way,29349,35.0239985,-82.0826736
410,West Story Bush Lane,29349,35.0229411,-82.0821335
903,West Frank Bush Avenue,29349,35.0250245,-82.0824662
411,West Story Bush Lane,29349,35.0227340,-82.0817554
336,East Story Bush Lane,29349,35.0252931,-82.0800404
324,East Story Bush Lane,29349,35.0246545,-82.0805299
702,West Dateria Way,29349,35.0248502,-82.0821254
319,East Story Bush Lane,29349,35.0243977,-82.0812246
308,East Story Bush Lane,29349,35.0237380,-82.0810891
818,East Frank Bush Avenue,29349,35.0259800,-82.0818808
312,East Story Bush Lane,29349,35.0239686,-82.0809321
303,West Story Bush Lane,29349,35.0235244,-82.0817325
615,East Dateria Way,29349,35.0257811,-82.0814950
806,East Frank Bush Avenue,29349,35.0253529,-82.0823203
407,West Story Bush Lane,29349,35.0229337,-82.0815469
726,West Dateria Way,29349,35.0234811,-82.0827326
711,West Dateria Way,29349,35.0242299,-82.0819092
606,East Dateria Way,29349,35.0251982,-82.0813131
1100,Southfield Street,29349,35.0233935,-82.0810954
337,East Story Bush Lane,29349,35.0254334,-82.0806460
315,East Story Bush Lane,29349,35.0241843,-82.0813214
340,East Story Bush Lane,29349,35.0254577,-82.0799862
923,West Frank Bush Avenue,29349,35.0240381,-82.0831988
344,East Story Bush Lane,29349,35.0255986,-82.0801993
602,East Dateria Way,29349,35.0249881,-82.0814392
414,West Story Bush Lane,29349,35.0227516,-82.0819890
320,East Story Bush Lane,29349,35.0242983,-82.0806929
715,West Dateria Way,29349,35.0240055,-82.0820645
607,East Dateria Way,29349,35.0253152,-82.0817030
403,West Story Bush Lane,29349,35.0231925,-82.0814740
703,West Dateria Way,29349,35.0246664,-82.0816352
603,East Dateria Way,29349,35.0251310,-82.0818100
722,West Dateria Way,29349,35.0237736,-82.0828233
325,East Story Bush Lane,29349,35.0247425,-82.0810284
719,West Dateria Way,29349,35.0238041,-82.0821888
814,East Frank Bush Avenue,29349,35.0257942,-82.0820488
706,West Dateria Way,29349,35.0246181,-82.0822657
911,West Frank Bush Avenue,29349,35.0246322,-82.0827288
311,East Story Bush Lane,29349,35.0239642,-82.0814656
333,East Story Bush Lane,29349,35.0251958,-82.0807363
810,East Frank Bush Avenue,29349,35.0255835,-82.0822083
316,West Story Bush Lane,29349,35.0241818,-82.0808152
727,West Dateria Way,29349,35.0233189,-82.0824566
406,West Story Bush Lane,29349,35.0231834,-82.0820957
710,West Dateria Way,29349,35.0244149,-82.0824168
328,East Story Bush Lane,29349,35.0248521,-82.0804100
332,East Story Bush Lane,29349,35.0250551,-82.0802626
714,West Dateria Way,29349,35.0241966,-82.0825127
919,West Frank Bush Avenue,29349,35.0240799,-82.0829577
907,West Frank Bush Avenue,29349,35.0248147,-82.0825900
329,East Story Bush Lane,29349,35.0249695,-82.0808599
341,East Story Bush Lane,29349,35.0256197,-82.0804398
915,West Frank Bush Avenue,29349,35.0244136,-82.0828558
307,East Story Bush Lane,29349,35.0237543,-82.0815797
619,East Dateria Way,29349,35.0259396,-82.0813429
304,East Story Bush Lane,29349,35.0235421,-82.0812166
614,East Dateria Way,29349,35.0255441,-82.0809858
611,East Dateria Way,29349,35.0255306,-82.0815976
610,East Dateria Way,29349,35.0254001,-82.0812243
723,West Dateria Way,29349,35.0234318,-82.0822189
8,Henderson Street,29349,35.0439560,-82.0917432
847,Spartan Commodor Lane,29349,35.0340742,-82.0785111
11467,Asheville Highway,29349,35.0389224,-82.0814968
8,Price Street,29349,35.0473158,-82.0860927
11471,Asheville Highway,29349,35.0390352,-82.0819247
58,South Main Street,29349,35.0435731,-82.0895754
60,North Humphrey Street,29349,35.0485682,-82.0940645
730,Spartan Commodor Lane,29349,35.0333631,-82.0779892
834,Spartan Commodor Lane,29349,35.0345691,-82.0787240
784,Spartan Commodor Lane,29349,35.0334024,-82.0792243
603,Spartan Commodor Lane,29349,35.0360415,-82.0786295
828,Spartan Commodor Lane,29349,35.0348023,-82.0786659
843,Spartan Commodor Lane,29349,35.0342482,-82.0784634
858,Spartan Commodor Lane,29349,35.0337858,-82.0788797
871,Spartan Commodor Lane,29349,35.0333274,-82.0787161
751,Spartan Commodor Lane,29349,35.0329483,-82.0782431
715,Spartan Commodor Lane,29349,35.0337870,-82.0775477
619,Spartan Commodor Lane,29349,35.0359303,-82.0780215
719,Spartan Commodor Lane,29349,35.0336239,-82.0776122
838,Spartan Commodor Lane,29349,35.0344160,-82.0787498
868,Spartan Commodor Lane,29349,35.0335541,-82.0789811
867,Spartan Commodor Lane,29349,35.0334689,-82.0786785
823,Spartan Commodor Lane,29349,35.0348965,-82.0783176
850,Spartan Commodor Lane,29349,35.0340341,-82.0788504
854,Spartan Commodor Lane,29349,35.0339271,-82.0788629
773,Spartan Commodor Lane,29349,35.0330696,-82.0790069
759,Spartan Commodor Lane,29349,35.0330019,-82.0785619
615,Spartan Commodor Lane,29349,35.0359595,-82.0781842
710,Spartan Commodor Lane,29349,35.0339771,-82.0778264
807,Spartan Commodor Lane,29349,35.0354580,-82.0781611
802,Spartan Commodor Lane,29349,35.0356928,-82.0784456
842,Spartan Commodor Lane,29349,35.0342822,-82.0787814
779,Spartan Commodor Lane,29349,35.0330877,-82.0791570
803,Spartan Commodor Lane,29349,35.0356440,-82.0781482
811,Spartan Commodor Lane,29349,35.0352852,-82.0782227
815,Spartan Commodor Lane,29349,35.0351433,-82.0782750
755,Spartan Commodor Lane,29349,35.0329796,-82.0784070
846,Spartan Commodor Lane,29349,35.0341622,-82.0788159
859,Spartan Commodor Lane,29349,35.0336937,-82.0786095
764,Spartan Commodor Lane,29349,35.0332562,-82.0785621
783,Spartan Commodor Lane,29349,35.0331194,-82.0793141
731,Spartan Commodor Lane,29349,35.0332328,-82.0776922
706,Spartan Commodor Lane,29349,35.0341646,-82.0777775
835,Spartan Commodor Lane,29349,35.0345397,-82.0783998
735,Spartan Commodor Lane,29349,35.0330187,-82.0776802
820,Spartan Commodor Lane,29349,35.0350915,-82.0785906
769,Spartan Commodor Lane,29349,35.0330299,-82.0788499
743,Spartan Commodor Lane,29349,35.0328383,-82.0779408
707,Spartan Commodor Lane,29349,35.0340671,-82.0774848
623,Spartan Commodor Lane,29349,35.0359114,-82.0778913
808,Spartan Commodor Lane,29349,35.0354482,-82.0785063
816,Spartan Commodor Lane,29349,35.0352104,-82.0785629
839,Spartan Commodor Lane,29349,35.0344143,-82.0784527
851,Spartan Commodor Lane,29349,35.0339308,-82.0785464
739,Spartan Commodor Lane,29349,35.0328525,-82.0777731
812,Spartan Commodor Lane,29349,35.0353293,-82.0785353
855,Spartan Commodor Lane,29349,35.0338113,-82.0785785
780,Spartan Commodor Lane,29349,35.0333789,-82.0790423
747,Spartan Commodor Lane,29349,35.0329314,-82.0780971
714,Spartan Commodor Lane,29349,35.0338467,-82.0778650
819,Spartan Commodor Lane,29349,35.0350313,-82.0782944
726,Spartan Commodor Lane,29349,35.0334819,-82.0779686
722,Spartan Commodor Lane,29349,35.0335905,-82.0779394
827,Spartan Commodor Lane,29349,35.0347742,-82.0783521
718,Spartan Commodor Lane,29349,35.0337128,-82.0779091
611,Spartan Commodor Lane,29349,35.0359802,-82.0783271
607,Spartan Commodor Lane,29349,35.0360122,-82.0784899
806,Spartan Commodor Lane,29349,35.0355773,-82.0784844
863,Spartan Commodor Lane,29349,35.0335692,-82.0786624
725,Spartan Commodor Lane,29349,35.0334262,-82.0776374
824,Spartan Commodor Lane,29349,35.0349612,-82.0786194
831,Spartan Commodor Lane,29349,35.0346666,-82.0783854
627,Spartan Commodor Lane,29349,35.0358880,-82.0777229
862,Spartan Commodor Lane,29349,35.0336768,-82.0789131
734,Spartan Commodor Lane,29349,35.0332358,-82.0781667
763,Spartan Commodor Lane,29349,35.0329997,-82.0787010
711,Spartan Commodor Lane,29349,35.0339041,-82.0775345
12,South Main Street,29349,35.0474724,-82.0902272
16,North Howard Street,29349,35.0524976,-82.0917643
12046,Asheville Highway,29349,35.0429759,-82.0908673
202,Park Street,29349,35.0570265,-82.0921745
198,Bethune Street,29349,35.0570978,-82.0917442
41,Mill Street,29349,35.0464348,-82.0921707
1420,Compton Bridge Road,29349,35.0629495,-82.1002011
10,West Miller Street,29349,35.0519106,-82.0984183
25,Oakland Avenue,29349,35.0480622,-82.0960789
35,Oakland Avenue,29349,35.0496092,-82.0991164
10,Miller Street,29349,35.0515049,-82.0984792
21,North Miller Street,29349,35.0541986,-82.0955093
11500,Asheville Highway,29349,35.0400818,-82.0830067
82,North Main Street,29349,35.0533566,-82.0951001
21,Ballenger Avenue,29349,35.0424190,-82.0936921
28,Ladson Street,29349,35.0449185,-82.0924590
600,Mason Road,29349,35.0315515,-82.0806880
94,Church Avenue,29349,35.0411865,-82.0940265
17,Culp Street,29349,35.0424140,-82.0869445
40,South Main Street,29349,35.0442940,-82.0893170
306,Thacker Court,29349,35.0335055,-82.0831865
11,Clay Street,29349,35.0447290,-82.0936275
4,G Street,29349,35.0387900,-82.0963495
19,Blackstock Road,29349,35.0438995,-82.0904420
643,Nature Walk Way,29349,35.0302910,-82.0811385
111,Brock Street,29349,35.0471190,-82.0840745
140,Brock Street,29349,35.0469725,-82.0834240
42,East Main Street,29349,35.0448740,-82.0856365
32,South Howard Street,29349,35.0461052,-82.0870288
7,Buice Street,29349,35.0425895,-82.0875150
12131,Asheville Highway,29349,35.0428780,-82.0926320
63,Mill Street,29349,35.0452574,-82.0938574
33,South Howard Street,29349,35.0463085,-82.0864665
565,Franklin Asberry Lane,29349,35.0346900,-82.0882720
31,South Howard Street,29349,35.0466295,-82.0865435
631,Nature Walk Way,29349,35.0300870,-82.0807975
38,South Main Street,29349,35.0446330,-82.0896920
9,Ballenger Avenue,29349,35.0433620,-82.0938925
6,Collins Avenue,29349,35.0477435,-82.0843225
10,North Humphrey Street,29349,35.0475552,-82.0929618
66,Church Avenue,29349,35.0408145,-82.0937885
207,Jarvis Street,29349,35.0396665,-82.0866365
17,Cross Street,29349,35.0414940,-82.0863220
12,Bloomwood Heights,29349,35.0425650,-82.0844155
466,Gemstone Lane,29349,35.0336870,-82.0824425
3,Henderson Street,29349,35.0437160,-82.0914745
18,Gosnell Avenue,29349,35.0444675,-82.0877875
547,Franklin Asberry Lane,29349,35.0343035,-82.0881540
16,Buice Street,29349,35.0429615,-82.0867910
10,Oakland Avenue,29349,35.0477255,-82.0940810
3,Leonard Street,29349,35.0465470,-82.0862180
347,Arp Way,29349,35.0315655,-82.0835400
10,Vehorn Street,29349,35.0410855,-82.0853615
342,Arp Way,29349,35.0319810,-82.0837325
133,Boardwalk Drive,29349,35.0417380,-82.0849465
12110,Asheville Highway,29349,35.0432085,-82.0917875
50,Buice Street,29349,35.0422600,-82.0852180
9,Bomar Street,29349,35.0476350,-82.0872570
91,Blackstock Road,29349,35.0341605,-82.0898545
11304,Asheville Highway,29349,35.0396240,-82.0807945
44,Gosnell Avenue,29349,35.0431535,-82.0842005
114,Boardwalk Drive,29349,35.0416033,-82.0855784
11473,Asheville Highway,29349,35.0389220,-82.0814820
126,Boardwalk Drive,29349,35.0414655,-82.0852620
312,Thacker Court,29349,35.0332060,-82.0833730
649,Nature Walk Way,29349,35.0304055,-82.0812610
5,Clay Street,29349,35.0450976,-82.0932231
98,Blackstock Road,29349,35.0330495,-82.0902720
40,East Main Street,29349,35.0450170,-82.0858985
40,Church Avenue,29349,35.0401935,-82.0934080
568,Franklin Asberry Lane,29349,35.0346880,-82.0877090
14480,Asheville Highway,29349,35.0398400,-82.0820440
49,South Howard Street,29349,35.0452705,-82.0842670
127,Boardwalk Drive,29349,35.0417995,-82.0850960
2,Oakland Avenue,29349,35.0461410,-82.0932785
1,Vehorn Street,29349,35.0419500,-82.0866640
36,East Main Street,29349,35.0452795,-82.0865473
26,Blackstock Road,29349,35.0444790,-82.0911320
88,Blackstock Road,29349,35.0344115,-82.0904290
24,Gosnell Avenue,29349,35.0440530,-82.0868565
50,East Main Street,29349,35.0443415,-82.0843175
39,Gosnell Avenue,29349,35.0437475,-82.0847055
28,East Main Street,29349,35.0457334,-82.0878414
11,Ballenger Avenue,29349,35.0430535,-82.0938790
528,Mason Road,29349,35.0323040,-82.0803850
16,Price Street,29349,35.0476990,-82.0856570
28,Mill Street,29349,35.0470525,-82.0922750
174,Brock Street,29349,35.0475610,-82.0827635
102,Brock Street,29349,35.0460755,-82.0843845
55,Mill Street,29349,35.0456959,-82.0933273
553,Franklin Asberry Lane,29349,35.0344235,-82.0881975
11440,Asheville Highway,29349,35.0397225,-82.0814895
25,Ladson Street,29349,35.0445180,-82.0921790
57,Mill Street,29349,35.0456316,-82.0934111
62,Buice Street,29349,35.0421435,-82.0849255
1,Leonard Street,29349,35.0464175,-82.0863330
509,Gemstone Lane,29349,35.0334705,-82.0834976
44,Buice Street,29349,35.0423135,-82.0853700
159,Clark Road,29349,35.0469450,-82.0821715
323,Thacker Court,29349,35.0326785,-82.0835535
326,Thacker Court,29349,35.0329505,-82.0840560
8,Blackstock Road,29349,35.0463900,-82.0909995
309,Thacker Court,29349,35.0331075,-82.0828825
27,South Howard Street,29349,35.0469715,-82.0869480
34,East Main Street,29349,35.0453523,-82.0868924
48,East Main Street,29349,35.0444780,-82.0846565
110,Fleetwood Street,29349,35.0401815,-82.0821715
27,Ladson Street,29349,35.0443890,-82.0922185
8,Leonard Street,29349,35.0469395,-82.0853115
38,Pine Street,29349,35.0409715,-82.0900375
38,East Main Street,29349,35.0451435,-82.0862022
35,Gosnell Avenue,29349,35.0439150,-82.0851730
220,West Clark Road,29349,35.0352235,-82.0871360
317,Thacker Court,29349,35.0328245,-82.0833230
8,Bloomwood Heights,29349,35.0429510,-82.0842335
90,Blackstock Road,29349,35.0337645,-82.0902410
12230,Asheville Highway,29349,35.0440290,-82.0935485
11,Leonard Street,29349,35.0473985,-82.0854790
4,Blackwell Street,29349,35.0455819,-82.0927228
514,Gemstone Lane,29349,35.0338460,-82.0830275
151,Brock Street,29349,35.0475430,-82.0836060
8,H Street,29349,35.0382735,-82.0953795
1130,Park Road,29349,35.0342010,-82.0919980
1,Ballenger Avenue,29349,35.0450090,-82.0938025
5,Ballenger Avenue,29349,35.0445725,-82.0939195
50,Church Avenue,29349,35.0404475,-82.0935480
318,Thacker Court,29349,35.0331055,-82.0835875
511,Franklin Asberry Lane,29349,35.0335720,-82.0879485
4,Price Street,29349,35.0470020,-82.0863945
1,Jumper Street,29349,35.0452482,-82.0873393
37,Gosnell Avenue,29349,35.0438310,-82.0849600
9,Leonard Street,29349,35.0472355,-82.0856300
51,Mill Street,29349,35.0458650,-82.0930074
3,Ballenger Avenue,29349,35.0446730,-82.0939410
23,Gosnell Avenue,29349,35.0446585,-82.0869045
19,Gosnell Avenue,29349,35.0449700,-82.0875465
12,North Humphrey Street,29349,35.0477060,-82.0930960
8,Oakland Avenue,29349,35.0473840,-82.0939485
7,Oakland Avenue,29349,35.0467675,-82.0944970
138,Boardwalk Drive,29349,35.0412775,-82.0848595
103,Boardwalk Drive,29349,35.0420340,-82.0856765
16,Culp Street,29349,35.0419075,-82.0875010
46,Church Avenue,29349,35.0403135,-82.0934800
14,Leonard Street,29349,35.0475070,-82.0847345
6,Leonard Street,29349,35.0467765,-82.0854160
12,Henderson Street,29349,35.0438820,-82.0920735
3,H Street,29349,35.0383760,-82.0960585
11961,Asheville Highway,29349,35.0414125,-82.0895700
24,Blackstock Road,29349,35.0447755,-82.0911695
431,Gemstone Lane,29349,35.0326480,-82.0818325
5,H Street,29349,35.0384795,-82.0958155
60,Mill Street,29349,35.0455265,-82.0942632
34,Blackstock Road,29349,35.0434290,-82.0909830
24,South Main Street,29349,35.0460780,-82.0896485
462,Gemstone Lane,29349,35.0336080,-82.0821690
5,Leonard Street,29349,35.0467045,-82.0861355
67,South Main Street,29349,35.0432245,-82.0888465
5,Oakland Avenue,29349,35.0465830,-82.0943405
98,Church Avenue,29349,35.0415060,-82.0940580
505,Franklin Asberry Lane,29349,35.0334503,-82.0879239
14,Price Street,29349,35.0475935,-82.0857645
454,Gemstone Lane,29349,35.0332185,-82.0816870
534,Franklin Asberry Lane,29349,35.0341190,-82.0875990
627,Ezra Court,29349,35.0345690,-82.0870995
11486,Asheville Highway,29349,35.0399070,-82.0823120
8,Walnut Street,29349,35.0420015,-82.0877955
260,West Clark Road,29349,35.0338285,-82.0870930
430,Gemstone Lane,29349,35.0329915,-82.0815180
12,Price Street,29349,35.0474735,-82.0858615
21,Ladson Street,29349,35.0447825,-82.0921185
52,South Main Street,29349,35.0438415,-82.0895855
616,Ezra Court,29349,35.0341245,-82.0871770
7,Clay Street,29349,35.0449490,-82.0933560
535,Franklin Asberry Lane,29349,35.0340624,-82.0880890
16,Gosnell Avenue,29349,35.0446305,-82.0881175
529,Franklin Asberry Lane,29349,35.0339375,-82.0880530
522,Gemstone Lane,29349,35.0339320,-82.0835750
22,Bloomwood Heights,29349,35.0418790,-82.0846290
92,Brock Street,29349,35.0455150,-82.0850475
12,Bomar Street,29349,35.0476640,-82.0867250
91,Large Street,29349,35.0405375,-82.0835455
15,Leonard Street,29349,35.0476060,-82.0852325
121,Boardwalk Drive,29349,35.0418632,-82.0852482
13,Price Street,29349,35.0477765,-82.0861265
11,Bomar Street,29349,35.0477810,-82.0870900
4,Walnut Street,29349,35.0415333,-82.0877065
28,South Main Street,29349,35.0449915,-82.0895580
39,South Howard Street,29349,35.0459225,-82.0856055
26,South Main Street,29349,35.0457215,-82.0896790
3,S Humphrey Street,29349,35.0464520,-82.0917650
25,South Howard Street,29349,35.0471135,-82.0872455
175,Brock Street,29349,35.0477565,-82.0833735
49,Mill Street,29349,35.0461472,-82.0927327
11487,Asheville Highway,29349,35.0392035,-82.0823470
105,Brock Street,29349,35.0463305,-82.0849425
313,Thacker Court,29349,35.0329485,-82.0830770
335,Arp Way,29349,35.0318775,-82.0831135
132,Boardwalk Drive,29349,35.0414040,-82.0851185
541,Franklin Asberry Lane,29349,35.0341794,-82.0881246
85,Blackstock Road,29349,35.0348060,-82.0899735
3,Pine Lane,29349,35.0464550,-82.0836085
9,Ladson Street,29349,35.0463452,-82.0903410
110,Brock Street,29349,35.0466200,-82.0838350
38,Gosnell Avenue,29349,35.0433450,-82.0848680
4,Henderson Street,29349,35.0440340,-82.0911125
323,Arp Way,29349,35.0321665,-82.0826355
131,Brock Street,29349,35.0473280,-82.0838010
508,Franklin Asberry Lane,29349,35.0336371,-82.0874570
510,Gemstone Lane,29349,35.0337750,-82.0827445
11731,Asheville Highway,29349,35.0400485,-82.0861655
188,Fleetwood Street,29349,35.0411745,-82.0839685
1,Blackstock Road,29349,35.0471865,-82.0906725
523,Franklin Asberry Lane,29349,35.0338165,-82.0880200
12,West Clark Road,29349,35.0384445,-82.0864120
61,South Main Street,29349,35.0435455,-82.0887700
101,Brock Street,29349,35.0460105,-82.0851600
20,South Main Street,29349,35.0470140,-82.0900370
1180,Park Road,29349,35.0331545,-82.0907275
115,Boardwalk Drive,29349,35.0419240,-82.0854040
28,Buice Street,29349,35.0425790,-82.0859530
9,Cross Street,29349,35.0422340,-82.0859075
21,Culp Street,29349,35.0427540,-82.0867950
103,Clark Road,29349,35.0454290,-82.0834930
15,Culp Street,29349,35.0423525,-82.0872085
21,Gosnell Avenue,29349,35.0448100,-82.0872085
655,Nature Walk Way,29349,35.0304990,-82.0814345
107,Brock Street,29349,35.0467105,-82.0844700
5,North Humphrey Street,29349,35.0471890,-82.0930640
6,Henderson Street,29349,35.0440895,-82.0914480
87,Blackstock Road,29349,35.0346215,-82.0897795
3,Blackwell Street,29349,35.0458965,-82.0923739
134,Boardwalk Drive,29349,35.0413495,-82.0849830
36,Gosnell Avenue,29349,35.0434955,-82.0851320
29,Gosnell Avenue,29349,35.0442845,-82.0859345
27,South Main Street,29349,35.0457122,-82.0889000
41,Gosnell Avenue,29349,35.0436635,-82.0844720
3,Clay Street,29349,35.0452475,-82.0930870
108,Brock Street,29349,35.0462720,-82.0841695
28,Gosnell Avenue,29349,35.0438450,-82.0863020
31,Gosnell Avenue,29349,35.0441245,-82.0856170
53,South Howard Street,29349,35.0451255,-82.0838665
7,Cross Street,29349,35.0430688,-82.0854829
4,Clay Street,29349,35.0450150,-82.0928290
44,South Main Street,29349,35.0441240,-82.0893210
4,H Street,29349,35.0380815,-82.0958040
4,Oakland Avenue,29349,35.0468458,-82.0937653
34,Gosnell Avenue,29349,35.0435935,-82.0854080
317,Arp Way,29349,35.0323460,-82.0823375
15,Oakland Avenue,29349,35.0477085,-82.0947235
619,Nature Walk Way,29349,35.0298620,-82.0805070
11,Price Street,29349,35.0476515,-82.0862280
516,Franklin Asberry Lane,29349,35.0337570,-82.0874975
26,Gosnell Avenue,29349,35.0439765,-82.0865875
5,Culp Street,29349,35.0427505,-82.0879770
12122,Asheville Highway,29349,35.0433210,-82.0921190
5,Vehorn Street,29349,35.0417565,-82.0861660
27,Buice Street,29349,35.0430095,-82.0860000
12,Leonard Street,29349,35.0472650,-82.0849775
19,South Howard Street,29349,35.0476785,-82.0880020
40,Gosnell Avenue,29349,35.0432795,-82.0846765
160,Brock Street,29349,35.0472165,-82.0831175
26,Culp Street,29349,35.0430920,-82.0861590
3,Vehorn Street,29349,35.0418930,-82.0863560
458,Gemstone Lane,29349,35.0334520,-82.0818660
168,Brock Street,29349,35.0473380,-82.0829965
610,Ezra Court,29349,35.0341050,-82.0873610
21,Blackstock Road,29349,35.0437705,-82.0899565
23,Blackstock Road,29349,35.0435290,-82.0901720
17,Leonard Street,29349,35.0477960,-82.0851375
14,Bloomwood Heights,29349,35.0423550,-82.0844715
25,Blackstock Road,29349,35.0434555,-82.0898680
7,Leonard Street,29349,35.0470415,-82.0858690
10,Leonard Street,29349,35.0471430,-82.0850955
6,Clay Street,29349,35.0448740,-82.0929300
25,Gosnell Avenue,29349,35.0445175,-82.0865795
37,South Howard Street,29349,35.0461080,-82.0858285
613,Nature Walk Way,29349,35.0297985,-82.0803175
4,Ladson Street,29349,35.0468013,-82.0903808
25,South Main Street,29349,35.0459345,-82.0891102
312,Arp Way,29349,35.0328060,-82.0823545
419,Gemstone Lane,29349,35.0318650,-82.0816720
7,Ladson Street,29349,35.0464871,-82.0902437
47,South Howard Street,29349,35.0453115,-82.0844660
26,East Main Street,29349,35.0458537,-82.0881625
330,Arp Way,29349,35.0323115,-82.0831630
13,Baggott Road,29349,35.0416530,-82.0834705
56,Buice Street,29349,35.0421930,-82.0850750
12020,Asheville Highway,29349,35.0425071,-82.0900551
11810,Asheville Highway,29349,35.0409735,-82.0866535
12251,Asheville Highway,29349,35.0435325,-82.0938710
60,Church Avenue,29349,35.0406915,-82.0937115
5,Bomar Street,29349,35.0470050,-82.0880190
7,Price Street,29349,35.0473075,-82.0865635
35,South Howard Street,29349,35.0463000,-82.0860205
109,Brock Street,29349,35.0469125,-82.0843050
54,Church Avenue,29349,35.0405720,-82.0936320
2,Bomar Street,29349,35.0466260,-82.0875865
34,Pine Street,29349,35.0409320,-82.0896225
341,Arp Way,29349,35.0315990,-82.0832885
12,Blackstock Road,29349,35.0459195,-82.0908530
120,Boardwalk Drive,29349,35.0415285,-82.0854340
453,Gemstone Lane,29349,35.0329305,-82.0821220
22,South Main Street,29349,35.0466405,-82.0897543
7,North Humphrey Street,29349,35.0475470,-82.0935290
36,Church Avenue,29349,35.0400810,-82.0933240
109,Boardwalk Drive,29349,35.0419850,-82.0855540
41,South Howard Street,29349,35.0457795,-82.0853955
5,Pine Lane,29349,35.0463290,-82.0833985
9,Price Street,29349,35.0475430,-82.0863260
10,Clay Street,29349,35.0445225,-82.0932105
8,Clay Street,29349,35.0446970,-82.0929640
4,Bloomwood Heights,29349,35.0434700,-82.0839635
336,Arp Way,29349,35.0321765,-82.0833925
26,South Main Street,29349,35.0456135,-82.0895310
625,Nature Walk Way,29349,35.0299885,-82.0806595
559,Franklin Asberry Lane,29349,35.0345515,-82.0882525
14,Blackstock Road,29349,35.0455580,-82.0914819
637,Nature Walk Way,29349,35.0301967,-82.0809685
19,Cross Street,29349,35.0413000,-82.0864385
208,Fern Drive,29349,35.0403135,-82.0812255
30,Gosnell Avenue,29349,35.0437575,-82.0858095
13,Oakland Avenue,29349,35.0474447,-82.0946691
68,Buice Street,29349,35.0420770,-82.0847785
89,Blackstock Road,29349,35.0343265,-82.0898795
79,South Main Street,29349,35.0427060,-82.0890680
621,Ezra Court,29349,35.0346235,-82.0872965
10,Ladson Street,29349,35.0460990,-82.0913860
32,Gosnell Avenue,29349,35.0436585,-82.0855750
29,South Howard Street,29349,35.0467585,-82.0867355
46,East Main Street,29349,35.0446975,-82.0849820
11280,Asheville Highway,29349,35.0395805,-82.0800995
3,Bomar Street,29349,35.0467780,-82.0884155
7,Pine Lane,29349,35.0462130,-82.0832140
6,Oakland Avenue,29349,35.0471000,-82.0938340
13,Leonard Street,29349,35.0474815,-82.0853685
23,Ladson Street,29349,35.0446590,-82.0921835
11960,Asheville Highway,29349,35.0420695,-82.0891785
24,Buice Street,29349,35.0426690,-82.0861500
517,Franklin Asberry Lane,29349,35.0336955,-82.0879865
13,Gosnell Avenue,29349,35.0454480,-82.0887895
661,Nature Walk Way,29349,35.0305720,-82.0816090
1,S Humphrey Street,29349,35.0466070,-82.0915945
628,Ezra Court,29349,35.0344460,-82.0870365
8,Ladson Street,29349,35.0463020,-82.0912915
98,Blackstock Road,29349,35.0326475,-82.0908870
17,Gosnell Avenue,29349,35.0451345,-82.0878955
1,Oakland Avenue,29349,35.0458675,-82.0938435
3,Oakland Avenue,29349,35.0463870,-82.0941115
22,Gosnell Avenue,29349,35.0441565,-82.0871375
10,Blackstock Road,29349,35.0461529,-82.0909207
615,Ezra Court,29349,35.0346355,-82.0874835
14,Baggott Road,29349,35.0412990,-82.0835615
14,Gosnell Avenue,29349,35.0448445,-82.0885785
6,H Street,29349,35.0381900,-82.0956004
30,Buice Street,29349,35.0424930,-82.0857575
324,Arp Way,29349,35.0324715,-82.0828895
528,Franklin Asberry Lane,29349,35.0339985,-82.0875630
32,Bloomwood Heights,29349,35.0416215,-82.0847640
318,Arp Way,29349,35.0326540,-82.0826160
8,Vehorn Street,29349,35.0411500,-82.0856340
7,Henderson Street,29349,35.0435600,-82.0919840
18,Bloomwood Heights,29349,35.0420235,-82.0845600
107,Brock Street,29349,35.0465495,-82.0846860
27,Blackstock Road,29349,35.0431340,-82.0900545
8,Bomar Street,29349,35.0473880,-82.0870565
518,Gemstone Lane,29349,35.0338950,-82.0832865
7,Blackstock Road,29349,35.0470595,-82.0904120
1,Blackwell Street,29349,35.0459842,-82.0926244
9,Oakland Avenue,29349,35.0470250,-82.0945830
465,Gemstone Lane,29349,35.0333900,-82.0827970
266,West Clark Road,29349,35.0337715,-82.0872320
44,East Main Street,29349,35.0447375,-82.0852190
450,Cothran Creek Road,29349,35.0448315,-82.1011905
440,Cothran Creek Road,29349,35.0444110,-82.1008885
454,Cothran Creek Road,29349,35.0450805,-82.1012915
444,Cothran Creek Road,29349,35.0446035,-82.1009925
12700,Asheville Highway,29349,35.0471940,-82.1009675
114,Crestview Drive,29349,35.0554320,-82.1036530
102,Beechwood Drive,29349,35.0575745,-82.1006590
202,Staman Drive,29349,35.0573260,-82.1066080
130,Mcintosh Lane,29349,35.0569845,-82.1045360
104,Beechwood Drive,29349,35.0572190,-82.1009060
150,Mcintosh Lane,29349,35.0574095,-82.1026935
415,Grady Drive,29349,35.0558760,-82.1053130
222,Woodland Avenue,29349,35.0557965,-82.1079730
264,North Main Street,29349,35.0529975,-82.1007215
259,North Main Street,29349,35.0523230,-82.1009385
115,Beechwood Drive,29349,35.0556270,-82.1020620
108,Maple Drive,29349,35.0553220,-82.0985890
116,Maple Drive,29349,35.0565485,-82.0989475
309,Copper Creek Circle,29349,35.0534750,-82.1089535
106,Pineview Drive,29349,35.0538110,-82.0990315
106,Maple Drive,29349,35.0551030,-82.0987910
111,Beechwood Drive,29349,35.0559475,-82.1015830
401,Copper Creek Circle,29349,35.0540115,-82.1096140
231,North Main Street,29349,35.0525130,-82.0997750
141,Mcintosh Lane,29349,35.0577415,-82.1036315
126,Mcintosh Lane,29349,35.0568870,-82.1048855
832,White Magnolia Drive,29349,35.0520215,-82.1018575
828,White Magnolia Drive,29349,35.0518310,-82.1020660
115,Maple Drive,29349,35.0568580,-82.0995915
831,White Magnolia Drive,29349,35.0523910,-82.1019275
701,Adaline Drive,29349,35.0518430,-82.1033795
309,Cortland Drive,29349,35.0581925,-82.1053820
827,White Magnolia Drive,29349,35.0523630,-82.1022125
127,Pineview Drive,29349,35.0561530,-82.1006140
111,Maple Drive,29349,35.0562115,-82.0992830
305,Cortland Drive,29349,35.0578485,-82.1053205
138,Mcintosh Lane,29349,35.0571610,-82.1038090
105,Elberta Street,29349,35.0542885,-82.0986185
103,Mcintosh Lane,29349,35.0574170,-82.1073690
104,Maple Drive,29349,35.0548950,-82.0990000
145,Mcintosh Lane,29349,35.0577735,-82.1032070
137,Mcintosh Lane,29349,35.0577185,-82.1039900
314,Copper Creek Circle,29349,35.0529910,-82.1085770
134,Mcintosh Lane,29349,35.0571130,-82.1041425
129,Mcintosh Lane,29349,35.0574385,-82.1047930
101,Laurel Drive,29349,35.0561150,-82.1022815
704,Adaline Drive,29349,35.0522465,-82.1035780
407,Grady Drive,29349,35.0562190,-82.1057485
206,Staman Drive,29349,35.0578510,-82.1063685
107,Crestview Drive,29349,35.0561625,-82.1030380
437,Copper Creek Circle,29349,35.0534630,-82.1094575
105,Crestview Drive,29349,35.0563420,-82.1027810
408,Grady Drive,29349,35.0558655,-82.1063510
122,Pineview Drive,29349,35.0562875,-82.0998260
807,White Magnolia Drive,29349,35.0523225,-82.1031815
110,Laurel Drive,29349,35.0573015,-82.1022145
823,White Magnolia Drive,29349,35.0523230,-82.1024100
815,White Magnolia Drive,29349,35.0522805,-82.1027805
806,White Magnolia Drive,29349,35.0518545,-82.1031465
362,Copper Creek Circle,29349,35.0550919,-82.1086670
108,Pineview Drive,29349,35.0542125,-82.0992045
1371,Compton Bridge Road,29349,35.0602810,-82.1017000
149,Mcintosh Lane,29349,35.0576965,-82.1028625
905,Lyday Lane,29349,35.0516285,-82.1022550
103,Laurel Drive,29349,35.0563045,-82.1024460
404,Grady Drive,29349,35.0562195,-82.1064930
221,North Main Street,29349,35.0525300,-82.0993920
123,Mcintosh Lane,29349,35.0573230,-82.1053150
111,Pineview Drive,29349,35.0545745,-82.0999720
133,Mcintosh Lane,29349,35.0575665,-82.1043775
118,Mcintosh Lane,29349,35.0566680,-82.1059865
104,Crestview Drive,29349,35.0568545,-82.1029360
416,Grady Drive,29349,35.0555555,-82.1056900
926,Lyday Lane,29349,35.0512160,-82.1033645
107,Beechwood Drive,29349,35.0566635,-82.1007515
819,White Magnolia Drive,29349,35.0523070,-82.1025835
122,Mcintosh Lane,29349,35.0567610,-82.1051570
102,Maple Drive,29349,35.0546635,-82.0992465
406,Copper Creek Circle,29349,35.0540435,-82.1102935
114,Maple Drive,29349,35.0562755,-82.0986485
812,White Magnolia Drive,29349,35.0518810,-82.1028685
123,Pineview Drive,29349,35.0558440,-82.1003590
106,Mcintosh Lane,29349,35.0567870,-82.1071710
102,Pineview Drive,29349,35.0532990,-82.0988140
119,Pineview Drive,29349,35.0554150,-82.1002815
120,Beechwood Drive,29349,35.0556280,-82.1028855
128,Pineview Drive,29349,35.0568860,-82.1001185
342,Copper Creek Circle,29349,35.0542025,-82.1080375
925,Lyday Lane,29349,35.0509065,-82.1028125
120,Pineview Drive,29349,35.0558140,-82.0995920
110,Crestview Drive,29349,35.0563595,-82.1036660
205,Staman Drive,29349,35.0578410,-82.1073320
901,Lyday Lane,29349,35.0518765,-82.1023125
142,Mcintosh Lane,29349,35.0571765,-82.1034150
1311,Compton Bridge Road,29349,35.0595360,-82.1006760
112,Pineview Drive,29349,35.0551695,-82.0994420
397,Copper Creek Circle,29349,35.0542525,-82.1094980
920,Lyday Lane,29349,35.0513755,-82.1031910
209,Staman Drive,29349,35.0582325,-82.1070630
115,Mcintosh Lane,29349,35.0572185,-82.1061655
398,Copper Creek Circle,29349,35.0544250,-82.1101185
113,Pineview Drive,29349,35.0548470,-82.0999845
318,Copper Creek Circle,29349,35.0530325,-82.1083130
107,Pineview Drive,29349,35.0540035,-82.0997880
712,Adaline Drive,29349,35.0522660,-82.1039080
305,Copper Creek Circle,29349,35.0534800,-82.1091945
106,Crestview Drive,29349,35.0566830,-82.1031675
399,Copper Creek Circle,29349,35.0538705,-82.1091090
412,Grady Drive,29349,35.0556805,-82.1061005
143,Woodland Avenue,29349,35.0540150,-82.1073965
715,Adaline Drive,29349,35.0518230,-82.1038795
110,Mcintosh Lane,29349,35.0566785,-82.1065550
113,Maple Drive,29349,35.0565275,-82.0994695
921,Lyday Lane,29349,35.0511320,-82.1027280
117,Maple Drive,29349,35.0571805,-82.0998665
119,Beechwood Drive,29349,35.0553415,-82.1024360
210,Staman Drive,29349,35.0582935,-82.1063315
31,Prospect Street,29349,35.0524395,-82.0879380
21,Prospect Street,29349,35.0515945,-82.0884600
14,North Howard Street,29349,35.0517905,-82.0905420
6,Culbreth Street,29349,35.0532745,-82.0899595
110,Maple Drive,29349,35.0555400,-82.0983580
50,North Howard Street,29349,35.0558805,-82.0939670
3,South Howard Street,29349,35.0487490,-82.0895775
2,Orchard Lane,29349,35.0535020,-82.0970270
32,Bishop Street,29349,35.0504820,-82.0925795
9,Canady Street,29349,35.0497740,-82.0955770
96,North Main Street,29349,35.0531005,-82.0977605
21,Littlefield Street,29349,35.0507235,-82.0931955
16,Hollywood Street,29349,35.0499810,-82.0868285
9,Prospect Street,29349,35.0502800,-82.0896715
138,Wingo Street,29349,35.0487875,-82.0926985
194,Bethune Street,29349,35.0572715,-82.0915355
25,Prospect Street,29349,35.0519410,-82.0882300
115,Wingo Street,29349,35.0487280,-82.0914490
18,Bomar Street,29349,35.0479975,-82.0864310
10,Littlejohn Street,29349,35.0549695,-82.0919205
25,Price Street,29349,35.0486690,-82.0852095
16,North Howard Street,29349,35.0524985,-82.0917605
41,Bomar Street,29349,35.0497155,-82.0854940
45,North Main Street,29349,35.0495050,-82.0913890
15,Lawrence Street,29349,35.0490595,-82.0892085
40,Bishop Street,29349,35.0515710,-82.0936890
4,Littlefield Street,29349,35.0487635,-82.0942895
113,Elberta Street,29349,35.0551535,-82.0977895
5,Carter Street,29349,35.0524590,-82.0865945
7,Canady Street,29349,35.0497120,-82.0953795
3,North Miller Street,29349,35.0538355,-82.0957460
55,Bobo Street,29349,35.0519210,-82.0847250
37,Bomar Street,29349,35.0494145,-82.0856760
5,Mcmillin Circle,29349,35.0539530,-82.0917425
25,Littlefield Street,29349,35.0511480,-82.0928825
92,North Main Street,29349,35.0530570,-82.0970710
24,Prospect Street,29349,35.0508500,-82.0883435
3,Bridges Street,29349,35.0528580,-82.0915036
8,Canady Street,29349,35.0501410,-82.0951160
150,Wingo Street,29349,35.0489400,-82.0931080
7,Hollywood Street,29349,35.0508480,-82.0872795
3,Mcmillin Circle,29349,35.0539870,-82.0919880
11,South Howard Street,29349,35.0481695,-82.0888930
52,Bomar Street,29349,35.0498260,-82.0843850
49,Bomar Street,29349,35.0502590,-82.0850060
130,Weaver Line,29349,35.0536415,-82.0879460
27,Bishop Street,29349,35.0501165,-82.0931505
22,Bomar Street,29349,35.0482080,-82.0861990
31,Price Street,29349,35.0491665,-82.0847340
60,Bomar Street,29349,35.0506020,-82.0836870
206,Park Street,29349,35.0574915,-82.0918000
4,Mcmillin Circle,29349,35.0535775,-82.0918435
1,Canady Street,29349,35.0493495,-82.0948320
112,Cardinal Avenue,29349,35.0559090,-82.0980800
39,Bishop Street,29349,35.0517915,-82.0946475
20,Bomar Street,29349,35.0480970,-82.0863205
5,Hollywood Street,29349,35.0509090,-82.0876390
56,Bomar Street,29349,35.0501865,-82.0840525
3,Orchard Lane,29349,35.0537755,-82.0975055
3,Littlejohn Street,29349,35.0542960,-82.0912490
32,Prospect Street,29349,35.0517420,-82.0878175
39,Bobo Street,29349,35.0505970,-82.0859480
6,North Howard Street,29349,35.0497825,-82.0904020
47,Bomar Street,29349,35.0501740,-82.0851770
3,Littlefield Street,29349,35.0488875,-82.0947140
42,Bobo Street,29349,35.0507304,-82.0853220
13,West Miller Street,29349,35.0517385,-82.0970860
1,Mcmillin Circle,29349,35.0539275,-82.0921930
20,Bishop Street,29349,35.0492815,-82.0921470
18,Bobo Street,29349,35.0493500,-82.0865880
107,Elberta Street,29349,35.0545085,-82.0983955
106,Cardinal Avenue,29349,35.0554545,-82.0973310
36,North Howard Street,29349,35.0546240,-82.0926885
30,Prospect Street,29349,35.0515025,-82.0879255
3,Burnett Street,29349,35.0551670,-82.0926870
16,Burnett Street,29349,35.0561065,-82.0913175
57,North Main Street,29349,35.0509910,-82.0919180
102,Cardinal Avenue,29349,35.0552355,-82.0970630
9,Bridges Street,29349,35.0535855,-82.0909205
58,North Howard Street,29349,35.0565895,-82.0948850
6,Bishop Street,29349,35.0481530,-82.0912140
22,Bridges Street,29349,35.0542570,-82.0897410
45,Park Road,29349,35.0480950,-82.0976465
5,Bridges Street,29349,35.0532550,-82.0912005
59,North Main Street,29349,35.0512730,-82.0920815
155,Wingo Street,29349,35.0482750,-82.0928865
12,Culbreth Street,29349,35.0530675,-82.0895085
2,Littlejohn Street,29349,35.0544425,-82.0906685
6,Mcmillin Circle,29349,35.0534155,-82.0917510
25,Bobo Street,29349,35.0497595,-82.0867195
33,Bomar Street,29349,35.0492815,-82.0859110
1,North Miller Street,29349,35.0536040,-82.0959065
179,Brock Street,29349,35.0482265,-82.0829960
12,Carter Street,29349,35.0514120,-82.0858770
20,Oakland Avenue,29349,35.0491420,-82.0957320
180,Wingo Street,29349,35.0481100,-82.0944245
28,North Howard Street,29349,35.0535675,-82.0923440
44,North Howard Street,29349,35.0553645,-82.0933600
181,Brock Street,29349,35.0483910,-82.0827695
1141,Compton Bridge Road,29349,35.0572745,-82.0980525
173,Wingo Street,29349,35.0480220,-82.0935045
8,Littlefield Street,29349,35.0492190,-82.0939115
2,Mcmillin Circle,29349,35.0536695,-82.0920120
62,Bomar Street,29349,35.0508945,-82.0834835
88,North Main Street,29349,35.0530765,-82.0965760
45,North Howard Street,29349,35.0551010,-82.0941030
23,Littlefield Street,29349,35.0509975,-82.0930305
121,Wingo Street,29349,35.0486745,-82.0916810
51,Bomar Street,29349,35.0503480,-82.0848205
17,Bobo Street,29349,35.0492365,-82.0871475
162,Wingo Street,29349,35.0486285,-82.0931740
32,North Howard Street,29349,35.0540845,-82.0925905
127,Wingo Street,29349,35.0486280,-82.0919100
19,Bishop Street,29349,35.0490470,-82.0925150
24,Price Street,29349,35.0486425,-82.0847420
47,North Main Street,29349,35.0496665,-82.0914915
6,Carter Street,29349,35.0520130,-82.0866470
1,Orchard Lane,29349,35.0535890,-82.0978130
17,West Miller Street,29349,35.0512320,-82.0975845
18,Collins Avenue,29349,35.0484650,-82.0853900
17,Prospect Street,29349,35.0511700,-82.0888975
20,Canady Street,29349,35.0512395,-82.0966965
24,Bishop Street,29349,35.0497270,-82.0922820
10,Littlefield Street,29349,35.0493770,-82.0937940
18,Bishop Street,29349,35.0490975,-82.0920705
14,Carter Street,29349,35.0513135,-82.0856670
12,Littlefield Street,29349,35.0494795,-82.0934885
40,Prospect Street,29349,35.0524540,-82.0873670
156,Wingo Street,29349,35.0488575,-82.0933210
56,Bobo Street,29349,35.0516825,-82.0843850
30,North Howard Street,29349,35.0538060,-82.0924955
8,Culbreth Street,29349,35.0531850,-82.0898105
12,Canady Street,29349,35.0503485,-82.0955105
23,Bishop Street,29349,35.0497685,-82.0928740
94,North Main Street,29349,35.0530730,-82.0973285
34,Bishop Street,29349,35.0506675,-82.0926315
11,Littlejohn Street,29349,35.0546230,-82.0920755
1,Bridges Street,29349,35.0526700,-82.0916445
114,Elberta Street,29349,35.0548710,-82.0973325
14,Bridges Street,29349,35.0538470,-82.0901800
47,Bobo Street,29349,35.0511420,-82.0854190
15,Littlejohn Street,29349,35.0548295,-82.0923600
90,North Main Street,29349,35.0530680,-82.0968270
7,West Miller Street,29349,35.0521970,-82.0967670
3,Canady Street,29349,35.0494945,-82.0950500
35,Bishop Street,29349,35.0513708,-82.0941872
6,Bobo Street,29349,35.0482265,-82.0875120
28,Oakland Avenue,29349,35.0498250,-82.0970395
29,Canady Street,29349,35.0509335,-82.0971670
18,Price Street,29349,35.0478395,-82.0855165
40,Bobo Street,29349,35.0505925,-82.0854340
54,North Howard Street,29349,35.0564100,-82.0944685
19,Prospect Street,29349,35.0514750,-82.0885925
83,North Main Street,29349,35.0525930,-82.0960880
5,Lawrence Street,29349,35.0483478,-82.0884290
14,Bomar Street,29349,35.0478565,-82.0865685
36,Oakland Avenue,29349,35.0504500,-82.0972685
35,Price Street,29349,35.0493415,-82.0845930
26,North Main Street,29349,35.0533995,-82.0922105
9,Orchard Lane,29349,35.0544935,-82.0968140
12,Littlejohn Street,29349,35.0550790,-82.0922220
43,Bomar Street,29349,35.0498440,-82.0853900
17,Bishop Street,29349,35.0488575,-82.0924010
1,Brookwood Drive,29349,35.0512140,-82.0957510
53,Bobo Street,29349,35.0517055,-82.0848875
2,South Howard Street,29349,35.0486555,-82.0901325
5,Canady Street,29349,35.0495535,-82.0952285
2,Culbreth Street,29349,35.0534425,-82.0902540
24,Bobo Street,29349,35.0497650,-82.0861800
4,Culbreth Street,29349,35.0533590,-82.0901210
104,Elberta Street,29349,35.0537935,-82.0983890
50,North Humphrey Street,29349,35.0485730,-82.0938598
12,Bridges Street,29349,35.0535435,-82.0904505
24,North Howard Street,29349,35.0530550,-82.0920390
9,Vanpatton Street,29349,35.0548335,-82.0908515
1,Littlejohn Street,29349,35.0538945,-82.0910335
17,Oakland Avenue,29349,35.0479720,-82.0947641
5,Bobo Street,29349,35.0483810,-82.0878425
112,Elberta Street,29349,35.0546190,-82.0975450
12,Mcmillin Circle,29349,35.0529675,-82.0913985
109,Elberta Street,29349,35.0547120,-82.0981935
7,Orchard Lane,29349,35.0542625,-82.0970500
16,Bishop Street,29349,35.0489482,-82.0919873
37,Bobo Street,29349,35.0504610,-82.0860605
38,Bishop Street,29349,35.0516205,-82.0932535
6,South Howard Street,29349,35.0483130,-82.0897545
15,Prospect Street,29349,35.0508105,-82.0889620
17,Price Street,29349,35.0479945,-82.0859535
9,South Howard Street,29349,35.0482805,-82.0889960
22,Oakland Avenue,29349,35.0492775,-82.0960125
28,Price Street,29349,35.0489340,-82.0844730
19,Canady Street,29349,35.0504830,-82.0964630
1,Littlejohn Street,29349,35.0536210,-82.0912255
8,Burnett Street,29349,35.0555245,-82.0918785
10,Collins Avenue,29349,35.0479250,-82.0845925
21,Bobo Street,29349,35.0495110,-82.0869655
37,Bishop Street,29349,35.0516210,-82.0944745
5,Littlejohn Street,29349,35.0544095,-82.0915250
8,Vanpatton Street,29349,35.0552835,-82.0910925
22,Bobo Street,29349,35.0495585,-82.0863440
10,Hollywood Street,29349,35.0503830,-82.0874965
19,West Miller Street,29349,35.0510612,-82.0977941
42,Bishop Street,29349,35.0516590,-82.0939095
12,Bishop Street,29349,35.0482880,-82.0917685
25,Bridges Street,29349,35.0548270,-82.0899490
6,Orchard Lane,29349,35.0538830,-82.0966360
12,Vanpatton Street,29349,35.0548630,-82.0914400
22,Prospect Street,29349,35.0506725,-82.0884555
1,Prince Circle,29349,35.0503355,-82.0947810
12,Prospect Street,29349,35.0497803,-82.0887082
27,Littlefield Street,29349,35.0513357,-82.0927602
167,Wingo Street,29349,35.0481925,-82.0931325
34,North Howard Street,29349,35.0542555,-82.0926500
8,Mcmillin Circle,29349,35.0531505,-82.0917180
10,Vanpatton Street,29349,35.0550655,-82.0912660
208,Johnson Hills Drive,29349,35.0508730,-82.0829335
112,Maple Drive,29349,35.0560550,-82.0983675
30,Price Street,29349,35.0491020,-82.0843380
5,Prospect Street,29349,35.0497970,-82.0896880
179,Wingo Street,29349,35.0478095,-82.0938580
14,Canady Street,29349,35.0508470,-82.0960590
58,Bomar Street,29349,35.0503900,-82.0838855
143,Wingo Street,29349,35.0483630,-82.0927360
11,Bishop Street,29349,35.0482260,-82.0921600
10,Prince Circle,29349,35.0507165,-82.0944965
47,North Howard Street,29349,35.0552965,-82.0943370
23,Prospect Street,29349,35.0517700,-82.0883735
4,Bobo Street,29349,35.0479855,-82.0877400
50,Bomar Street,29349,35.0496610,-82.0845475
98,North Main Street,29349,35.0530945,-82.0979935
14,Oakland Avenue,29349,35.0484280,-82.0945490
45,Bobo Street,29349,35.0509605,-82.0855925
49,Prospect Street,29349,35.0532585,-82.0875140
110,Elberta Street,29349,35.0544375,-82.0977400
21,Bishop Street,29349,35.0492135,-82.0933755
32,Bobo Street,29349,35.0503410,-82.0856425
5,Littlefield Street,29349,35.0490975,-82.0945525
16,Collins Avenue,29349,35.0482555,-82.0850930
52,Bobo Street,29349,35.0512070,-82.0847605
26,Oakland Avenue,29349,35.0495790,-82.0966090
15,Prospect Street,29349,35.0510190,-82.0891575
29,Littlefield Street,29349,35.0516735,-82.0925865
15,West Miller Street,29349,35.0514990,-82.0972480
20,Price Street,29349,35.0479590,-82.0853881
17,Bridges Street,29349,35.0542345,-82.0903935
13,Bishop Street,29349,35.0483830,-82.0922600
20,Bobo Street,29349,35.0494545,-82.0864610
2,Brookwood Drive,29349,35.0513226,-82.0951433
10,Culbreth Street,29349,35.0531305,-82.0896825
111,Elberta Street,29349,35.0549220,-82.0980005
102,North Main Street,29349,35.0530240,-82.0982820
3,Rhinehart Street,29349,35.0529775,-82.0903265
34,Prospect Street,29349,35.0519025,-82.0876600
7,Culbreth Street,29349,35.0533610,-82.0892730
59,Bomar Street,29349,35.0508935,-82.0842430
55,North Main Street,29349,35.0507125,-82.0918170
40,North Howard Street,29349,35.0549600,-82.0931850
11,Burnett Street,29349,35.0558030,-82.0921570
54,Bomar Street,29349,35.0500040,-82.0842195
1,Carter Street,29349,35.0526730,-82.0870590
86,North Main Street,29349,35.0530665,-82.0963280
15,Burnett Street,29349,35.0563785,-82.0918270
22,Bishop Street,29349,35.0494815,-82.0921675
212,Johnson Hills Drive,29349,35.0505700,-82.0824575
11,Littlefield Street,29349,35.0498425,-82.0939700
17,South Howard Street,29349,35.0478775,-82.0882915
63,Bomar Street,29349,35.0510140,-82.0841530
3,Hollywood Street,29349,35.0510525,-82.0878830
7,Bobo Street,29349,35.0485275,-82.0877360
2,Lawrence Street,29349,35.0485380,-82.0880805
20,Prospect Street,29349,35.0504210,-82.0886740
31,Bishop Street,29349,35.0511115,-82.0938295
15,Bobo Street,29349,35.0491040,-82.0873385
3,Harris Street,29349,35.0522455,-82.0886410
43,North Main Street,29349,35.0493120,-82.0913110
13,Canady Street,29349,35.0500345,-82.0958200
5,West Miller Street,29349,35.0525180,-82.0965050
106,Elberta Street,29349,35.0540025,-82.0981535
38,Oakland Avenue,29349,35.0505295,-82.0981695
1131,Compton Bridge Road,29349,35.0570925,-82.0978220
23,Bridges Street,29349,35.0546615,-82.0900550
5,Rhinehart Street,29349,35.0528085,-82.0899125
45,Bomar Street,29349,35.0500090,-82.0852770
2,Davis Court,29349,35.0512755,-82.0930910
108,Elberta Street,29349,35.0542290,-82.0979550
108,Cardinal Avenue,29349,35.0555675,-82.0975745
3,Prince Circle,29349,35.0505120,-82.0949420
14,Burnett Street,29349,35.0559355,-82.0914710
4,Orchard Lane,29349,35.0536745,-82.0968235
13,Burnett Street,29349,35.0561945,-82.0919830
6,Burnett Street,29349,35.0553500,-82.0920180
27,Bobo Street,29349,35.0498810,-82.0865710
3,Lawrence Street,29349,35.0482178,-82.0882211
2,Prospect Street,29349,35.0487940,-82.0902395
6,Littlefield Street,29349,35.0490173,-82.0940683
8,Bridges Street,29349,35.0533250,-82.0906430
51,Church Street,29349,35.0536585,-82.0887625
7,Littlejohn Street,29349,35.0545375,-82.0917390
15,Bishop Street,29349,35.0485385,-82.0923000
26,North Howard Street,29349,35.0532635,-82.0921800
28,Bobo Street,29349,35.0499690,-82.0859911
27,Price Street,29349,35.0489210,-82.0849080
14,Littlefield Street,29349,35.0497005,-82.0934450
26,Price Street,29349,35.0488114,-82.0845834
48,Bobo Street,29349,35.0510330,-82.0850260
13,Prince Circle,29349,35.0506425,-82.0951255
5,Orchard Lane,29349,35.0539865,-82.0972675
13,Littlefield Street,29349,35.0500320,-82.0937705
49,Church Street,29349,35.0535555,-82.0890350
4,Hollywood Street,29349,35.0506490,-82.0879625
9,Bishop Street,29349,35.0479940,-82.0921590
9,Mcmillin Circle,29349,35.0537015,-82.0914850
6,Bridges Street,29349,35.0531770,-82.0907395
84,North Main Street,29349,35.0530820,-82.0959755
110,Cardinal Avenue,29349,35.0557220,-82.0978240
7,Bridges Street,29349,35.0534185,-82.0910670
33,Bishop Street,29349,35.0512505,-82.0939700
8,Orchard Lane,29349,35.0540610,-82.0964430
5,Culbreth Street,29349,35.0534540,-82.0895050
44,Bishop Street,29349,35.0520720,-82.0940210
9,Littlefield Street,29349,35.0496160,-82.0940805
12,Burnett Street,29349,35.0557380,-82.0916300
11,Canady Street,29349,35.0498990,-82.0957070
7,Burnett Street,29349,35.0554435,-82.0924780
5,Harris Street,29349,35.0524040,-82.0890250
41,Bishop Street,29349,35.0519062,-82.0949072
7,Vanpatton Street,29349,35.0550358,-82.0907143
172,Wingo Street,29349,35.0483330,-82.0938523
2,Rhinehart Street,29349,35.0527715,-82.0905490
4,Harris Street,29349,35.0527560,-82.0887270
25,Bomar Street,29349,35.0486655,-82.0863385
14,Prince Circle,29349,35.0509945,-82.0947930
18,North Main Street,29349,35.0527165,-82.0918975
4,Bridges Street,29349,35.0530235,-82.0908655
8,Hollywood Street,29349,35.0504675,-82.0876560
2,Bridges Street,29349,35.0528575,-82.0910385
11,Bridges Street,29349,35.0537125,-82.0908100
8,Prince Circle,29349,35.0506040,-82.0942995
36,Bomar Street,29349,35.0490640,-82.0853505
30,Oakland Avenue,29349,35.0499755,-82.0972970
6,Vanpatton Street,29349,35.0554525,-82.0909290
7,Mcmillin Circle,29349,35.0538620,-82.0915735
11,Mcmillin Circle,29349,35.0534570,-82.0913705
53,Prospect Street,29349,35.0534585,-82.0873060
18,Oakland Avenue,29349,35.0489460,-82.0954180
14,Hollywood Street,29349,35.0500445,-82.0869600
6,Canady Street,29349,35.0498845,-82.0946960
5,Vanpatton Street,29349,35.0551890,-82.0905890
24,Oakland Avenue,29349,35.0494475,-82.0963660
144,Wingo Street,29349,35.0487385,-82.0929400
11153,Asheville Highway,29349,35.0368075,-82.0780295
595,Nature Walk Way,29349,35.0301615,-82.0793595
393,Split Oak Lane,29349,35.0300070,-82.0773980
317,Split Oak Lane,29349,35.0325920,-82.0787865
329,Split Oak Lane,29349,35.0324555,-82.0780990
806,Skipping Rock Court,29349,35.0298430,-82.0784190
321,Split Oak Lane,29349,35.0325640,-82.0785730
352,Split Oak Lane,29349,35.0316340,-82.0781265
385,Split Oak Lane,29349,35.0303265,-82.0774865
309,Split Oak Lane,29349,35.0326725,-82.0791895
407,Split Oak Lane,29349,35.0293975,-82.0781065
389,Split Oak Lane,29349,35.0301680,-82.0774520
504,Mason Road,29349,35.0331195,-82.0799305
396,Split Oak Lane,29349,35.0299855,-82.0779080
589,Nature Walk Way,29349,35.0302785,-82.0792250
583,Nature Walk Way,29349,35.0303755,-82.0790795
571,Nature Walk Way,29349,35.0306665,-82.0788055
547,Nature Walk Way,29349,35.0311560,-82.0787085
376,Split Oak Lane,29349,35.0306480,-82.0780080
360,Split Oak Lane,29349,35.0313040,-82.0780810
11230,Asheville Highway,29349,35.0391265,-82.0790790
373,Split Oak Lane,29349,35.0308195,-82.0775670
364,Split Oak Lane,29349,35.0311200,-82.0780730
381,Split Oak Lane,29349,35.0304937,-82.0775159
369,Split Oak Lane,29349,35.0309875,-82.0775725
805,Skipping Rock Court,29349,35.0299695,-82.0788725
580,Nature Walk Way,29349,35.0307415,-82.0792625
377,Split Oak Lane,29349,35.0306585,-82.0775340
325,Split Oak Lane,29349,35.0325360,-82.0783240
11157,Asheville Highway,29349,35.0379895,-82.0781255
11060,Asheville Highway,29349,35.0384165,-82.0737805
816,Skipping Rock Court,29349,35.0303670,-82.0783075
330,Split Oak Lane,29349,35.0321080,-82.0783395
356,Split Oak Lane,29349,35.0314759,-82.0780912
388,Split Oak Lane,29349,35.0301415,-82.0779135
341,Split Oak Lane,29349,35.0321285,-82.0777530
526,Nature Walk Way,29349,35.0313265,-82.0792365
365,Split Oak Lane,29349,35.0311485,-82.0775910
384,Split Oak Lane,29349,35.0303155,-82.0779485
11036,Asheville Highway,29349,35.0378900,-82.0736095
411,Split Oak Lane,29349,35.0294175,-82.0783215
439,Split Oak Lane,29349,35.0298575,-82.0795960
222,Serenity Path,29349,35.0322415,-82.0789870
342,Split Oak Lane,29349,35.0319540,-82.0782085
11156,Asheville Highway,29349,35.0389235,-82.0778215
372,Split Oak Lane,29349,35.0308080,-82.0780270
11260,Asheville Highway,29349,35.0395310,-82.0794955
11030,Asheville Highway,29349,35.0375980,-82.0732130
305,Split Oak Lane,29349,35.0326765,-82.0793865
529,Nature Walk Way,29349,35.0314963,-82.0787773
304,Fern Drive,29349,35.0398925,-82.0795350
324,Split Oak Lane,29349,35.0321440,-82.0785353
577,Nature Walk Way,29349,35.0305090,-82.0789255
368,Split Oak Lane,29349,35.0309732,-82.0780486
380,Split Oak Lane,29349,35.0304855,-82.0779870
313,Split Oak Lane,29349,35.0326430,-82.0789935
516,Franklin Asberry Lane,29349,35.0338793,-82.0875105
22,Buice Street,29349,35.0426903,-82.0864465
50,Bishop Street,29349,35.0523247,-82.0947130
29,Bishop Street,29349,35.0509439,-82.0936046
259,North Main Street,29349,35.0521064,-82.1011134
50,Mill Street,29349,35.0465751,-82.0929869
