House number,Street name,Postal code,Latitude,Longitude
623,North Shamrock Avenue,29356,35.1807273,-82.1922254
412,North Trade Avenue,29356,35.1797280,-82.1962280
601,North Howard Avenue,29356,35.1813881,-82.2018549
109,Cannon Street,29356,35.1808561,-82.2038178
221,East Greenwood Street,29356,35.1813812,-82.1930994
602,North Randolph Avenue,29356,35.1810423,-82.2020936
105,East Durham Street,29356,35.1804159,-82.1974550
330,North Trade Avenue,29356,35.1786932,-82.1944007
102,Mcdowell Street,29356,35.1804292,-82.2027741
204,Mcdowell Street,29356,35.1801452,-82.2039177
221,East Greenwood Street,29356,35.1813236,-82.1930177
500,North Trade Avenue,29356,35.1802866,-82.1976078
221,East Greenwood Street,29356,35.1812641,-82.1929262
620,North Shamrock Avenue,29356,35.1794488,-82.1921137
101,Cannon Street,29356,35.1806084,-82.2032151
101,East Durham Street,29356,35.1806336,-82.1975534
106,East Greenwood Street,29356,35.1790485,-82.1942184
220,East Greenwood Street,29356,35.1811208,-82.1924330
610,North Shamrock Avenue,29356,35.1788621,-82.1923201
201,North Laurel Avenue,29356,35.1810295,-82.1971196
621,North Shamrock Avenue,29356,35.1805507,-82.1921984
208,Mcdowell Street,29356,35.1799907,-82.2042930
707,North Randolph Avenue,29356,35.1817897,-82.2048696
619,North Shamrock Avenue,29356,35.1793095,-82.1933227
221,East Greenwood Street,29356,35.1814884,-82.1928362
221,East Greenwood Street,29356,35.1814248,-82.1927544
102,East Durham Street,29356,35.1804548,-82.1969925
520,North Randolph Avenue,29356,35.1799942,-82.2007029
105,East Durham Street,29356,35.1803860,-82.1974765
701,North Randolph Avenue,29356,35.1811500,-82.2046764
605,North Randolph Avenue,29356,35.1810658,-82.2029358
224,East Greenwood Street,29356,35.1814484,-82.1921276
130,Sarah Drive,29356,35.1789093,-82.2027370
622,North Shamrock Avenue,29356,35.1793818,-82.1917837
516,North Randolph Avenue,29356,35.1795764,-82.2001754
204,North Laurel Avenue,29356,35.1814559,-82.1970882
221,East Greenwood Street,29356,35.1815440,-82.1929105
511,North Howard Avenue,29356,35.1799709,-82.1995028
206,Mcdowell Street,29356,35.1799369,-82.2039280
106,Cannon Street,29356,35.1804576,-82.2038698
130,Boysenberry Lane,29356,35.1848618,-82.1892424
209,Camelia Circle,29356,35.1825258,-82.1734382
291,North Oak Avenue,29356,35.1794730,-82.1845702
232,North Valley Road,29356,35.1809628,-82.1880312
320,Irish Hills Lane,29356,35.1806055,-82.1895712
404,North Pine Avenue,29356,35.1822624,-82.1842065
103,East Crestview Street,29356,35.1811751,-82.1738479
279,North Oak Avenue,29356,35.1794033,-82.1844237
341,Irish Hills Lane,29356,35.1792255,-82.1888808
104,Heritage Estates Street,29356,35.1786478,-82.1843482
120,Boysenberry Lane,29356,35.1851288,-82.1897185
499,East Prince Road,29356,35.1801075,-82.1797045
349,Irish Hills Lane,29356,35.1785690,-82.1888288
336,Irish Hills Lane,29356,35.1793654,-82.1895668
108,Skyuka Circle,29356,35.1795094,-82.1782225
202,Pacolet Drive,29356,35.1795025,-82.1765487
333,Irish Hills Lane,29356,35.1797081,-82.1891204
275,North Oak Avenue,29356,35.1792869,-82.1843298
145,Brook Avenue,29356,35.1811780,-82.1873462
295,North Oak Avenue,29356,35.1795971,-82.1846563
215,North Valley Road,29356,35.1800807,-82.1881384
297,North Oak Avenue,29356,35.1796536,-82.1847038
718,North Elm Avenue,29356,35.1854299,-82.1837571
340.,Irish Hills Lane,29356,35.1791208,-82.1894701
504,East Prince Road,29356,35.1803350,-82.1781071
293,North Oak Avenue,29356,35.1795370,-82.1846118
222,North Valley Road,29356,35.1804520,-82.1875237
332,Irish Hills Lane,29356,35.1796426,-82.1897306
234,North Valley Road,29356,35.1812236,-82.1880128
101,East Crestview Street,29356,35.1811319,-82.1741261
303,North Oak Avenue,29356,35.1801889,-82.1851278
277,North Oak Avenue,29356,35.1793452,-82.1843763
241,North Valley Road,29356,35.1817602,-82.1879507
730,North Elm Avenue,29356,35.1859255,-82.1838123
144,Brook Avenue,29356,35.1813478,-82.1866894
107,West Crestview Street,29356,35.1802775,-82.1757507
305,North Oak Avenue,29356,35.1803971,-82.1853548
344,Irish Hills Lane,29356,35.1788948,-82.1894325
712,North Elm Avenue,29356,35.1848580,-82.1843664
104,Skyuka Circle,29356,35.1793988,-82.1779630
212,Pacolet Drive,29356,35.1809189,-82.1766115
104,Pacolet Drive,29356,35.1787768,-82.1765748
103,Greenway Street,29356,35.1799616,-82.1871770
1401,East Rutherford Street,29356,35.1788433,-82.1728618
143,Brook Avenue,29356,35.1811403,-82.1872101
1764,Highway 14 East,29356,35.1794964,-82.1610856
1508,East Rutherford Street,29356,35.1788553,-82.1699293
110,East Crestview Street,29356,35.1807528,-82.1721474
1768,Highway 14 East,29356,35.1795176,-82.1609918
1736,Highway 14 East,29356,35.1801123,-82.1623736
1750,Highway 14 East,29356,35.1793230,-82.1617923
1744,Highway 14 East,29356,35.1801983,-82.1620334
1742,Highway 14 East,29356,35.1801766,-82.1621204
1756,Highway 14 East,29356,35.1794206,-82.1613669
1859,Highway 14 East,29356,35.1830740,-82.1595126
1740,Highway 14 East,29356,35.1801546,-82.1622049
1506,East Rutherford Street,29356,35.1786545,-82.1703285
1760,Highway 14 East,29356,35.1794711,-82.1611794
1506,East Rutherford Street,29356,35.1785881,-82.1703085
1772,Highway 14 East,29356,35.1795429,-82.1608980
1508,East Rutherford Street,29356,35.1788547,-82.1699961
1738,Highway 14 East,29356,35.1801331,-82.1622970
1506,East Rutherford Street,29356,35.1785671,-82.1700362
107,Chestnut Road,29356,35.1723710,-82.1990120
503,West Rutherford Street,29356,35.1681183,-82.1960709
428,West Finger Street,29356,35.1642929,-82.1921336
150,North Trade Avenue,29356,35.1771742,-82.1908980
209,North Howard Avenue,29356,35.1772186,-82.1928735
320,North Trade Avenue,29356,35.1784161,-82.1936729
267,West Durham Street,29356,35.1736677,-82.2013486
221,Morning View Drive,29356,35.1669711,-82.2007484
209,North Randolph Avenue,29356,35.1762056,-82.1946462
209,West Rutherford Street,29356,35.1726964,-82.1908119
420,North Shamrock Avenue,29356,35.1777699,-82.1907005
503,North Randolph Avenue,29356,35.1784295,-82.1991350
157,North Trade Avenue,29356,35.1769022,-82.1912055
211,Morning View Lane,29356,35.1667089,-82.1998512
507,West Finger Street,29356,35.1641708,-82.1944519
211,North Randolph Avenue,29356,35.1763332,-82.1948357
605,West Finger Street,29356,35.1658214,-82.1938903
316,North Trade Avenue,29356,35.1782188,-82.1934287
211,West Coleman Street,29356,35.1737806,-82.1936485
213,West Rutherford Street,29356,35.1724830,-82.1911926
213,North Randolph Avenue,29356,35.1764611,-82.1952534
203,West Greenwood Street,29356,35.1766490,-82.1958858
8,Fourviews Lane,29356,35.1658539,-82.1989161
221,North Howard Avenue,29356,35.1775040,-82.1940300
130,Morning View Drive,29356,35.1671590,-82.1990381
103,Jason Road,29356,35.1634205,-82.1946051
104,West Coleman Street,29356,35.1758368,-82.1924716
201,West Greenwood Street,29356,35.1767912,-82.1957466
311,Forest Avenue,29356,35.1743861,-82.2006026
209,West Coleman Street,29356,35.1739905,-82.1934400
212,West Durham Street,29356,35.1710547,-82.1988902
275,Morning View Drive,29356,35.1660151,-82.1992246
310,Morning View Drive,29356,35.1646079,-82.1994331
235,North Randolph Avenue,29356,35.1767306,-82.1954004
501,North Randolph Avenue,29356,35.1783164,-82.1988746
230,Mountain View Road,29356,35.1702528,-82.2013284
239,Kirland Avenue,29356,35.1784216,-82.2014605
404,North Randolph Avenue,29356,35.1784592,-82.1978937
604,North Shamrock Avenue,29356,35.1783250,-82.1918091
218,West Coleman Street,29356,35.1743049,-82.1945440
407,North Randolph Avenue,29356,35.1781405,-82.1981696
609,North Shamrock Avenue,29356,35.1782628,-82.1926456
220,Morning View Drive,29356,35.1676854,-82.2005561
261,Morning View Drive,29356,35.1663472,-82.2002290
502,Forest Avenue,29356,35.1722352,-82.2022241
205,West Coleman Street,29356,35.1745172,-82.1931279
170,Sarah Drive,29356,35.1783271,-82.2022269
218,Forest Avenue,29356,35.1737176,-82.1973206
609,North Shamrock Avenue,29356,35.1782150,-82.1925259
269,West Durham Street,29356,35.1739512,-82.2014043
211,West Rutherford Street,29356,35.1726138,-82.1909621
216,West Greenwood Street,29356,35.1763929,-82.1966649
103,North Randolph Avenue,29356,35.1745200,-82.1911723
404,Forest Avenue,29356,35.1744347,-82.2024285
396,Forest Avenue,29356,35.1749343,-82.2008367
207,North Howard Avenue,29356,35.1770339,-82.1925745
216,West Durham Street,29356,35.1713096,-82.1990146
195,West Simmons Street,29356,35.1780371,-82.1986180
156,North Trade Avenue,29356,35.1772326,-82.1909959
111,West Greenwood Street,29356,35.1772461,-82.1946756
312,North Randolph Avenue,29356,35.1776390,-82.1963116
251,Forest Avenue,29356,35.1737163,-82.1988828
202,Forest Avenue,29356,35.1723346,-82.1964453
306,South Lee Avenue,29356,35.1737509,-82.1828964
700,South Randolph Avenue,29356,35.1645324,-82.1846299
121,East Prince Road,29356,35.1780219,-82.1831950
103,Redbird Lane,29356,35.1772190,-82.1894613
200,South Randolph Avenue,29356,35.1705322,-82.1878893
720,South Bomar Avenue,29356,35.1691690,-82.1794853
112,North Lee Avenue,29356,35.1772840,-82.1850648
511,South Lee Avenue,29356,35.1717859,-82.1806231
700,South Randolph Avenue,29356,35.1646526,-82.1844795
204,East Blue Ridge Street,29356,35.1725283,-82.1838199
508,South Church Avenue,29356,35.1701622,-82.1828665
214,South Johnson Street,29356,35.1671570,-82.1879417
114,South Oakleaf Drive,29356,35.1756759,-82.1789650
500,South Church Avenue,29356,35.1710048,-82.1835639
720,South Bomar Avenue,29356,35.1692961,-82.1790716
720,South Bomar Avenue,29356,35.1696383,-82.1800222
227,East Rutherford Street,29356,35.1756598,-82.1872025
100,Thrift Circle,29356,35.1785167,-82.1812058
300,South Howard Avenue,29356,35.1706133,-82.1862712
103,East Mallory Street,29356,35.1732653,-82.1858788
410,South Shamrock Avenue,29356,35.1715572,-82.1855773
720,South Bomar Avenue,29356,35.1691218,-82.1795399
111,North Johnson Street,29356,35.1676048,-82.1882362
361,Irish Hills Lane,29356,35.1777729,-82.1893397
200,South Randolph Avenue,29356,35.1700976,-82.1882027
700,South Randolph Avenue,29356,35.1651588,-82.1839928
735,South Bomar Avenue,29356,35.1683826,-82.1789624
101,Shady Lane,29356,35.1753436,-82.1767352
103,Redbird Lane,29356,35.1775352,-82.1891058
200,South Randolph Avenue,29356,35.1703612,-82.1880641
720,South Bomar Avenue,29356,35.1696331,-82.1793502
115,Park Avenue,29356,35.1709850,-82.1773820
200,South Randolph Avenue,29356,35.1701357,-82.1887115
700,South Randolph Avenue,29356,35.1640387,-82.1844360
720,South Bomar Avenue,29356,35.1694670,-82.1785451
406,North Shamrock Avenue,29356,35.1768984,-82.1895483
700,South Randolph Avenue,29356,35.1650521,-82.1840188
219,East Rutherford Street,29356,35.1755992,-82.1874782
604,West Finger Street,29356,35.1650549,-82.1845853
114,East Rutherford Street,29356,35.1749361,-82.1882301
201,East Blue Ridge Street,29356,35.1726633,-82.1843103
700,South Randolph Avenue,29356,35.1647087,-82.1843855
202,Rose Lane,29356,35.1743125,-82.1884014
611,South Howard Avenue,29356,35.1656817,-82.1825621
200,South Randolph Avenue,29356,35.1708182,-82.1884132
700,South Randolph Avenue,29356,35.1644132,-82.1846781
720,South Bomar Avenue,29356,35.1697298,-82.1795667
407,East Rutherford Street,29356,35.1765822,-82.1849871
206,South Church Avenue,29356,35.1736154,-82.1856032
720,South Bomar Avenue,29356,35.1697721,-82.1795140
203,South Johnson Street,29356,35.1672353,-82.1859189
102,East Short Street,29356,35.1646697,-82.1817659
130,North Trade Avenue,29356,35.1763863,-82.1898397
200,South Randolph Avenue,29356,35.1699569,-82.1884592
207,East Tucker Street,29356,35.1697237,-82.1827459
700,South Randolph Avenue,29356,35.1640649,-82.1844763
720,South Bomar Avenue,29356,35.1693934,-82.1799648
100,South Edgewood Avenue,29356,35.1775179,-82.1777200
103,Redbird Lane,29356,35.1775126,-82.1890564
200,South Randolph Avenue,29356,35.1709064,-82.1881589
118,Brookwood Creek Drive,29356,35.1728733,-82.1775956
720,South Bomar Avenue,29356,35.1692024,-82.1789647
403,South Bomar Avenue,29356,35.1741249,-82.1802994
105,East Short Street,29356,35.1649492,-82.1818354
310,West Finger Street,29356,35.1639868,-82.1877064
138,Brookwood Creek Drive,29356,35.1721116,-82.1768091
196,Moss Lane,29356,35.1744813,-82.1750286
118,North Trade Avenue,29356,35.1757340,-82.1891498
200,South Randolph Avenue,29356,35.1701382,-82.1879448
700,South Randolph Avenue,29356,35.1644956,-82.1839736
720,South Bomar Avenue,29356,35.1694247,-82.1784924
103,Redbird Lane,29356,35.1776605,-82.1888434
209,South Shamrock Avenue,29356,35.1738863,-82.1867793
700,South Randolph Avenue,29356,35.1640124,-82.1843933
720,South Bomar Avenue,29356,35.1693775,-82.1785470
603,South Shamrock Avenue,29356,35.1688199,-82.1828424
295,Moss Lane,29356,35.1749801,-82.1738306
700,South Randolph Avenue,29356,35.1639841,-82.1843580
301,South Bomar Avenue,29356,35.1750665,-82.1810017
202,South Howard Avenue,29356,35.1712097,-82.1870911
113,Park Avenue,29356,35.1712928,-82.1776205
720,South Bomar Avenue,29356,35.1693039,-82.1799661
104,West Tucker Street,29356,35.1678806,-82.1844735
200,South Randolph Avenue,29356,35.1702461,-82.1883907
200,South Howard Avenue,29356,35.1714728,-82.1869553
720,South Bomar Avenue,29356,35.1688177,-82.1794805
494,South Randolph Avenue,29356,35.1661873,-82.1874056
205,East Turner Street,29356,35.1685251,-82.1816244
207,West Rutherford Street,29356,35.1729764,-82.1903833
142,North Trade Avenue,29356,35.1767298,-82.1902401
700,South Randolph Avenue,29356,35.1643572,-82.1847472
731,South Bomar Avenue,29356,35.1685004,-82.1788452
318,South Howard Avenue,29356,35.1700238,-82.1860909
103,East Prince Road,29356,35.1771180,-82.1841540
200,South Randolph Avenue,29356,35.1703599,-82.1877040
120,South Oakleaf Drive,29356,35.1749224,-82.1790480
111,West Crawford Street,29356,35.1710715,-82.1873155
700,South Randolph Avenue,29356,35.1645279,-82.1840165
700,South Randolph Avenue,29356,35.1640868,-82.1845414
122,Brookwood Creek Drive,29356,35.1726899,-82.1775133
205,South Shamrock Avenue,29356,35.1742245,-82.1870213
102,South Poplar Avenue,29356,35.1770938,-82.1809074
700,South Randolph Avenue,29356,35.1642269,-82.1840197
127,South Oakleaf Drive,29356,35.1741858,-82.1784938
103,Redbird Lane,29356,35.1777074,-82.1889632
116,West Jones Street,29356,35.1707064,-82.1869054
700,South Randolph Avenue,29356,35.1648242,-82.1842999
720,South Bomar Avenue,29356,35.1689931,-82.1790265
205,South Johnson Street,29356,35.1671046,-82.1862874
508,South Shamrock Avenue,29356,35.1701285,-82.1849466
200,South Randolph Avenue,29356,35.1701079,-82.1886327
720,South Bomar Avenue,29356,35.1693511,-82.1800176
111,North Johnson Street,29356,35.1676147,-82.1881913
132,North Trade Avenue,29356,35.1765030,-82.1899234
209,East Rutherford Street,29356,35.1754652,-82.1877780
200,South Randolph Avenue,29356,35.1699976,-82.1881868
103,East Tucker Street,29356,35.1686464,-82.1836467
119,East Prince Road,29356,35.1779428,-82.1833059
720,South Bomar Avenue,29356,35.1693462,-82.1799134
103,Redbird Lane,29356,35.1773652,-82.1892203
200,South Randolph Avenue,29356,35.1705678,-82.1886653
720,South Bomar Avenue,29356,35.1692123,-82.1794290
110,East Rutherford Street,29356,35.1748311,-82.1883724
103,Redbird Lane,29356,35.1777356,-82.1890244
202,South Church Avenue,29356,35.1737980,-82.1857525
720,South Bomar Avenue,29356,35.1688651,-82.1795315
103,Redbird Lane,29356,35.1773331,-82.1891637
605,South Church Avenue,29356,35.1694978,-82.1817910
700,South Randolph Avenue,29356,35.1651981,-82.1839560
126,Brookwood Creek Drive,29356,35.1725250,-82.1773578
400,East Rutherford Street,29356,35.1756913,-82.1850809
205,West Rutherford Street,29356,35.1731130,-82.1900743
700,South Randolph Avenue,29356,35.1650831,-82.1839918
720,South Bomar Avenue,29356,35.1689114,-82.1795873
103,Redbird Lane,29356,35.1772004,-82.1894003
612,South Church Avenue,29356,35.1689261,-82.1817235
101,North Howard Avenue,29356,35.1749846,-82.1895430
700,South Randolph Avenue,29356,35.1647377,-82.1843585
720,South Bomar Avenue,29356,35.1697224,-82.1799272
501,South Church Avenue,29356,35.1712654,-82.1831432
700,South Randolph Avenue,29356,35.1643844,-82.1842513
114,South Church Avenue,29356,35.1746006,-82.1867031
519,South Shamrock Avenue,29356,35.1701851,-82.1835891
410,South Shamrock Avenue,29356,35.1715383,-82.1857867
357,Irish Hills Lane,29356,35.1779697,-82.1890035
200,South Randolph Avenue,29356,35.1705464,-82.1889147
146,North Trade Avenue,29356,35.1771231,-82.1906890
700,South Randolph Avenue,29356,35.1646818,-82.1844176
720,South Bomar Avenue,29356,35.1689182,-82.1791233
720,South Bomar Avenue,29356,35.1695575,-82.1784342
201,East Rutherford Street,29356,35.1753823,-82.1880686
200,South Randolph Avenue,29356,35.1704171,-82.1882043
720,South Bomar Avenue,29356,35.1694393,-82.1800211
112,North Trade Avenue,29356,35.1755791,-82.1891300
211,East Rutherford Street,29356,35.1755479,-82.1877237
200,South Randolph Avenue,29356,35.1706560,-82.1886665
604,South Church Avenue,29356,35.1695022,-82.1821934
106,West Jones Street,29356,35.1708467,-82.1865969
720,South Bomar Avenue,29356,35.1688823,-82.1790834
303,South Shamrock Avenue,29356,35.1734966,-82.1862970
506,East Rutherford Street,29356,35.1766362,-82.1834496
1109,East Rutherford Street,29356,35.1784653,-82.1749790
130,Brookwood Creek Drive,29356,35.1724081,-82.1771346
189,Rose Lane,29356,35.1746940,-82.1882275
200,South Randolph Avenue,29356,35.1703892,-82.1881371
700,South Randolph Avenue,29356,35.1647666,-82.1843290
720,South Bomar Avenue,29356,35.1691075,-82.1795682
103,Redbird Lane,29356,35.1771703,-82.1893391
700,South Randolph Avenue,29356,35.1643986,-82.1838276
920,East Rutherford Street,29356,35.1776061,-82.1777347
117,North Johnson Street,29356,35.1672480,-82.1891831
402,East Blue Ridge Street,29356,35.1735050,-82.1814728
700,South Randolph Avenue,29356,35.1643075,-82.1841580
103,South Oakleaf Drive,29356,35.1772420,-82.1783996
216,Jan Street,29356,35.1784092,-82.1850181
200,South Randolph Avenue,29356,35.1706967,-82.1884028
501,South Lee Avenue,29356,35.1725307,-82.1812321
720,South Bomar Avenue,29356,35.1695908,-82.1794029
110,South Lyles Avenue,29356,35.1748453,-82.1850175
305,South Randolph Avenue,29356,35.1703288,-82.1868434
1109,East Rutherford Street,29356,35.1784645,-82.1750648
720,South Bomar Avenue,29356,35.1692246,-82.1795066
506,South Shamrock Avenue,29356,35.1705963,-82.1851116
205,East Rutherford Street,29356,35.1754591,-82.1878513
200,South Randolph Avenue,29356,35.1698664,-82.1884405
411,South Lyles Avenue,29356,35.1722262,-82.1825110
700,South Randolph Avenue,29356,35.1645704,-82.1840719
720,South Bomar Avenue,29356,35.1697220,-82.1799962
220,Jan Street,29356,35.1782534,-82.1850533
204,Rose Lane,29356,35.1741291,-82.1882578
720,South Bomar Avenue,29356,35.1696790,-82.1794064
720,South Bomar Avenue,29356,35.1692580,-82.1799099
103,Redbird Lane,29356,35.1776830,-82.1889045
700,South Randolph Avenue,29356,35.1649913,-82.1841651
217,East Rutherford Street,29356,35.1755661,-82.1876178
409,South Lee Avenue,29356,35.1730430,-82.1815129
116,North Trade Avenue,29356,35.1756761,-82.1891010
125,South Oakleaf Drive,29356,35.1742513,-82.1784980
700,South Randolph Avenue,29356,35.1643215,-82.1848464
720,South Bomar Avenue,29356,35.1697657,-82.1798710
103,Redbird Lane,29356,35.1773878,-82.1892720
607,South Howard Avenue,29356,35.1659258,-82.1826679
316,South Howard Avenue,29356,35.1701220,-82.1865040
700,South Randolph Avenue,29356,35.1649922,-82.1840703
720,South Bomar Avenue,29356,35.1693003,-82.1798572
200,North Lyles Avenue,29356,35.1772683,-82.1862276
103,East Blue Ridge Street,29356,35.1722866,-82.1850374
105,South Poplar Avenue,29356,35.1766994,-82.1801373
720,South Bomar Avenue,29356,35.1691562,-82.1789089
166,Moss Lane,29356,35.1745110,-82.1753587
190,Rose Lane,29356,35.1745390,-82.1883845
356,Irish Hills Lane,29356,35.1783185,-82.1898297
200,South Randolph Avenue,29356,35.1702359,-82.1879520
700,South Randolph Avenue,29356,35.1644693,-82.1839358
720,South Bomar Avenue,29356,35.1688710,-82.1791780
515,South Bomar Avenue,29356,35.1716935,-82.1785006
200,South Randolph Avenue,29356,35.1708040,-82.1881516
1109,East Rutherford Street,29356,35.1784739,-82.1748980
720,South Bomar Avenue,29356,35.1692499,-82.1790158
703,South Bomar Avenue,29356,35.1697991,-82.1774002
103,Redbird Lane,29356,35.1775880,-82.1892047
200,South Randolph Avenue,29356,35.1704749,-82.1886552
138,North Trade Avenue,29356,35.1765754,-82.1900896
104,West Jones Street,29356,35.1708960,-82.1865066
720,South Bomar Avenue,29356,35.1687714,-82.1794247
404,South Howard Avenue,29356,35.1684196,-82.1846493
200,South Randolph Avenue,29356,35.1705066,-82.1878222
146,Brookwood Creek Drive,29356,35.1718335,-82.1765637
118,East Rutherford Street,29356,35.1749394,-82.1880898
103,Moss Lane,29356,35.1745028,-82.1766233
700,South Randolph Avenue,29356,35.1642509,-82.1840774
720,South Bomar Avenue,29356,35.1696752,-82.1799819
410,East Mallory Street,29356,35.1745749,-82.1823400
103,Redbird Lane,29356,35.1774046,-82.1893166
104,East Thompson Street,29356,35.1737606,-82.1863343
700,South Randolph Avenue,29356,35.1644462,-82.1846512
403,East Turner Street,29356,35.1698584,-82.1807353
210,Moss Lane,29356,35.1744518,-82.1746954
103,Redbird Lane,29356,35.1771363,-82.1892802
307,South Church Avenue,29356,35.1729432,-82.1846323
720,South Bomar Avenue,29356,35.1697262,-82.1794578
217,South Johnson Street,29356,35.1663658,-82.1882941
200,South Randolph Avenue,29356,35.1702182,-82.1883148
211,Moss Lane,29356,35.1750842,-82.1743757
720,South Bomar Avenue,29356,35.1696367,-82.1794591
771,East Rutherford Street,29356,35.1783475,-82.1812630
203,East Rutherford Street,29356,35.1754317,-82.1879527
101,North Howard Avenue,29356,35.1749500,-82.1896147
511,South Church Avenue,29356,35.1703544,-82.1825606
715,South Bomar Avenue,29356,35.1691855,-82.1781015
405,East Rutherford Street,29356,35.1764629,-82.1851276
200,South Randolph Avenue,29356,35.1703008,-82.1889055
720,South Bomar Avenue,29356,35.1691812,-82.1795628
110,East Rutherford Street,29356,35.1749379,-82.1884185
200,South Randolph Avenue,29356,35.1704248,-82.1889101
720,South Bomar Avenue,29356,35.1694680,-82.1784362
109,East Earle Street,29356,35.1766013,-82.1883063
700,South Randolph Avenue,29356,35.1642792,-82.1841152
134,Brookwood Creek Drive,29356,35.1722837,-82.1769646
410,South Lyles Avenue,29356,35.1719365,-82.1829869
311,East Rutherford Street,29356,35.1761286,-82.1860043
102,South Poplar Avenue,29356,35.1771529,-82.1809351
700,South Randolph Avenue,29356,35.1644309,-82.1838854
720,South Bomar Avenue,29356,35.1697653,-82.1799399
609,South Howard Avenue,29356,35.1658205,-82.1826196
211,South Randolph Avenue,29356,35.1706490,-82.1874962
700,South Randolph Avenue,29356,35.1649583,-82.1841970
720,South Bomar Avenue,29356,35.1696839,-82.1795105
109,Moss Lane,29356,35.1752858,-82.1760987
511,South Shamrock Avenue,29356,35.1704302,-82.1842564
116,South Poplar Avenue,29356,35.1755437,-82.1802732
720,South Bomar Avenue,29356,35.1689295,-82.1790287
107,East Rutherford Street,29356,35.1753537,-82.1883691
110,North Trade Avenue,29356,35.1755195,-82.1889134
502,South Randolph Avenue,29356,35.1666222,-82.1848994
200,South Randolph Avenue,29356,35.1702765,-82.1884550
407,East Mallory Street,29356,35.1748779,-82.1825906
700,South Randolph Avenue,29356,35.1643842,-82.1847127
720,South Bomar Avenue,29356,35.1695152,-82.1783815
512,South Shamrock Avenue,29356,35.1701372,-82.1844783
720,South Bomar Avenue,29356,35.1689616,-82.1790671
723,South Bomar Avenue,29356,35.1688384,-82.1784794
103,Redbird Lane,29356,35.1775578,-82.1891552
200,South Randolph Avenue,29356,35.1702812,-82.1876971
409,South Randolph Avenue,29356,35.1677965,-82.1851295
102,West Jones Street,29356,35.1709271,-82.1864481
720,South Bomar Avenue,29356,35.1693970,-82.1800738
110,North Johnson Street,29356,35.1681395,-82.1886478
140,North Trade Avenue,29356,35.1766399,-82.1901876
152,Brookwood Creek Drive,29356,35.1715754,-82.1765949
114,North Trade Avenue,29356,35.1756204,-82.1890485
503,South Bomar Avenue,29356,35.1727355,-82.1793216
700,South Randolph Avenue,29356,35.1650252,-82.1840458
720,South Bomar Avenue,29356,35.1695103,-82.1784889
135,Redbird Lane,29356,35.1782722,-82.1884798
200,South Randolph Avenue,29356,35.1700775,-82.1885684
700,South Randolph Avenue,29356,35.1643399,-82.1841984
720,South Bomar Avenue,29356,35.1694198,-82.1785997
105,East Rutherford Street,29356,35.1753047,-82.1885051
716,Howard Street,29356,35.1647372,-82.1829669
710,Landrum Trail,29356,35.1695807,-82.1665001
205,Lakeview Drive,29356,35.1747927,-82.1675033
162,Page Creek Boulevard,29356,35.1698982,-82.1669057
200,Kirby Street,29356,35.1779129,-82.1688312
114,Lakeview Drive,29356,35.1764465,-82.1700829
166,Page Creek Boulevard,29356,35.1697232,-82.1670049
328,Moss Lane,29356,35.1740184,-82.1697053
252,Page Creek Boulevard,29356,35.1697622,-82.1653491
309,Redland Road,29356,35.1735866,-82.1678899
265,Page Creek Boulevard,29356,35.1703223,-82.1652690
312,Moss Lane,29356,35.1741953,-82.1716998
126,Page Creek Boulevard,29356,35.1711428,-82.1659443
178,Page Creek Boulevard,29356,35.1693030,-82.1673157
611,Downing Way,29356,35.1703039,-82.1655416
116,Rickert Avenue,29356,35.1756950,-82.1678687
705,Landrum Trail,29356,35.1698342,-82.1664165
248,Page Creek Boulevard,29356,35.1696308,-82.1654492
138,Page Creek Boulevard,29356,35.1707590,-82.1662426
170,Page Creek Boulevard,29356,35.1695867,-82.1670756
124,Rickert Avenue,29356,35.1761967,-82.1657877
607,Downing Way,29356,35.1703866,-82.1657251
107,Lakeview Drive,29356,35.1774434,-82.1706112
218,Page Creek Boulevard,29356,35.1686656,-82.1661639
217,Redland Road,29356,35.1752770,-82.1699564
150,Page Creek Boulevard,29356,35.1703017,-82.1665689
1506,East Rutherford Street,29356,35.1785507,-82.1701171
606,Downing Way,29356,35.1701546,-82.1659217
313,Moss Lane,29356,35.1748247,-82.1717980
720,Landrum Trail,29356,35.1694048,-82.1662464
307,Redland Road,29356,35.1737920,-82.1681562
158,Page Creek Boulevard,29356,35.1700268,-82.1668193
110,Lakeview Drive,29356,35.1766664,-82.1703638
110,Kirby Street,29356,35.1776817,-82.1704145
174,Page Creek Boulevard,29356,35.1694327,-82.1672187
208,Lakeview Drive,29356,35.1741785,-82.1674869
602,Downing Way,29356,35.1702279,-82.1661209
244,Page Creek Boulevard,29356,35.1694702,-82.1655466
146,Page Creek Boulevard,29356,35.1704476,-82.1664517
219,Boyce Street,29356,35.1781958,-82.1655753
115,Kirby Street,29356,35.1783307,-82.1701283
182,Page Creek Boulevard,29356,35.1691473,-82.1673949
1506,East Rutherford Street,29356,35.1785217,-82.1702837
260,Page Creek Boulevard,29356,35.1700151,-82.1651527
116,Lakeview Drive,29356,35.1761284,-82.1698273
154,Page Creek Boulevard,29356,35.1701643,-82.1666915
130,Page Creek Boulevard,29356,35.1709962,-82.1660535
709,Landrum Trail,29356,35.1697335,-82.1662234
119,Lakeview Drive,29356,35.1762553,-82.1692983
264,Page Creek Boulevard,29356,35.1701847,-82.1650220
142,Page Creek Boulevard,29356,35.1706189,-82.1663503
230,Page Creek Boulevard,29356,35.1690589,-82.1659214
1506,East Rutherford Street,29356,35.1785342,-82.1701980
106,Page Creek Boulevard,29356,35.1716685,-82.1650767
615,Downing Way,29356,35.1702100,-82.1653878
306,Kirby Street,29356,35.1783866,-82.1666669
280,Page Creek Boulevard,29356,35.1708557,-82.1646020
243,Page Creek Boulevard,29356,35.1695699,-82.1658486
256,Page Creek Boulevard,29356,35.1699113,-82.1652396
816,Earlesville Way,29356,35.1690512,-82.1663112
204,Boyce Street,29356,35.1774506,-82.1675834
614,Downing Way,29356,35.1699574,-82.1655912
234,Page Creek Boulevard,29356,35.1691859,-82.1657658
238,Page Creek Boulevard,29356,35.1693398,-82.1656671
271,Page Creek Boulevard,29356,35.1705994,-82.1651099
715,Landrum Trail,29356,35.1696443,-82.1660712
610,Downing Way,29356,35.1700435,-82.1657525
123,South Randolph Avenue,29356,35.1705626,-82.1879566
407,South Lyles Avenue,29356,35.1725415,-82.1827924
214,Page Creek Boulevard,29356,35.1684296,-82.1663240
616,East Earle Street,29356,35.1801075,-82.1813008
205,North Laurel Avenue,29356,35.1811250,-82.1975039
91,East Durham Street,29356,35.1808034,-82.1972466
199,Page Creek Boulevard,29356,35.1689742,-82.1668442
808,Earlesville Way,29356,35.1692484,-82.1666462
222,Page Creek Boulevard,29356,35.1687358,-82.1661144
195,Page Creek Boulevard,29356,35.1690389,-82.1670681
812,Earlesville Way,29356,35.1691433,-82.1664658
203,Page Creek Boulevard,29356,35.1688728,-82.1666709
186,Page Creek Boulevard,29356,35.1690341,-82.1675792
804,Earlesville Way,29356,35.1693328,-82.1668030
207,Page Creek Boulevard,29356,35.1687960,-82.1665118
226,Page Creek Boulevard,29356,35.1688738,-82.1659930
200,South Randolph Avenue,29356,35.1698392,-82.1884458
409,South Church Avenue,29356,35.1716445,-82.1835220
1752,Highway 14 East,29356,35.1793658,-82.1617680
300,East Rutherford Street,29356,35.1751619,-82.1861061
104,East Rutherford Street,29356,35.1748592,-82.1887139
103,East Rutherford Street,29356,35.1752340,-82.1886609
106,East Rutherford Street,29356,35.1748258,-82.1886296
108,East Rutherford Street,29356,35.1748466,-82.1885473
204,East Rutherford Street,29356,35.1750733,-82.1876990
208,East Rutherford Street,29356,35.1751249,-82.1874510
101,East Rutherford Street,29356,35.1752072,-82.1887670
109,East Rutherford Street,29356,35.1753190,-82.1882301
508,East Rutherford Street,29356,35.1768390,-82.1829183
211,North Trade Avenue,29356,35.1772272,-82.1917600
100,Redland Road,29356,35.1769591,-82.1750055
104,Redland Road,29356,35.1760099,-82.1727810
107,South Lyles Avenue,29356,35.1753880,-82.1847909
109,Hotel Hill Drive,29356,35.1798600,-82.1910155
115,Hotel Hill Drive,29356,35.1805770,-82.1908715
414,North Trade Avenue,29356,35.1798900,-82.1965185
507,North Howard Avenue,29356,35.1797395,-82.1984575
103,East Durham Street,29356,35.1806120,-82.1976715
231,East Greenwood Street,29356,35.1819280,-82.1922975
202,Mcdowell Street,29356,35.1801970,-82.2035685
515,North Randolph Avenue,29356,35.1790530,-82.2000990
200,Mcdowell Street,29356,35.1802790,-82.2034145
103,Hotel Hill Drive,29356,35.1792040,-82.1910845
220,Mcdowell Street,29356,35.1803550,-82.2046840
115,North Laurel Avenue,29356,35.1805675,-82.1964745
206,East Greenwood Street,29356,35.1801496,-82.1933892
102,North Laurel Avenue,29356,35.1803945,-82.1946680
416,North Trade Avenue,29356,35.1800185,-82.1968500
612,North Shamrock Avenue,29356,35.1786742,-82.1927321
515,North Howard Avenue,29356,35.1802350,-82.1996440
400,North Trade Avenue,29356,35.1791650,-82.1947665
401,North Howard Avenue,29356,35.1789294,-82.1966955
210,North Laurel Avenue,29356,35.1818645,-82.1979285
207,Mcdowell Street,29356,35.1796845,-82.2038490
104,East Greenwood Street,29356,35.1788820,-82.1942600
200,East Greenwood Street,29356,35.1798230,-82.1935065
509,North Howard Avenue,29356,35.1797055,-82.1988725
110,East Greenwood Street,29356,35.1795685,-82.1937860
513,North Randolph Avenue,29356,35.1789490,-82.1998865
514,North Trade Avenue,29356,35.1808565,-82.1990665
521,North Randolph Avenue,29356,35.1794495,-82.2013885
311,North Howard Avenue,29356,35.1785640,-82.1958875
601,North Randolph Avenue,29356,35.1807620,-82.2023870
209,East Greenwood Street,29356,35.1808685,-82.1935925
403,North Howard Avenue,29356,35.1790165,-82.1968665
502,North Trade Avenue,29356,35.1804800,-82.1981190
635,North Shamrock Avenue,29356,35.1814315,-82.1917100
217,East Greenwood Street,29356,35.1812480,-82.1932040
105,Cannon Street,29356,35.1809500,-82.2040156
409,North Howard Avenue,29356,35.1792315,-82.1974900
608,North Shamrock Avenue,29356,35.1786945,-82.1919450
105,Hotel Hill Drive,29356,35.1794235,-82.1910395
103,North Laurel Avenue,29356,35.1803015,-82.1958595
501,North Howard Avenue,29356,35.1794550,-82.1981770
629,North Shamrock Avenue,29356,35.1812480,-82.1918150
408,North Trade Avenue,29356,35.1794285,-82.1956320
205,East Greenwood Street,29356,35.1804525,-82.1937730
140,Sarah Drive,29356,35.1787630,-82.2021655
703,North Randolph Avenue,29356,35.1815785,-82.2044395
101,Hotel Hill Drive,29356,35.1789965,-82.1912295
517,North Howard Avenue,29356,35.1805095,-82.2000340
615,North Randolph Avenue,29356,35.1813770,-82.2037205
104,North Laurel Avenue,29356,35.1805330,-82.1949155
209,North Laurel Avenue,29356,35.1814535,-82.1980223
510,North Trade Avenue,29356,35.1807105,-82.1987415
113,Hotel Hill Drive,29356,35.1802990,-82.1908940
502,North Trade Avenue,29356,35.1807365,-82.1979620
406,North Trade Avenue,29356,35.1792300,-82.1953430
202,North Laurel Avenue,29356,35.1813370,-82.1968160
110,North Laurel Avenue,29356,35.1809035,-82.1958095
604,North Randolph Avenue,29356,35.1811150,-82.2023310
119,Sarah Drive,29356,35.1797180,-82.2022640
611,North Randolph Avenue,29356,35.1812974,-82.2033230
233,East Greenwood Street,29356,35.1821765,-82.1920695
117,Hotel Hill Drive,29356,35.1807910,-82.1907905
120,Sarah Drive,29356,35.1793180,-82.2025730
516,North Trade Avenue,29356,35.1809540,-82.1992640
603,North Howard Avenue,29356,35.1814660,-82.2022420
108,Cannon Street,29356,35.1806120,-82.2042400
223,East Greenwood Street,29356,35.1815655,-82.1926025
519,North Randolph Avenue,29356,35.1789450,-82.2012185
711,North Randolph Avenue,29356,35.1812290,-82.2051150
625,North Shamrock Avenue,29356,35.1810215,-82.1919380
527,North Randolph Avenue,29356,35.1799730,-82.2020630
704,North Howard Avenue,29356,35.1799645,-82.1991005
101,Mcdowell Street,29356,35.1801120,-82.2025950
713,North Randolph Avenue,29356,35.1821550,-82.2053730
405,North Howard Avenue,29356,35.1790910,-82.1970800
107,Hotel Hill Drive,29356,35.1796620,-82.1909920
111,Hotel Hill Drive,29356,35.1800840,-82.1909315
114,North Laurel Avenue,29356,35.1812005,-82.1965390
609,North Randolph Avenue,29356,35.1811655,-82.2031510
116,Cannon Street,29356,35.1808845,-82.2049505
523,North Randolph Avenue,29356,35.1795950,-82.2016135
315,North Howard Avenue,29356,35.1787435,-82.1964090
414,North Trade Avenue,29356,35.1801420,-82.1964790
110,Sarah Drive,29356,35.1798430,-82.2030435
705,North Randolph Avenue,29356,35.1817720,-82.2046910
507,North Randolph Avenue,29356,35.1787315,-82.1995440
519,North Howard Avenue,29356,35.1805905,-82.2002615
201,East Greenwood Street,29356,35.1801395,-82.1940090
518,North Trade Avenue,29356,35.1810728,-82.1995938
51,North Laurel Avenue,29356,35.1798245,-82.1948310
100,Skyuka Circle,29356,35.1791940,-82.1772370
147,Brook Avenue,29356,35.1813400,-82.1874825
507,East Earle Street,29356,35.1795670,-82.1832070
238,North Valley Road,29356,35.1812535,-82.1875990
114,Hotel Hill Drive,29356,35.1801445,-82.1904250
113,Heritage Estates Street,29356,35.1788170,-82.1847915
103,West Crestview Street,29356,35.1803305,-82.1750820
204,North Morgan Road,29356,35.1822945,-82.1806055
112,Skyuka Circle,29356,35.1799200,-82.1788249
100,West Crestview Street,29356,35.1810100,-82.1746745
104,East Myrtle Street,29356,35.1813895,-82.1842820
205,Camelia Circle,29356,35.1823720,-82.1740830
104,Hotel Hill Drive,29356,35.1789290,-82.1904840
502,East Prince Road,29356,35.1801520,-82.1785410
106,East Myrtle Street,29356,35.1812335,-82.1848150
405,North Pine Avenue,29356,35.1820024,-82.1847026
116,Hotel Hill Drive,29356,35.1804200,-82.1903060
201,Pacolet Drive,29356,35.1794760,-82.1771565
208,Pacolet Drive,29356,35.1803505,-82.1764855
113,Skyuka Circle,29356,35.1795830,-82.1793880
506,East Earle Street,29356,35.1791285,-82.1829985
203,Camelia Circle,29356,35.1823265,-82.1744405
106,West Briarcliff Drive,29356,35.1796385,-82.1758040
216,Camelia Circle,29356,35.1813095,-82.1728535
510,East Earle Street,29356,35.1793775,-82.1825400
104,East Melrose Avenue,29356,35.1828660,-82.1843645
106,Hotel Hill Drive,29356,35.1792345,-82.1903835
405,North Elm Avenue,29356,35.1818140,-82.1826530
109,Heritage Estates Street,29356,35.1787105,-82.1846855
105,Pacolet Drive,29356,35.1787600,-82.1771765
120,Hotel Hill Drive,29356,35.1807415,-82.1900055
408,North Pine Avenue,29356,35.1827496,-82.1846877
309,North Oak Avenue,29356,35.1809165,-82.1856755
319,Irish Hills Lane,29356,35.1805025,-82.1890300
201,North Oak Avenue,29356,35.1789775,-82.1840675
101,East Briarcliff Drive,29356,35.1799945,-82.1731820
123,Hotel Hill Drive,29356,35.1811915,-82.1902495
107,East Crestview Street,29356,35.1812195,-82.1731155
211,East Prince Road,29356,35.1787694,-82.1820038
107,North Oak Avenue,29356,35.1785960,-82.1838720
405,Asbury Drive,29356,35.1814055,-82.1750190
112,North Elm Avenue,29356,35.1803935,-82.1809065
102,Skyuka Circle,29356,35.1793055,-82.1776845
120,Heritage Estates Street,29356,35.1794020,-82.1849675
305,East Prince Road,29356,35.1791010,-82.1814880
400,North Pine Avenue,29356,35.1820530,-82.1840060
323,Irish Hills Lane,29356,35.1801745,-82.1891096
143,Redbird Lane,29356,35.1787650,-82.1880025
511,East Earle Street,29356,35.1797715,-82.1828865
505,North Elm Avenue,29356,35.1828745,-82.1835260
108,East Melrose Avenue,29356,35.1830810,-82.1841540
211,Camelia Circle,29356,35.1823265,-82.1724510
621,East Earle Street,29356,35.1803740,-82.1818645
310,North Valley Road,29356,35.1831795,-82.1869190
509,North Elm Avenue,29356,35.1832340,-82.1837790
205,Pacolet Drive,29356,35.1801630,-82.1773725
500,North Pine Avenue,29356,35.1835895,-82.1854255
122,Hotel Hill Drive,29356,35.1809490,-82.1897270
200,North Pine Avenue,29356,35.1801870,-82.1824500
504,East Earle Street,29356,35.1790040,-82.1831750
112,Hotel Hill Drive,29356,35.1798955,-82.1904710
100,West Briarcliff Drive,29356,35.1797525,-82.1748715
207,Redbird Lane,29356,35.1791030,-82.1868520
200,Camelia Circle,29356,35.1817710,-82.1744360
311,East Prince Road,29356,35.1794875,-82.1807255
601,North Elm Avenue,29356,35.1835595,-82.1840800
212,North Morgan Road,29356,35.1835175,-82.1802510
105,Skyuka Circle,29356,35.1789815,-82.1784680
345,Irish Hills Lane,29356,35.1788520,-82.1888040
137,Brook Avenue,29356,35.1807120,-82.1867140
214,Pacolet Drive,29356,35.1814070,-82.1765850
102,Hotel Hill Drive,29356,35.1786985,-82.1906065
221,North Morgan Road,29356,35.1850960,-82.1826165
411,North Oak Avenue,29356,35.1817135,-82.1863270
401,Redbird Lane,29356,35.1802650,-82.1845465
306,North Oak Avenue,29356,35.1807345,-82.1849730
306,North Pine Avenue,29356,35.1816400,-82.1836725
112,Heritage Estates Street,29356,35.1790505,-82.1846735
408,North Oak Avenue,29356,35.1815375,-82.1854580
108,Heritage Estates Street,29356,35.1788680,-82.1845235
315,Irish Hills Lane,29356,35.1807455,-82.1890460
104,North Oak Avenue,29356,35.1786540,-82.1832875
401,East Prince Road,29356,35.1797145,-82.1804125
337,Irish Hills Lane,29356,35.1794925,-82.1890895
220,North Valley Road,29356,35.1801555,-82.1875070
230,North Valley Road,29356,35.1807765,-82.1878700
276,North Oak Avenue,29356,35.1795010,-82.1839585
405,East Prince Road,29356,35.1799305,-82.1800650
102,West Briarcliff Drive,29356,35.1796990,-82.1752980
348,Irish Hills Lane,29356,35.1786560,-82.1894195
702,North Elm Avenue,29356,35.1847920,-82.1835235
206,North Valley Road,29356,35.1792960,-82.1873695
105,East Melrose Avenue,29356,35.1832730,-82.1846595
121,Thrift Circle,29356,35.1785855,-82.1794400
104,East Crestview Street,29356,35.1806935,-82.1727545
209,Pacolet Drive,29356,35.1809665,-82.1771590
300,Asbury Drive,29356,35.1803830,-82.1738810
402,Asbury Drive,29356,35.1815000,-82.1742680
206,Camelia Circle,29356,35.1818400,-82.1736625
111,East Asbury Drive,29356,35.1790975,-82.1739095
242,North Valley Road,29356,35.1814765,-82.1877240
206,Pacolet Drive,29356,35.1800875,-82.1764910
302,Redbird Lane,29356,35.1796925,-82.1852065
120,Brook Avenue,29356,35.1808795,-82.1862750
106,West Crestview Street,29356,35.1808215,-82.1757260
145,Redbird Lane,29356,35.1788185,-82.1876375
141,Redbird Lane,29356,35.1787410,-82.1882105
412,North Oak Avenue,29356,35.1820045,-82.1859861
105,Greenway Street,29356,35.1801910,-82.1872430
101,Skyuka Circle,29356,35.1787785,-82.1777720
119,Hotel Hill Drive,29356,35.1810060,-82.1906840
407,North Pine Avenue,29356,35.1822245,-82.1848755
715,North Elm Avenue,29356,35.1847875,-82.1850950
210,Pacolet Drive,29356,35.1806295,-82.1764145
410,North Elm Avenue,29356,35.1823815,-82.1824250
421,North Oak Avenue,29356,35.1819737,-82.1865638
327,Irish Hills Lane,29356,35.1799445,-82.1891255
110,Skyuka Circle,29356,35.1796410,-82.1785070
210,North Valley Road,29356,35.1795575,-82.1873820
104,Greenway Street,29356,35.1796945,-82.1866995
125,Heritage Estates Street,29356,35.1791583,-82.1850780
110,East Asbury Drive,29356,35.1793405,-82.1728370
101,West Crestview Street,29356,35.1803830,-82.1746330
129,Heritage Estates Street,29356,35.1792663,-82.1851641
301,North Oak Avenue,29356,35.1799870,-82.1849380
110,Thrift Circle,29356,35.1786325,-82.1806960
324,Irish Hills Lane,29356,35.1802365,-82.1896400
117,Heritage Estates Street,29356,35.1789320,-82.1848890
110,North Pine Avenue,29356,35.1796930,-82.1821565
109,Skyuka Circle,29356,35.1791645,-82.1789170
210,Camelia Circle,29356,35.1817685,-82.1728970
201,Camelia Circle,29356,35.1822035,-82.1748290
208,Jan Street,29356,35.1786069,-82.1848395
105,East Crestview Street,29356,35.1811756,-82.1734570
139,Redbird Lane,29356,35.1786940,-82.1884080
603,North Elm Avenue,29356,35.1837835,-82.1842660
301,North Pine Avenue,29356,35.1807325,-82.1838470
406,North Pine Avenue,29356,35.1825005,-82.1843985
407,North Oak Avenue,29356,35.1811360,-82.1858625
328,Irish Hills Lane,29356,35.1799380,-82.1896300
110,North Elm Avenue,29356,35.1801105,-82.1807310
107,West Asbury Drive,29356,35.1790460,-82.1750335
620,East Earle Street,29356,35.1799940,-82.1816070
409,North Oak Avenue,29356,35.1813375,-82.1860435
102,West Crestview Street,29356,35.1809740,-82.1749710
141,Brook Avenue,29356,35.1809630,-82.1869575
213,North Valley Road,29356,35.1797480,-82.1878845
406,North Oak Avenue,29356,35.1813345,-82.1852940
403,Redbird Lane,29356,35.1804855,-82.1842400
501,North Elm Avenue,29356,35.1824955,-82.1832065
203,Redbird Lane,29356,35.1788420,-82.1872935
102,East Crestview Street,29356,35.1806250,-82.1731310
506,North Elm Avenue,29356,35.1828730,-82.1828150
204,Camelia Circle,29356,35.1818420,-82.1740460
409,North Pine Avenue,29356,35.1825175,-82.1851095
211,North Pine Avenue,29356,35.1802500,-82.1834775
508,East Prince Road,29356,35.1807725,-82.1774380
310,East Prince Road,29356,35.1791490,-82.1804825
401,North Pine Avenue,29356,35.1816650,-82.1846155
300,North Pine Avenue,29356,35.1811795,-82.1832085
409,North Elm Avenue,29356,35.1820590,-82.1829155
121,Heritage Estates Street,29356,35.1790430,-82.1849885
503,East Earle Street,29356,35.1792980,-82.1836305
307,North Oak Avenue,29356,35.1807050,-82.1855020
410,North Oak Avenue,29356,35.1818440,-82.1855660
225,North Morgan Road,29356,35.1859355,-82.1824830
515,Asbury Drive,29356,35.1818725,-82.1756000
103,East Briarcliff Drive,29356,35.1800560,-82.1725290
116,Heritage Estates Street,29356,35.1792300,-82.1848186
207,Camelia Circle,29356,35.1824375,-82.1737055
203,Pacolet Drive,29356,35.1797495,-82.1771550
1514,East Rutherford Street,29356,35.1790620,-82.1691540
205,Kirby Street,29356,35.1785655,-82.1684130
202,Campbell Avenue,29356,35.1786695,-82.1650395
1851,Highway 14 East,29356,35.1830135,-82.1614410
1510,East Rutherford Street,29356,35.1786290,-82.1696185
324,Kirby Street,29356,35.1786055,-82.1652920
215,Camelia Circle,29356,35.1813510,-82.1720380
320,Kirby Street,29356,35.1788345,-82.1655480
1730,Highway 14 East,29356,35.1799605,-82.1627090
1792,Highway 14 East,29356,35.1804860,-82.1613765
105,East Briarcliff Drive,29356,35.1801545,-82.1721370
1600,East Rutherford Street,29356,35.1793545,-82.1669350
1520,East Rutherford Street,29356,35.1792335,-82.1683300
326,Kirby Street,29356,35.1786282,-82.1651672
1504,East Rutherford Street,29356,35.1786300,-82.1707135
1518,Highway 14 E Street,29356,35.1790915,-82.1686080
1522,East Rutherford Street,29356,35.1793295,-82.1678725
109,West Greenwood Street,29356,35.1775656,-82.1950358
400,West Rutherford Street,29356,35.1708095,-82.1957580
403,North Randolph Avenue,29356,35.1779625,-82.1978615
112,West Durham Street,29356,35.1698085,-82.1985825
223,West Durham Street,29356,35.1714570,-82.1998525
137,Albert Street,29356,35.1763545,-82.2003595
213,Forest Avenue,29356,35.1731580,-82.1977155
503,Forest Avenue,29356,35.1727555,-82.2015555
226,North Randolph Avenue,29356,35.1769635,-82.1948515
600,North Shamrock Avenue,29356,35.1781680,-82.1916750
107,Clearwater Road,29356,35.1635110,-82.1966800
110,Chestnut Road,29356,35.1729890,-82.1985715
301,Forest Avenue,29356,35.1739955,-82.2003710
265,West Durham Street,29356,35.1734425,-82.2012015
200,Forest Avenue,29356,35.1719145,-82.1962495
510,West Rutherford Street,29356,35.1675595,-82.1971725
120,Morning View Drive,29356,35.1668245,-82.1983475
106,Jason Road,29356,35.1622225,-82.1940250
219,Mountain View Road,29356,35.1690785,-82.2008840
113,Carpenter Drive,29356,35.1633305,-82.1954460
215,West Coleman Street,29356,35.1736115,-82.1938920
203,West Coleman Street,29356,35.1751005,-82.1925090
131,Morning View Drive,29356,35.1663850,-82.1988795
170,Albert Street,29356,35.1754710,-82.2026735
216,Mountain View Road,29356,35.1696625,-82.2004025
176,Hillcrest Avenue,29356,35.1704775,-82.1981110
108,West Rutherford Street,29356,35.1747830,-82.1908305
223,North Howard Avenue,29356,35.1777590,-82.1942070
257,West Durham Street,29356,35.1730535,-82.2010785
230,Morning View Drive,29356,35.1677985,-82.2019445
224,West Rutherford Street,29356,35.1730670,-82.1935310
275,West Durham Street,29356,35.1742795,-82.2016100
208,West Durham Street,29356,35.1706654,-82.1987434
300,Morning View Drive,29356,35.1650805,-82.1997080
108,Jason Road,29356,35.1620565,-82.1936930
106,Carpenter Drive,29356,35.1637930,-82.1962420
114,Jason Road,29356,35.1614135,-82.1923630
110,North Randolph Avenue,29356,35.1750580,-82.1911640
102,Carpenter Drive,29356,35.1649560,-82.1963550
213,North Howard Avenue,29356,35.1773850,-82.1932470
229,West Greenwood Street,29356,35.1756460,-82.1968700
206,West Simmons Street,29356,35.1775645,-82.1995270
407,West Rutherford Street,29356,35.1695390,-82.1953580
103,Clearwater Road,29356,35.1643705,-82.1970355
125,Mountain View Road,29356,35.1684015,-82.1987335
105,Clearwater Road,29356,35.1638650,-82.1969110
205,North Randolph Avenue,29356,35.1756170,-82.1943400
201,Clearwater Road,29356,35.1623375,-82.1963645
103,Mountain View Road,29356,35.1682115,-82.1971535
111,Chestnut Road,29356,35.1730100,-82.1995320
505,Forest Avenue,29356,35.1723330,-82.2011885
100,Hillcrest Avenue,29356,35.1717605,-82.1967335
219,North Howard Avenue,29356,35.1775018,-82.1934938
210,West Coleman Street,29356,35.1752190,-82.1935930
429,West Finger Street,29356,35.1632535,-82.1924675
615,North Shamrock Avenue,29356,35.1784985,-82.1931465
128,Albert Street,29356,35.1761240,-82.1995025
402,North Randolph Avenue,29356,35.1782685,-82.1976070
115,Hillcrest Avenue,29356,35.1707810,-82.1971225
607,North Shamrock Avenue,29356,35.1781580,-82.1923810
514,Forest Avenue,29356,35.1703140,-82.2002670
121,Morning View Drive,29356,35.1662200,-82.1984910
106,Dodd Street,29356,35.1784350,-82.1971530
223,Forest Avenue,29356,35.1736330,-82.1980180
226,West Rutherford Street,29356,35.1728790,-82.1937725
226,West Durham Street,29356,35.1717900,-82.1993325
511,Forest Avenue,29356,35.1715785,-82.2003570
510,Forest Avenue,29356,35.1710075,-82.2008480
11,Fourviews Lane,29356,35.1657885,-82.1979930
409,North Randolph Avenue,29356,35.1782530,-82.1984035
201,North Howard Avenue,29356,35.1766576,-82.1920501
208,West Simmons Street,29356,35.1773610,-82.1996505
325,West Rutherford Street,29356,35.1716805,-82.1933160
10,Fourviews Lane,29356,35.1654535,-82.1991125
209,Forest Avenue,29356,35.1729360,-82.1975605
196,Mountain View Road,29356,35.1691059,-82.1979763
272,West Durham Street,29356,35.1742275,-82.2009025
103,Forest Avenue,29356,35.1713650,-82.1964420
108,Carpenter Drive,29356,35.1632870,-82.1960665
106,Chestnut Road,29356,35.1721165,-82.1980010
200,North Trade Avenue,29356,35.1775085,-82.1914060
225,North Howard Avenue,29356,35.1778680,-82.1944750
129,Albert Street,29356,35.1758790,-82.1999435
165,Hillcrest Avenue,29356,35.1702915,-82.1976415
105,Mountain View Road,29356,35.1677845,-82.1978535
201,West Coleman Street,29356,35.1753305,-82.1923120
212,West Simmons Street,29356,35.1771960,-82.1997715
103,Chestnut Road,29356,35.1713195,-82.1982680
313,North Randolph Avenue,29356,35.1771595,-82.1966560
108,West Greenwood Street,29356,35.1777660,-82.1956675
217,Forest Avenue,29356,35.1734145,-82.1978795
222,West Greenwood Street,29356,35.1761260,-82.1969205
218,Kirkland Avenue,29356,35.1781420,-82.2003200
204,Forest Avenue,29356,35.1726400,-82.1966995
313,North Howard Avenue,29356,35.1784790,-82.1962625
104,Jason Road,29356,35.1623820,-82.1946190
101,Carpenter Drive,29356,35.1657610,-82.1966195
108,Dodd Street,29356,35.1781326,-82.1972910
206,Mountain View Road,29356,35.1694940,-82.1998300
218,Kirkland Avenue,29356,35.1779120,-82.2001840
508,Forest Avenue,29356,35.1714340,-82.2012135
256,West Durham Street,29356,35.1733580,-82.2005045
206,West Greenwood Street,29356,35.1765840,-82.1965015
102,West Coleman Street,29356,35.1761130,-82.1922775
201,West Durham Street,29356,35.1702325,-82.1994610
101,Jason Road,29356,35.1633175,-82.1948340
207,West Simmons Street,29356,35.1774265,-82.1990145
433,West Finger Street,29356,35.1637335,-82.1931210
222,West Durham Street,29356,35.1715195,-82.1992425
516,Forest Avenue,29356,35.1699620,-82.1999710
96,Hotel Hill Drive,29356,35.1784940,-82.1909350
601,West Rutherford Street,29356,35.1675815,-82.1959460
175,Hillcrest Avenue,29356,35.1700935,-82.1979025
220,West Coleman Street,29356,35.1741735,-82.1949510
300,West Coleman Street,29356,35.1757060,-82.1920560
210,Morning View Drive,29356,35.1672925,-82.1995139
107,Mountain View Road,29356,35.1674275,-82.1983870
301,North Randolph Avenue,29356,35.1770905,-82.1960725
400,Forest Avenue,29356,35.1749235,-82.2013570
104,Carpenter Drive,29356,35.1643565,-82.1964125
426,West Finger Street,29356,35.1640585,-82.1919725
207,West Coleman Street,29356,35.1742415,-82.1932680
120,Albert Street,29356,35.1757125,-82.1991055
430,West Finger Street,29356,35.1645650,-82.1922465
227,North Howard Avenue,29356,35.1779164,-82.1947795
301,North Howard Avenue,29356,35.1783030,-82.1952055
550,North Shamrock Avenue,29356,35.1780765,-82.1912735
270,Morning View Drive,29356,35.1655455,-82.2001685
155,Hillcrest Avenue,29356,35.1705445,-82.1973655
111,Carpenter Drive,29356,35.1639970,-82.1955575
110,Morning View Drive,29356,35.1665255,-82.1976300
210,North Randolph Avenue,29356,35.1768420,-82.1940430
241,West Durham Street,29356,35.1723705,-82.2004275
137,North Howard Avenue,29356,35.1764635,-82.1912950
204,Mountain View Road,29356,35.1693800,-82.1994645
107,Dodd Street,29356,35.1779180,-82.1969525
302,North Trade Avenue,29356,35.1777980,-82.1922485
605,North Shamrock Avenue,29356,35.1780530,-82.1922110
101,Morning View Drive,29356,35.1653025,-82.1977490
233,West Durham Street,29356,35.1719090,-82.1999440
116,Jason Road,29356,35.1610200,-82.1914230
506,Forest Avenue,29356,35.1717170,-82.2016695
113,Chestnut Road,29356,35.1734455,-82.1998985
201,Carpenter Drive,29356,35.1626970,-82.1957715
200,West Simmons Street,29356,35.1778415,-82.1993955
200,West Coleman Street,29356,35.1755725,-82.1927330
250,Morning View Drive,29356,35.1669155,-82.2014270
109,Jason Road,29356,35.1624655,-82.1930870
110,Green Hill Road,29356,35.1761210,-82.2024065
100,Jason Road,29356,35.1628299,-82.1951215
203,Forest Avenue,29356,35.1719820,-82.1968840
133,North Howard Avenue,29356,35.1759290,-82.1908595
222,West Rutherford Street,29356,35.1732775,-82.1933090
216,Kirkland Avenue,29356,35.1775940,-82.2000375
105,Chestnut Road,29356,35.1718935,-82.1985995
208,Forest Avenue,29356,35.1731730,-82.1969045
405,North Randolph Avenue,29356,35.1780650,-82.1980260
406,North Randolph Avenue,29356,35.1785205,-82.1981700
110,Jason Road,29356,35.1618105,-82.1931710
260,Morning View Drive,29356,35.1663105,-82.2012205
101,Forest Avenue,29356,35.1712630,-82.1961245
125,Albert Street,29356,35.1756656,-82.1997637
205,West Simmons Street,29356,35.1777435,-82.1987805
501,West Finger Street,29356,35.1647011,-82.1932397
401,North Randolph Avenue,29356,35.1778790,-82.1977300
520,North Shamrock Avenue,29356,35.1779815,-82.1909895
303,North Howard Avenue,29356,35.1783725,-82.1954685
104,Hillcrest Avenue,29356,35.1711910,-82.1974320
242,West Durham Street,29356,35.1727930,-82.1999805
105,Carpenter Drive,29356,35.1650305,-82.1957120
217,West Greenwood Street,29356,35.1760250,-82.1964240
104,Highway 14 West,29356,35.1647205,-82.1984225
100,Carpenter Drive,29356,35.1653190,-82.1969515
515,Forest Avenue,29356,35.1709035,-82.1998505
223,West Greenwood Street,29356,35.1758991,-82.1966451
105,Dodd Street,29356,35.1781460,-82.1965890
505,West Finger Street,29356,35.1643185,-82.1936465
509,Forest Avenue,29356,35.1719395,-82.2007065
104,Albert Street,29356,35.1744825,-82.1986965
610,West Rutherford Street,29356,35.1669380,-82.1975170
500,West Rutherford Street,29356,35.1682250,-82.1966970
21,Fourviews Lane,29356,35.1652245,-82.1986175
101,East Durant Street,29356,35.1776095,-82.1921545
207,Forest Avenue,29356,35.1725675,-82.1973340
110,West Greenwood Street,29356,35.1775520,-82.1958190
203,Clearwater Road,29356,35.1619050,-82.1962345
402,Forest Avenue,29356,35.1747035,-82.2019890
220,West Rutherford Street,29356,35.1736110,-82.1931515
139,North Howard Avenue,29356,35.1764860,-82.1914785
228,West Greenwood Street,29356,35.1759315,-82.1971385
220,Kirkland Avenue,29356,35.1785275,-82.2006245
101,Clearwater Road,29356,35.1647760,-82.1970535
401,Forest Avenue,29356,35.1737105,-82.2018865
650,West Finger Street,29356,35.1687920,-82.1945825
395,West Rutherford Street,29356,35.1705355,-82.1940115
309,North Howard Avenue,29356,35.1784295,-82.1957195
116,South Oakleaf Drive,29356,35.1753835,-82.1790050
410,South Howard Avenue,29356,35.1680625,-82.1842835
100,North Shamrock Avenue,29356,35.1756405,-82.1881020
305,South Randolph Avenue,29356,35.1699265,-82.1868360
310,South Lee Avenue,29356,35.1734555,-82.1827110
517,South Shamrock Avenue,29356,35.1703368,-82.1840149
404,East Brookwood Drive,29356,35.1734595,-82.1773890
404,South Bomar Avenue,29356,35.1736414,-82.1806948
607,South Shamrock Avenue,29356,35.1685080,-82.1827300
106,East Tucker Street,29356,35.1679540,-82.1829205
201,East Mallory Street,29356,35.1736525,-82.1850540
703,South Randolph Avenue,29356,35.1650510,-82.1833630
408,South Lee Avenue,29356,35.1725880,-82.1823310
111,North Lee Avenue,29356,35.1770035,-82.1853510
101,North Bomar Avenue,29356,35.1773025,-82.1833110
502,South Shamrock Avenue,29356,35.1706810,-82.1849485
125,Brookwood Creek Drive,29356,35.1727235,-82.1769820
404,South Randolph Avenue,29356,35.1678550,-82.1858550
504,South Lee Avenue,29356,35.1717415,-82.1817390
200,South Lee Avenue,29356,35.1749870,-82.1838760
118,South Oakleaf Drive,29356,35.1751320,-82.1790700
100,East Earle Street,29356,35.1761980,-82.1887135
201,East Prince Road,29356,35.1783965,-82.1828345
303,South Church Avenue,29356,35.1731845,-82.1848025
103,North Johnson Street,29356,35.1681695,-82.1868530
216,West Finger Street,29356,35.1649485,-82.1855830
209,Jan Street,29356,35.1784245,-82.1845890
104,South Edgewood Avenue,29356,35.1769075,-82.1778645
812,East Rutherford Street,29356,35.1774640,-82.1789015
104,South Poplar Avenue,29356,35.1767745,-82.1807775
510,South Bomar Avenue,29356,35.1716850,-82.1794055
108,South Edgewood Avenue,29356,35.1763430,-82.1778725
250,East Roland Street,29356,35.1714830,-82.1829310
608,South Church Avenue,29356,35.1691795,-82.1819690
910,East Rutherford Street,29356,35.1774520,-82.1779085
112,South Edgewood Avenue,29356,35.1757880,-82.1778995
201,North Church Avenue,29356,35.1761565,-82.1874630
301,South Lyles Avenue,29356,35.1738580,-82.1836215
204,East Earle Street,29356,35.1765845,-82.1870370
611,East Rutherford Street,29356,35.1771370,-82.1834485
402,South Shamrock Avenue,29356,35.1723705,-82.1863070
201,South Lyles Avenue,29356,35.1747760,-82.1843720
108,South Poplar Avenue,29356,35.1762665,-82.1804595
202,West Finger Street,29356,35.1661960,-82.1851595
306,South Lyles Avenue,29356,35.1731565,-82.1838040
113,North Lee Avenue,29356,35.1771638,-82.1854803
206,Rose Lane,29356,35.1742332,-82.1878381
128,South Howard Avenue,29356,35.1723020,-82.1877535
113,North Johnson Street,29356,35.1675420,-82.1885425
125,Park Avenue,29356,35.1705540,-82.1772890
200,East Thompson Street,29356,35.1741590,-82.1855615
103,North Oak Avenue,29356,35.1781690,-82.1834840
330,West Finger Street,29356,35.1645585,-82.1887980
206,North Lyles Avenue,29356,35.1775230,-82.1864255
211,South Johnson Street,29356,35.1668545,-82.1873620
115,North Howard Avenue,29356,35.1755183,-82.1900790
110,Brookwood Creek Drive,29356,35.1732445,-82.1778730
605,South Bomar Avenue,29356,35.1709460,-82.1780090
505,East Brookwood Drive,29356,35.1737610,-82.1751300
408,South Shamrock Avenue,29356,35.1716390,-82.1860240
501,South Bomar Avenue,29356,35.1730335,-82.1795105
364,Irish Hills Lane,29356,35.1777714,-82.1901291
609,South Randolph Avenue,29356,35.1655050,-82.1834460
210,South Bomar Avenue,29356,35.1753000,-82.1819415
119,Brookwood Creek Drive,29356,35.1729210,-82.1771355
101,Pacolet Drive,29356,35.1785175,-82.1771510
404,South Lyles Avenue,29356,35.1722830,-82.1832090
1000,East Rutherford Street,29356,35.1775890,-82.1772430
124,West Jones Street,29356,35.1705070,-82.1873360
211,Peach Avenue,29356,35.1664460,-82.1817925
100,North Bomar Avenue,29356,35.1776685,-82.1828010
310,South Church Avenue,29356,35.1724700,-82.1847325
308,South Church Avenue,29356,35.1726642,-82.1848940
314,East Brookwood Drive,29356,35.1735065,-82.1781400
222,West Finger Street,29356,35.1644715,-82.1862545
220,West Finger Street,29356,35.1646285,-82.1859540
601,South Howard Avenue,29356,35.1665160,-82.1826695
110,South Shamrock Avenue,29356,35.1745835,-82.1878390
501,East Rutherford Street,29356,35.1766845,-82.1846695
290,Moss Lane,29356,35.1744455,-82.1736850
410,South Bomar Avenue,29356,35.1728065,-82.1803545
103,North Howard Avenue,29356,35.1751195,-82.1897200
206,South Lyles Avenue,29356,35.1739450,-82.1844610
721,Howard Avenue,29356,35.1643560,-82.1822040
217,Jan Street,29356,35.1782325,-82.1847770
117,South Edgewood Avenue,29356,35.1749780,-82.1774645
1304,East Rutherford Street,29356,35.1781610,-82.1732985
141,Brookwood Creek Drive,29356,35.1721940,-82.1764355
144,North Trade Avenue,29356,35.1769094,-82.1905124
601,South Howard Avenue,29356,35.1662590,-82.1825065
305,East Earle Street,29356,35.1773625,-82.1859250
502,East Rutherford Street,29356,35.1763710,-82.1836245
111,East Prince Road,29356,35.1777465,-82.1835500
503,East Brookwood Drive,29356,35.1738545,-82.1754625
1005,East Rutherford Street,29356,35.1781270,-82.1772910
302,South Church Avenue,29356,35.1729250,-82.1851045
103,Shady Lane,29356,35.1748190,-82.1769525
521,South Shamrock Avenue,29356,35.1696785,-82.1836160
212,Jan Street,29356,35.1785205,-82.1849205
402,South Church Avenue,29356,35.1720680,-82.1844095
909,East Rutherford Street,29356,35.1780945,-82.1779115
727,South Bomar Avenue,29356,35.1686775,-82.1786080
106,Moss Lane,29356,35.1744735,-82.1760360
201,South Johnson Street,29356,35.1674143,-82.1854796
124,North Trade Avenue,29356,35.1762445,-82.1894630
129,South Edgewood Avenue,29356,35.1739125,-82.1773605
365,Irish Hills Lane,29356,35.1777045,-82.1896500
312,South Randolph Avenue,29356,35.1687635,-82.1866480
513,South Shamrock Avenue,29356,35.1706855,-82.1840030
105,South Edgewood Avenue,29356,35.1769305,-82.1773335
123,South Oakleaf Drive,29356,35.1744935,-82.1784880
611,South Shamrock Avenue,29356,35.1681265,-82.1823275
513,East Turner Street,29356,35.1711880,-82.1797710
104,South Lyles Avenue,29356,35.1753470,-82.1853955
206,South Johnson Street,29356,35.1675165,-82.1869300
105,West Tucker Street,29356,35.1669340,-82.1841705
103,South Lee Avenue,29356,35.1756930,-82.1838155
105,South Oakleaf Drive,29356,35.1769555,-82.1784520
711,South Howard Avenue,29356,35.1652400,-82.1824595
1202,East Rutherford Street,29356,35.1779250,-82.1746055
602,South Randolph Avenue,29356,35.1656580,-82.1840600
401,South Shamrock Avenue,29356,35.1729600,-82.1857340
304,South Lyles Avenue,29356,35.1733335,-82.1839365
401,East Rutherford Street,29356,35.1763620,-82.1854340
111,South Oakleaf Drive,29356,35.1761165,-82.1784415
206,South Howard Avenue,29356,35.1711280,-82.1867070
400,South Lyles Avenue,29356,35.1727380,-82.1834910
115,Brookwood Creek Drive,29356,35.1731485,-82.1772680
107,South Edgewood Avenue,29356,35.1766270,-82.1773385
301,East Rutherford Street,29356,35.1756465,-82.1869110
202,East Tucker Street,29356,35.1692775,-82.1827215
513,South Bomar Avenue,29356,35.1718830,-82.1787745
107,Park Avenue,29356,35.1721935,-82.1779225
303,East Rutherford Street,29356,35.1760570,-82.1866157
400,South Randolph Avenue,29356,35.1683738,-82.1862641
504,South Randolph Avenue,29356,35.1658875,-82.1867150
509,South Bomar Avenue,29356,35.1722340,-82.1789705
110,South Poplar Avenue,29356,35.1760330,-82.1803859
504,South Howard Avenue,29356,35.1678120,-82.1839690
110,South Oakleaf Drive,29356,35.1762275,-82.1789635
1308,East Rutherford Street,29356,35.1782375,-82.1728820
707,South Bomar Avenue,29356,35.1694240,-82.1776640
401,South Lyles Avenue,29356,35.1729785,-82.1830995
300,South Randolph Avenue,29356,35.1698700,-82.1876410
600,South Howard Avenue,29356,35.1662540,-82.1833615
211,West Finger Street,29356,35.1644680,-82.1852025
130,South Edgewood Avenue,29356,35.1739360,-82.1779530
302,South Lyles Avenue,29356,35.1735425,-82.1840765
404,East Rutherford Street,29356,35.1757417,-82.1844334
509,South Lee Avenue,29356,35.1720240,-82.1809095
410,East Brookwood Drive,29356,35.1732625,-82.1767315
720,South Bomar Avenue,29356,35.1695880,-82.1789400
700,South Randolph Avenue,29356,35.1647695,-82.1837240
109,Park Avenue,29356,35.1719490,-82.1778915
504,South Bomar Avenue,29356,35.1723935,-82.1797565
115,South Poplar Avenue,29356,35.1756205,-82.1798000
720,South Howard Avenue,29356,35.1643340,-82.1829260
607,South Church Avenue,29356,35.1694625,-82.1812605
406,South Church Avenue,29356,35.1717835,-82.1842175
110,East Earle Street,29356,35.1763555,-82.1879180
201,South Lee Avenue,29356,35.1751880,-82.1834630
113,South Poplar Avenue,29356,35.1758325,-82.1798670
208,South Church Avenue,29356,35.1734750,-82.1854390
508,South Lee Avenue,29356,35.1716035,-82.1814530
105,West Rutherford Street,29356,35.1735835,-82.1894900
131,Thrift Circle,29356,35.1781020,-82.1784015
106,North Johnson Street,29356,35.1682820,-82.1878870
201,South Shamrock Avenue,29356,35.1746330,-82.1872855
100,West Rutherford Street,29356,35.1749755,-82.1901585
218,South Johnson Street,29356,35.1669215,-82.1886445
402,East Earle Street,29356,35.1775515,-82.1848735
406,South Howard Avenue,29356,35.1684030,-82.1844490
334,South Howard Avenue,29356,35.1691110,-82.1851922
410,South Shamrock Avenue,29356,35.1713740,-82.1859495
400,South Lee Avenue,29356,35.1732470,-82.1825700
105,North Johnson Street,29356,35.1680265,-82.1871960
105,Moss Lane,29356,35.1747395,-82.1766205
224,Jan Street,29356,35.1780739,-82.1849362
203,South Lyles Avenue,29356,35.1745695,-82.1842230
200,East Brookwood Drive,29356,35.1733200,-82.1789390
1111,East Rutherford Street,29356,35.1785150,-82.1746655
209,Peach Avenue,29356,35.1667200,-82.1822930
101,East Prince Road,29356,35.1768550,-82.1844660
103,South Shamrock Avenue,29356,35.1748570,-82.1875345
401,East Earle Street,29356,35.1777465,-82.1853990
217,West Finger Street,29356,35.1643859,-82.1855621
555,East Brookwood Drive,29356,35.1737205,-82.1736745
215,South Johnson Street,29356,35.1665255,-82.1880520
103,South Poplar Avenue,29356,35.1770895,-82.1804045
602,South Howard Avenue,29356,35.1660749,-82.1836361
606,South Howard Avenue,29356,35.1658330,-82.1833785
122,South Howard Avenue,29356,35.1730633,-82.1881530
506,South Randolph Avenue,29356,35.1663910,-82.1844450
116,South Church Avenue,29356,35.1744255,-82.1863025
111,North Howard Avenue,29356,35.1753870,-82.1899845
114,Brookwood Creek Drive,29356,35.1730485,-82.1777785
103,Park Avenue,29356,35.1727950,-82.1785815
118,South Edgewood Avenue,29356,35.1750010,-82.1779490
212,South Johnson Street,29356,35.1673205,-82.1875780
118,South Church Avenue,29356,35.1742670,-82.1861190
711,South Bomar Avenue,29356,35.1693125,-82.1778625
401,South Randolph Avenue,29356,35.1684870,-82.1857045
508,South Howard Avenue,29356,35.1671305,-82.1836670
119,South Oakleaf Drive,29356,35.1749950,-82.1785040
200,South Shamrock Avenue,29356,35.1744570,-82.1876835
303,South Lee Avenue,29356,35.1741820,-82.1826963
702,East Rutherford Street,29356,35.1770398,-82.1813255
404,South Shamrock Avenue,29356,35.1718675,-82.1858080
407,South Church Avenue,29356,35.1719240,-82.1838685
109,South Oakleaf Drive,29356,35.1763745,-82.1784430
108,North Johnson Street,29356,35.1682005,-82.1881317
104,West Finger Street,29356,35.1664290,-82.1838400
106,South Lyles Avenue,29356,35.1751390,-82.1852555
106,South Edgewood Avenue,29356,35.1766440,-82.1778605
309,South Lyles Avenue,29356,35.1732375,-82.1832070
527,South Shamrock Avenue,29356,35.1692195,-82.1833145
309,South Lee Avenue,29356,35.1738150,-82.1823895
408,South Church Avenue,29356,35.1715842,-82.1839562
203,South Lee Avenue,29356,35.1750320,-82.1832785
300,South Church Avenue,29356,35.1731888,-82.1852562
207,North Church Avenue,29356,35.1764425,-82.1876130
609,South Shamrock Avenue,29356,35.1683460,-82.1824720
810,East Rutherford Street,29356,35.1773916,-82.1792955
719,South Bomar Avenue,29356,35.1689995,-82.1782160
104,South Howard Avenue,29356,35.1739520,-82.1889030
1105,East Rutherford Street,29356,35.1784665,-82.1758340
513,South Church Avenue,29356,35.1701590,-82.1823780
603,South Bomar Avenue,29356,35.1712205,-82.1782500
116,South Edgewood Avenue,29356,35.1752565,-82.1779445
502,South Lee Avenue,29356,35.1721380,-82.1817410
110,South Edgewood Avenue,29356,35.1761050,-82.1778945
208,West Finger Street,29356,35.1652860,-82.1851570
137,Redbird Lane,29356,35.1784395,-82.1884300
500,East Rutherford Street,29356,35.1761699,-82.1839804
308,South Lyles Avenue,29356,35.1729785,-82.1836585
208,South Johnson Street,29356,35.1673925,-82.1872595
707,South Shamrock Avenue,29356,35.1673055,-82.1817995
207,Peach Avenue,29356,35.1669245,-82.1824780
601,South Shamrock Avenue,29356,35.1688990,-82.1830885
120,North Trade Avenue,29356,35.1760290,-82.1890645
403,South Lyles Avenue,29356,35.1726860,-82.1829150
126,South Randolph Avenue,29356,35.1722620,-82.1882610
305,South Lyles Avenue,29356,35.1735875,-82.1834780
129,Thrift Circle,29356,35.1782060,-82.1787130
410,South Shamrock Avenue,29356,35.1714980,-82.1860445
127,South Edgewood Avenue,29356,35.1741385,-82.1774650
209,East Tucker Street,29356,35.1699345,-82.1825870
303,East Turner Street,29356,35.1689510,-82.1811085
515,East Turner Street,29356,35.1712690,-82.1794585
250,Moss Lane,29356,35.1745415,-82.1743800
601,East Brookwood Drive,29356,35.1735715,-82.1724800
410,South Lee Avenue,29356,35.1724380,-82.1819855
506,South Church Avenue,29356,35.1704605,-82.1832605
509,South Church Avenue,29356,35.1706150,-82.1828005
512,South Bomar Avenue,29356,35.1714980,-82.1789775
205,South Lyles Avenue,29356,35.1744080,-82.1841010
106,East Thompson Street,29356,35.1739490,-82.1858825
151,Monroe Lane,29356,35.1668100,-82.1795180
310,South Bomar Avenue,29356,35.1742695,-82.1812430
145,Brookwood Creek Drive,29356,35.1719995,-82.1762720
126,South Howard Avenue,29356,35.1724445,-82.1879640
101,East Mallory Street,29356,35.1731015,-82.1861625
120,West Jones Street,29356,35.1705865,-82.1871400
403,East Earle Street,29356,35.1779145,-82.1851270
311,South Randolph Avenue,29356,35.1695965,-82.1860405
328,South Howard Avenue,29356,35.1698320,-82.1857550
416,South Shamrock Avenue,29356,35.1708850,-82.1852945
508,South Bomar Avenue,29356,35.1721975,-82.1795990
104,South Randolph Avenue,29356,35.1729560,-82.1889025
307,South Randolph Avenue,29356,35.1696625,-82.1866540
109,South Poplar Avenue,29356,35.1761580,-82.1799970
107,South Poplar Avenue,29356,35.1763665,-82.1800795
701,South Randolph Avenue,29356,35.1652825,-82.1834500
501,South Shamrock Avenue,29356,35.1709795,-82.1846405
300,South Lyles Avenue,29356,35.1736735,-82.1842175
105,North Oak Avenue,29356,35.1783765,-82.1837230
130,Redbird Lane,29356,35.1774005,-82.1882415
114,South Edgewood Avenue,29356,35.1755140,-82.1779070
505,South Randolph Avenue,29356,35.1667215,-82.1840900
113,East Earle Street,29356,35.1768155,-82.1877115
106,South Oakleaf Drive,29356,35.1767835,-82.1789615
136,South Howard Avenue,29356,35.1717575,-82.1873370
719,South Howard Avenue,29356,35.1647695,-82.1823015
402,South Randolph Avenue,29356,35.1681400,-82.1860755
136,Moss Lane,29356,35.1744835,-82.1756960
111,Park Avenue,29356,35.1716390,-82.1776705
330,South Howard Avenue,29356,35.1695460,-82.1856150
151,Brookwood Creek Drive,29356,35.1718130,-82.1761435
408,South Howard Avenue,29356,35.1682645,-82.1843375
402,South Bomar Avenue,29356,35.1738806,-82.1809236
207,South Johnson Street,29356,35.1670750,-82.1866485
107,East Prince Road,29356,35.1775595,-82.1837655
202,South Lyles Avenue,29356,35.1742780,-82.1847735
403,South Randolph Avenue,29356,35.1682550,-82.1854950
307,South Lee Avenue,29356,35.1739950,-82.1825230
115,North Johnson Street,29356,35.1674645,-82.1889185
137,Brookwood Creek Drive,29356,35.1723750,-82.1766030
115,Redland Road,29356,35.1772305,-82.1724390
124,South Howard Avenue,29356,35.1726945,-82.1881765
102,South Howard Avenue,29356,35.1743416,-82.1893057
701,East Rutherford Street,29356,35.1773665,-82.1826420
408,South Bomar Avenue,29356,35.1730190,-82.1804770
121,South Oakleaf Drive,29356,35.1747245,-82.1784770
311,South Lee Avenue,29356,35.1736505,-82.1823015
722,South Bomar Avenue,29356,35.1680865,-82.1804235
714,Howard Street,29356,35.1649490,-82.1829935
123,South Edgewood Avenue,29356,35.1744720,-82.1774665
1302,East Rutherford Street,29356,35.1780665,-82.1738520
205,South Lee Avenue,29356,35.1748380,-82.1831545
710,South Howard Avenue,29356,35.1653925,-82.1832250
402,South Lyles Avenue,29356,35.1724965,-82.1833635
102,West Finger Street,29356,35.1667635,-82.1834215
304,Moss Lane,29356,35.1744040,-82.1732530
305,South Bomar Avenue,29356,35.1747260,-82.1807375
305,East Rutherford Street,29356,35.1760300,-82.1861695
202,South Lee Avenue,29356,35.1747635,-82.1837695
806,East Rutherford Street,29356,35.1773535,-82.1796255
804,East Rutherford Street,29356,35.1772696,-82.1799750
300,South Shamrock Avenue,29356,35.1735439,-82.1871920
122,Thrift Circle,29356,35.1779665,-82.1796915
216,South Johnson Street,29356,35.1669590,-82.1882530
318,East Brookwood Drive,29356,35.1734860,-82.1778290
102,South Edgewood Avenue,29356,35.1771910,-82.1778400
212,North Lyles Avenue,29356,35.1783500,-82.1864450
401,South Bomar Avenue,29356,35.1743545,-82.1805010
306,South Randolph Avenue,29356,35.1695225,-82.1871100
805,South Howard Avenue,29356,35.1644015,-82.1813585
730,South Bomar Avenue,29356,35.1676065,-82.1808930
202,South Howard Avenue,29356,35.1713195,-82.1868775
202,South Shamrock Avenue,29356,35.1743005,-82.1875460
205,East Earle Street,29356,35.1776515,-82.1870295
722,South Howard Avenue,29356,35.1641970,-82.1826665
310,East Brookwood Drive,29356,35.1735320,-82.1783725
100,Moss Lane,29356,35.1739255,-82.1760355
403,South Lee Avenue,29356,35.1733435,-82.1818535
360,Irish Hills Lane,29356,35.1780865,-82.1901795
113,South Oakleaf Drive,29356,35.1757990,-82.1784025
300,South Bomar Avenue,29356,35.1749115,-82.1816395
116,North Johnson Street,29356,35.1676820,-82.1895045
112,South Oakleaf Drive,29356,35.1759660,-82.1789830
200,South Lyles Avenue,29356,35.1744625,-82.1849115
114,North Johnson Street,29356,35.1678075,-82.1891635
403,South Shamrock Avenue,29356,35.1727455,-82.1855215
409,South Shamrock Avenue,29356,35.1720875,-82.1855410
405,South Bomar Avenue,29356,35.1738990,-82.1801765
701,South Shamrock Avenue,29356,35.1677500,-82.1820870
205,Jan Street,29356,35.1785060,-82.1844855
117,South Oakleaf Drive,29356,35.1752685,-82.1785090
306,West Finger Street,29356,35.1641825,-82.1871530
900,East Rutherford Street,29356,35.1774295,-82.1785225
105,Powell Avenue,29356,35.1751490,-82.1904560
209,South Lee Avenue,29356,35.1746445,-82.1830230
710,South Shamrock Avenue,29356,35.1669675,-82.1820825
101,Moss Lane,29356,35.1740470,-82.1767155
207,South Lyles Avenue,29356,35.1744455,-82.1834920
109,Redland Road,29356,35.1773900,-82.1732825
402,East Rutherford Street,29356,35.1758940,-82.1849195
101,Park Avenue,29356,35.1731420,-82.1787005
603,South Howard Avenue,29356,35.1664820,-82.1828930
505,South Church Avenue,29356,35.1709755,-82.1829310
107,East Thompson Street,29356,35.1740770,-82.1864115
200,North Shamrock Avenue,29356,35.1758810,-82.1883630
506,South Howard Avenue,29356,35.1674355,-82.1838110
410,East Earle Street,29356,35.1779900,-82.1840445
280,Moss Lane,29356,35.1745020,-82.1740265
204,South Johnson Street,29356,35.1676390,-82.1865935
410,South Shamrock Avenue,29356,35.1717095,-82.1857030
120,South Edgewood Avenue,29356,35.1746775,-82.1779410
210,North Lee Avenue,29356,35.1784340,-82.1858325
203,East Turner Street,29356,35.1683415,-82.1818784
104,East Tucker Street,29356,35.1682105,-82.1833600
306,Moss Lane,29356,35.1743220,-82.1726310
352,Irish Hills Lane,29356,35.1784475,-82.1895295
104,West Rutherford Street,29356,35.1748515,-82.1904220
108,South Oakleaf Drive,29356,35.1764995,-82.1789800
104,North Johnson Street,29356,35.1684120,-82.1875075
600,South Church Avenue,29356,35.1697315,-82.1824300
206,North Popular Avenue,29356,35.1783640,-82.1808065
402,South Howard Avenue,29356,35.1686945,-82.1848520
502,South Church Avenue,29356,35.1708035,-82.1833865
110,North Lyles Avenue,29356,35.1767805,-82.1858670
400,South Howard Avenue,29356,35.1688545,-82.1849955
100,South Howard Avenue,29356,35.1745288,-82.1896443
601,South Howard Avenue,29356,35.1662580,-82.1827129
120,Lodge Street,29356,35.1758660,-82.1873030
502,South Bomar Avenue,29356,35.1726170,-82.1799020
410,South Church Avenue,29356,35.1713980,-82.1839045
710,South Bomar Avenue,29356,35.1684980,-82.1798945
109,North Johnson Street,29356,35.1677620,-82.1878530
112,North Lyles Avenue,29356,35.1769580,-82.1860225
1103,East Rutherford Street,29356,35.1782685,-82.1763875
103,Park Avenue,29356,35.1726470,-82.1784280
313,South Randolph Avenue,29356,35.1691792,-82.1857313
207,West Finger Street,29356,35.1648813,-82.1850939
412,South Shamrock Avenue,29356,35.1712060,-82.1857570
206,East Turner Street,29356,35.1682815,-82.1811810
104,South Oakleaf Drive,29356,35.1770780,-82.1789440
213,Jan Street,29356,35.1783395,-82.1846904
209,East Earle Street,29356,35.1771010,-82.1866200
115,South Oakleaf Drive,29356,35.1755635,-82.1784680
353,Irish Hills Lane,29356,35.1782295,-82.1890735
545,East Brookwood Drive,29356,35.1737605,-82.1742925
406,South Lee Avenue,29356,35.1729530,-82.1823485
105,Park Avenue,29356,35.1724060,-82.1782425
134,South Howard Avenue,29356,35.1719345,-82.1874395
100,South Poplar Avenue,29356,35.1769805,-82.1810955
132,South Howard Avenue,29356,35.1720735,-82.1875265
510,South Shamrock Avenue,29356,35.1704835,-82.1852595
180,Rose Lane,29356,35.1745410,-82.1885990
108,West Tucker Street,29356,35.1676310,-82.1846160
303,Moss Lane,29356,35.1749690,-82.1734935
112,North Johnson Street,29356,35.1679455,-82.1888290
107,South Oakleaf Drive,29356,35.1766660,-82.1784180
411,South Randolph Avenue,29356,35.1675580,-82.1848135
409,South Church Avenue,29356,35.1716440,-82.1835260
414,South Shamrock Avenue,29356,35.1711130,-82.1854020
128,South Edgewood Avenue,29356,35.1742005,-82.1780040
106,South Poplar Avenue,29356,35.1765320,-82.1806205
400,South Church Avenue,29356,35.1721725,-82.1846580
402,South Lee Avenue,29356,35.1731175,-82.1824725
130,South Howard Avenue,29356,35.1721820,-82.1876060
200,East Blue Ridge Street,29356,35.1723748,-82.1839239
601,South Church Avenue,29356,35.1698915,-82.1821175
218,West Finger Street,29356,35.1647225,-82.1857290
204,North Popular Avenue,29356,35.1781360,-82.1807440
301,South Lee Avenue,29356,35.1743895,-82.1828475
332,Howard Street,29356,35.1693555,-82.1852255
101,East Brookwood Drive,29356,35.1734505,-82.1798275
200,South Bomar Avenue,29356,35.1757379,-82.1822873
405,South Randolph Avenue,29356,35.1680350,-82.1853505
500,South Randolph Avenue,29356,35.1670365,-82.1849395
406,South Bomar Avenue,29356,35.1732550,-82.1806695
109,South Edgewood Avenue,29356,35.1762795,-82.1773495
220,South Johnson Street,29356,35.1669185,-82.1889935
315,South Randolph Avenue,29356,35.1687720,-82.1859135
160,Brookwood Creek Drive,29356,35.1714625,-82.1764585
407,South Bomar Avenue,29356,35.1736668,-82.1800158
131,Brookwood Creek Drive,29356,35.1725638,-82.1767772
204,South Lyles Avenue,29356,35.1741185,-82.1845745
601,South Bomar Avenue,29356,35.1714655,-82.1783695
309,Moss Lane,29356,35.1748973,-82.1724758
202,East Earle Street,29356,35.1765230,-82.1872225
604,South Bomar Avenue,29356,35.1710050,-82.1789025
203,Redland Road,29356,35.1767675,-82.1714110
288,Page Creek Boulevard,29356,35.1710650,-82.1650445
603,Downing Way,29356,35.1705385,-82.1658170
214,Lakeview Drive,29356,35.1735730,-82.1667490
117,Lakeview Drive,29356,35.1764390,-82.1694785
119,Kirby Street,29356,35.1783605,-82.1693975
325,Moss Lane,29356,35.1746160,-82.1701780
317,Moss Lane,29356,35.1747190,-82.1711625
122,Rickert Avenue,29356,35.1763260,-82.1664110
1500,East Rutherford Street,29356,35.1784750,-82.1715790
321,Moss Lane,29356,35.1746570,-82.1705210
121,Rickert Avenue,29356,35.1768700,-82.1663020
207,Redland Road,29356,35.1763705,-82.1708960
213,Boyce Street,29356,35.1778635,-82.1664740
807,East Brookwood Drive,29356,35.1733745,-82.1694650
310,Kirby Street,29356,35.1785580,-82.1662390
104,Rickert Avenue,29356,35.1770861,-82.1690911
210,Lakeview Drive,29356,35.1739500,-82.1671855
300,Campbell Avenue,29356,35.1777955,-82.1647935
811,East Brookwood Drive,29356,35.1733260,-82.1687985
115,Lakeview Drive,29356,35.1767275,-82.1696860
815,East Brookwood Drive,29356,35.1733140,-82.1684455
213,Redland Road,29356,35.1758260,-82.1703985
120,Rickert Avenue,29356,35.1762105,-82.1667160
703,East Brookwood Drive,29356,35.1735205,-82.1714755
221,Boyce Street,29356,35.1783100,-82.1652540
102,Rickert Avenue,29356,35.1773515,-82.1692250
108,Rickert Avenue,29356,35.1764205,-82.1686265
268,Page Creek Boulevard,29356,35.1702580,-82.1648895
217,Boyce Street,29356,35.1780640,-82.1658440
285,Page Creek Boulevard,29356,35.1706720,-82.1652475
118,Kirby Street,29356,35.1778444,-82.1693051
206,Boyce Street,29356,35.1770630,-82.1675265
319,Redland Road,29356,35.1728655,-82.1664030
127,Lakeview Drive,29356,35.1755425,-82.1688115
289,Page Creek Boulevard,29356,35.1707640,-82.1654785
204,Lakeview Drive,29356,35.1744735,-82.1680655
109,Lakeview Drive,29356,35.1773120,-82.1703645
707,East Brookwood Drive,29356,35.1734685,-82.1708050
204,Kirby Street,29356,35.1781295,-82.1681925
119,Rickert Avenue,29356,35.1767045,-82.1667065
107,Rickert Avenue,29356,35.1770330,-82.1681585
301,Redland Road,29356,35.1742735,-82.1690115
316,Moss Lane,29356,35.1742090,-82.1710180
292,Page Creek Boulevard,29356,35.1711885,-82.1652365
310,Moss Lane,29356,35.1742790,-82.1720555
400,Campbell Avenue,29356,35.1767035,-82.1649215
207,Boyce Street,29356,35.1778135,-82.1668622
293,Page Creek Boulevard,29356,35.1707500,-82.1656925
315,Redland Road,29356,35.1732510,-82.1670120
1404,East Rutherford Street,29356,35.1783305,-82.1722110
221,Redland Road,29356,35.1746795,-82.1693740
103,Lakeview Drive,29356,35.1776116,-82.1713034
220,Boyce Street,29356,35.1776290,-82.1651075
408,Campbell Avenue,29356,35.1755000,-82.1676715
405,Redland Road,29356,35.1724795,-82.1657880
321,Redland Road,29356,35.1727143,-82.1660088
211,Redland Road,29356,35.1760800,-82.1706005
315,Moss Lane,29356,35.1747935,-82.1714900
212,Boyce Street,29356,35.1773520,-82.1666570
300,Redland Road,29356,35.1739075,-82.1693585
105,East Bridges Street,29356,35.1715700,-82.1661235
118,Page Creek Boulevard,29356,35.1713740,-82.1657295
801,East Brookwood Drive,29356,35.1734530,-82.1704720
803,East Brookwood Drive,29356,35.1734370,-82.1701335
113,Rickert Avenue,29356,35.1762245,-82.1675370
215,Boyce Street,29356,35.1781745,-82.1663065
114,Kirby Street,29356,35.1777350,-82.1699320
317,Redland Road,29356,35.1729590,-82.1667065
809,East Brookwood Drive,29356,35.1733570,-82.1691320
201,Kirby Street,29356,35.1784375,-82.1690655
122,Page Creek Boulevard,29356,35.1712735,-82.1658110
402,Campbell Avenue,29356,35.1763880,-82.1648830
103,Overbrook Circle,29356,35.1780335,-82.1713395
318,Moss Lane,29356,35.1741675,-82.1706760
206,Campbell Avenue,29356,35.1783240,-82.1649420
202,Kirby Street,29356,35.1780150,-82.1685035
406,Campbell Avenue,29356,35.1759685,-82.1648975
218,Boyce Street,29356,35.1775640,-82.1654195
319,Moss Lane,29356,35.1746880,-82.1708485
114,Page Creek Boulevard,29356,35.1715425,-82.1655505
603,East Brookwood Drive,29356,35.1735575,-82.1721430
216,Lakeview Drive,29356,35.1733675,-82.1664095
202,Boyce Street,29356,35.1777875,-82.1676650
200,Overbrook Circle,29356,35.1776765,-82.1721525
109,Rickert Avenue,29356,35.1766875,-82.1679205
311,Moss Lane,29356,35.1748962,-82.1721505
108,Lakeview Drive,29356,35.1768735,-82.1706400
305,Redland Road,29356,35.1739575,-82.1685030
311,Redland Road,29356,35.1734535,-82.1676430
705,East Brookwood Drive,29356,35.1734915,-82.1711435
110,Page Creek Boulevard,29356,35.1715900,-82.1653810
272,Page Creek Boulevard,29356,35.1704305,-82.1647690
313,Redland Road,29356,35.1733400,-82.1673285
209,Lakeview Drive,29356,35.1743045,-82.1668300
107,East Hooker Street,29356,35.1706415,-82.1667635
103,Rickert Avenue,29356,35.1776316,-82.1684897
216,Boyce Street,29356,35.1774690,-82.1657260
219,Redland Road,29356,35.1749310,-82.1697335
106,East Hooker Street,29356,35.1701785,-82.1670980
127,Rickert Avenue,29356,35.1771455,-82.1651400
134,Page Creek Boulevard,29356,35.1708215,-82.1661445
129,Lakeview Drive,29356,35.1752755,-82.1685265
112,Rickert Avenue,29356,35.1757870,-82.1682160
126,Rickert Avenue,29356,35.1765600,-82.1655685
320,Moss Lane,29356,35.1741330,-82.1703860
200,Lakeview Drive,29356,35.1747420,-82.1684940
201,Redland Road,29356,35.1770690,-82.1718505
406,Redland Road,29356,35.1719735,-82.1659090
125,Rickert Avenue,29356,35.1770255,-82.1656070
314,Moss Lane,29356,35.1742320,-82.1713665
116,Kirby Street,29356,35.1777645,-82.1696290
203,Kirby Street,29356,35.1784825,-82.1687570
284,Page Creek Boulevard,29356,35.1709640,-82.1648860
215,Redland Road,29356,35.1755785,-82.1702615
701,East Brookwood Drive,29356,35.1735415,-82.1717840
805,East Brookwood Drive,29356,35.1734035,-82.1698025
200,Boyce Street,29356,35.1780950,-82.1677000
199,South Bomar Avenue,29356,35.1753172,-82.1807113
102,Redland Road,29356,35.1760099,-82.1727810
