House number,Street name,Postal code,Latitude,Longitude
2,White Tail Court,29662,34.7633767,-82.3266286
6,White Tail Court,29662,34.7633796,-82.3269098
1,White Tail Court,29662,34.7629706,-82.3266941
3,White Tail Court,29662,34.7630291,-82.3269134
2,Crossbow Way,29662,34.7631189,-82.3277628
12,Crossbow Way,29662,34.7638217,-82.3284592
100,Crossbow Way,29662,34.7639274,-82.3285993
108,Crossbow Way,29662,34.7642384,-82.3292087
103,Crossbow Way,29662,34.7638808,-82.3292806
105,Crossbow Way,29662,34.7640829,-82.3293601
102,White Tail Court,29662,34.7626650,-82.3282511
106,White Tail Court,29662,34.7623260,-82.3284592
101,White Tail Court,29662,34.7626031,-82.3277233
109,White Tail Court,29662,34.7621412,-82.3283423
2,Fawn Lake Place,29662,34.7637364,-82.3289371
6,Fawn Lake Place,29662,34.7635084,-82.3292689
3,Fawn Lake Place,29662,34.7632361,-82.3289105
5,Fawn Lake Place,29662,34.7631063,-82.3290994
6,Deer Cross Court,29662,34.7638971,-82.3297457
9,Deer Cross Court,29662,34.7637173,-82.3299290
106,Remington Court,29662,34.7625250,-82.3290838
103,Remington Court,29662,34.7629897,-82.3287777
105,Remington Court,29662,34.7627085,-82.3287620
1,Crossbow Way,29662,34.7629087,-82.3280751
9,Crossbow Way,29662,34.7634632,-82.3286982
1,Deer Ridge Court,29662,34.7628695,-82.3274291
17,Deer Ridge Court,29662,34.7617228,-82.3269452
4,Deer Ridge Court,29662,34.7624001,-82.3275128
14,Deer Ridge Court,29662,34.7616450,-82.3272480
402,Flanders Court,29607,34.7509436,-82.3248372
408,Flanders Court,29607,34.7514435,-82.3249641
2,Montauk Drive,29607,34.7518411,-82.3249915
4,Montauk Drive,29607,34.7520282,-82.3248140
204,Peconic Court,29607,34.7518199,-82.3245976
208,Peconic Court,29607,34.7518207,-82.3243186
205,Peconic Court,29607,34.7521785,-82.3242009
209,Peconic Court,29607,34.7519926,-82.3242138
100,Montauk Drive,29607,34.7523591,-82.3244255
104,Montauk Drive,29607,34.7525394,-82.3240438
4,Greenport Way,29607,34.7523858,-82.3238953
6,Greenport Way,29607,34.7521907,-82.3237779
100,Tuckahoe Court,29607,34.7519912,-82.3238008
106,Tuckahoe Court,29607,34.7515858,-82.3237991
103,Tuckahoe Court,29607,34.7516935,-82.3232314
107,Tuckahoe Court,29607,34.7515864,-82.3235926
100,Greenport Way,29607,34.7519216,-82.3231542
102,Greenport Way,29607,34.7518358,-82.3229288
2,Moriches Court,29607,34.7516982,-82.3226650
6,Moriches Court,29607,34.7513548,-82.3227012
1,Moriches Court,29607,34.7515359,-82.3220639
5,Moriches Court,29607,34.7512641,-82.3223869
202,Greenport Way,29607,34.7512929,-82.3217846
206,Greenport Way,29607,34.7511935,-82.3213567
203,Greenport Way,29607,34.7518350,-82.3218637
207,Greenport Way,29607,34.7517007,-82.3214102
2,Watch Hill Court,29607,34.7520155,-82.3221399
16,Watch Hill Court,29607,34.7532995,-82.3213991
1,Watch Hill Court,29607,34.7521410,-82.3225364
19,Watch Hill Court,29607,34.7533819,-82.3215650
103,Greenport Way,29607,34.7521882,-82.3227816
101,Greenport Way,29607,34.7522786,-82.3230319
202,Bellport Drive,29607,34.7524829,-82.3228952
220,Bellport Drive,29607,34.7541046,-82.3219392
4,Lynbrook Court,29607,34.7539504,-82.3216572
10,Lynbrook Court,29607,34.7537624,-82.3210441
1,Lynbrook Court,29607,34.7544059,-82.3217116
9,Lynbrook Court,29607,34.7539765,-82.3208586
201,Bellport Drive,29607,34.7524974,-82.3233747
221,Bellport Drive,29607,34.7543235,-82.3222711
100,Manhassett Court,29607,34.7545553,-82.3218460
106,Manhassett Court,29607,34.7548908,-82.3224318
200,Manhassett Court,29607,34.7550012,-82.3226097
208,Manhassett Court,29607,34.7554331,-82.3233782
201,Manhassett Court,29607,34.7547118,-82.3229250
203,Manhassett Court,29607,34.7548320,-82.3231303
200,Montauk Drive,29607,34.7527383,-82.3236525
218,Montauk Drive,29607,34.7544742,-82.3226034
111,Montauk Drive,29607,34.7530029,-82.3239875
215,Montauk Drive,29607,34.7544249,-82.3231509
201,Montauk Drive,29607,34.7531035,-82.3237910
1,Orient Drive,29607,34.7530748,-82.3257365
11,Orient Drive,29607,34.7525359,-82.3248991
2,Orient Drive,29607,34.7528016,-82.3260301
12,Orient Drive,29607,34.7522618,-82.3251693
500,Flanders Court,29607,34.7519570,-82.3254450
514,Flanders Court,29607,34.7523004,-82.3266017
515,Flanders Court,29607,34.7522098,-82.3267951
501,Flanders Court,29607,34.7518006,-82.3258361
405,Flanders Court,29607,34.7515322,-82.3255718
401,Flanders Court,29607,34.7510550,-82.3255338
411,West Butler Road,29662,34.7751160,-82.3183344
2,Korbel Court,29662,34.7598173,-82.3208698
8,Korbel Court,29662,34.7602974,-82.3207714
1,Korbel Court,29662,34.7602064,-82.3213003
3,Korbel Court,29662,34.7603479,-82.3210666
101,Sonoma Drive,29662,34.7593777,-82.3210174
103,Sonoma Drive,29662,34.7595344,-82.3212450
201,Sonoma Drive,29662,34.7598780,-82.3215955
211,Sonoma Drive,29662,34.7605601,-82.3224320
202,Sonoma Drive,29662,34.7603833,-82.3214541
208,Sonoma Drive,29662,34.7608380,-82.3220630
4,Colombard Court,29662,34.7595950,-82.3218231
16,Colombard Court,29662,34.7587576,-82.3229872
3,Colombard Court,29662,34.7593575,-82.3214971
19,Colombard Court,29662,34.7584459,-82.3227451
1,Sutters Glen Court,29662,34.7583331,-82.3229670
5,Sutters Glen Court,29662,34.7578742,-82.3230499
2,Sutters Glen Court,29662,34.7583058,-82.3235095
4,Sutters Glen Court,29662,34.7578613,-82.3233948
100,Colombard Court,29662,34.7587259,-82.3234776
106,Colombard Court,29662,34.7585720,-82.3242668
103,Colombard Court,29662,34.7583213,-82.3238109
105,Colombard Court,29662,34.7583818,-82.3241015
202,Riesling Way,29662,34.7589646,-82.3230101
214,Riesling Way,29662,34.7600480,-82.3223685
203,Riesling Way,29662,34.7590131,-82.3234667
215,Riesling Way,29662,34.7600577,-82.3226480
403,Bel Arbor Lane,29662,34.7604619,-82.3226795
423,Bel Arbor Lane,29662,34.7591586,-82.3244233
400,Bel Arbor Lane,29662,34.7609082,-82.3227425
422,Bel Arbor Lane,29662,34.7594974,-82.3245839
300,Bel Arbor Lane,29662,34.7613965,-82.3220142
306,Bel Arbor Lane,29662,34.7610149,-82.3225653
2,Knollvine Cove,29662,34.7610828,-82.3217634
14,Knollvine Cove,29662,34.7606462,-82.3204172
1,Knollvine Cove,29662,34.7613059,-82.3213530
11,Knollvine Cove,29662,34.7608370,-82.3202783
100,Bel Arbor Lane,29662,34.7616487,-82.3199477
106,Bel Arbor Lane,29662,34.7618071,-82.3206956
200,Bel Arbor Lane,29662,34.7618065,-82.3212225
204,Bel Arbor Lane,29662,34.7616099,-82.3217151
2,Chablis Court,29662,34.7621273,-82.3205696
1,Chablis Court,29662,34.7625412,-82.3205618
15,Chablis Court,29662,34.7630392,-82.3198493
3,Golden Crest Court,29662,34.7619880,-82.3211378
7,Golden Crest Court,29662,34.7624054,-82.3210381
101,Golden Crest Court,29662,34.7625671,-82.3210105
123,Golden Crest Court,29662,34.7645946,-82.3203768
102,Golden Crest Court,29662,34.7627934,-82.3205303
122,Golden Crest Court,29662,34.7646205,-82.3201484
101,Bel Arbor Lane,29662,34.7613091,-82.3200697
107,Bel Arbor Lane,29662,34.7614450,-82.3208294
201,Bel Arbor Lane,29662,34.7614385,-82.3210617
201,Edmondston Court,29662,34.7642657,-82.3168451
207,Edmondston Court,29662,34.7647389,-82.3172330
109,Edmondston Court,29662,34.7640167,-82.3168254
105,Edmondston Court,29662,34.7638033,-82.3168963
200,Edmondston Court,29662,34.7643707,-82.3162682
2,Nucrop Court,29662,34.7639973,-82.3163097
100,Edmondston Court,29662,34.7632043,-82.3168723
106,Edmondston Court,29662,34.7637222,-82.3163631
1,Natchez Drive,29662,34.7642308,-82.3177952
9,Natchez Drive,29662,34.7636452,-82.3171479
2,Natchez Drive,29662,34.7638555,-82.3180121
4,Natchez Drive,29662,34.7637263,-82.3178110
2,Planters Row Drive,29662,34.7633827,-82.3175142
6,Planters Row Drive,29662,34.7632462,-82.3176906
1,Planters Row Drive,29662,34.7630893,-82.3171339
9,Planters Row Drive,29662,34.7627566,-82.3175116
2,Cade Court,29662,34.7632639,-82.3179645
6,Cade Court,29662,34.7632768,-82.3184408
1,Cade Court,29662,34.7627724,-82.3182912
5,Cade Court,29662,34.7630796,-82.3185668
2,Oyster Bay Court,29662,34.7624587,-82.3184487
6,Oyster Bay Court,29662,34.7622550,-82.3189564
1,Oyster Bay Court,29662,34.7619348,-82.3183621
5,Oyster Bay Court,29662,34.7620383,-82.3189722
101,Planters Row Drive,29662,34.7626204,-82.3178503
201,Planters Row Drive,29662,34.7623487,-82.3179094
203,Planters Row Drive,29662,34.7620965,-82.3178503
1,Sickle Court,29662,34.7619057,-82.3175630
2,Sickle Court,29662,34.7614302,-82.3177393
6,Sickle Court,29662,34.7616341,-82.3171379
1,Charlestown Court,29662,34.7610067,-82.3177362
11,Charlestown Court,29662,34.7609776,-82.3167167
2,Charlestown Court,29662,34.7605281,-82.3176339
8,Charlestown Court,29662,34.7607480,-82.3167403
300,Planters Row Drive,29662,34.7614177,-82.3182591
312,Planters Row Drive,29662,34.7607286,-82.3182125
400,Planters Row Drive,29662,34.7605378,-82.3181534
416,Planters Row Drive,29662,34.7595772,-82.3178358
405,Planters Row Drive,29662,34.7602403,-82.3175827
1,Seagrass Court,29662,34.7597608,-82.3173062
9,Seagrass Court,29662,34.7599518,-82.3165164
2,Seagrass Court,29662,34.7593866,-82.3170828
6,Seagrass Court,29662,34.7596965,-82.3165045
1,Marsh Creek Drive,29662,34.7614821,-82.3193146
25,Marsh Creek Drive,29662,34.7592029,-82.3187249
105,Sea Oats Inlet,29662,34.7592734,-82.3184723
109,Sea Oats Inlet,29662,34.7593607,-82.3181889
1,Sea Oats Inlet,29662,34.7594933,-82.3202728
19,Sea Oats Inlet,29662,34.7590826,-82.3192399
2,Sea Oats Inlet,29662,34.7591016,-82.3205076
22,Sea Oats Inlet,29662,34.7586736,-82.3192470
102,Sea Oats Inlet,29662,34.7587463,-82.3185825
110,Sea Oats Inlet,29662,34.7591816,-82.3175061
101,Marsh Creek Drive,29662,34.7585915,-82.3187519
115,Marsh Creek Drive,29662,34.7576726,-82.3189564
106,Marsh Creek Drive,29662,34.7582127,-82.3193658
118,Marsh Creek Drive,29662,34.7575007,-82.3195318
1,Bayou Cove,29662,34.7574178,-82.3190263
3,Bayou Cove,29662,34.7573980,-82.3187258
2,Bayou Cove,29662,34.7569579,-82.3191887
8,Bayou Cove,29662,34.7571519,-82.3185668
205,Marsh Creek Drive,29662,34.7566086,-82.3193343
221,Marsh Creek Drive,29662,34.7558131,-82.3198949
200,Marsh Creek Drive,29662,34.7570093,-82.3196393
224,Marsh Creek Drive,29662,34.7560218,-82.3204404
300,Marsh Creek Drive,29662,34.7559566,-82.3207031
322,Marsh Creek Drive,29662,34.7576582,-82.3213864
303,Marsh Creek Drive,29662,34.7556637,-82.3212302
331,Marsh Creek Drive,29662,34.7580089,-82.3217237
1,Tideland Court,29662,34.7556061,-82.3202908
5,Tideland Court,29662,34.7551270,-82.3202452
2,Tideland Court,29662,34.7555690,-82.3208189
8,Tideland Court,29662,34.7550272,-82.3204877
1,Bounty Court,29662,34.7580704,-82.3214599
5,Bounty Court,29662,34.7585781,-82.3210348
2,Bounty Court,29662,34.7579895,-82.3208892
4,Bounty Court,29662,34.7585069,-82.3207789
1,Gingam Court,29662,34.7578946,-82.3205800
11,Gingam Court,29662,34.7583806,-82.3202745
2,Gingam Court,29662,34.7576520,-82.3201176
14,Gingam Court,29662,34.7583364,-82.3199681
2,Leslie Court,29662,34.7574656,-82.3208577
14,Leslie Court,29662,34.7566648,-82.3211954
5,Leslie Court,29662,34.7569676,-82.3205310
15,Leslie Court,29662,34.7564778,-82.3209722
400,Marsh Creek Drive,29662,34.7575562,-82.3210663
500,Marsh Creek Drive,29662,34.7572587,-82.3204247
508,Marsh Creek Drive,29662,34.7571164,-82.3198972
101,Turnplow Court,29662,34.7584511,-82.3162326
100,Turnplow Court,29662,34.7581680,-82.3157268
200,Fieldgate Court,29662,34.7581860,-82.3166196
208,Fieldgate Court,29662,34.7575980,-82.3172819
5,Harrow Court,29662,34.7579902,-82.3153510
4,Harrow Court,29662,34.7578181,-82.3159642
201,Fieldgate Court,29662,34.7579207,-82.3162352
1,Croftstone Court,29662,34.7573902,-82.3167656
15,Croftstone Court,29662,34.7567964,-82.3152665
4,Croftstone Court,29662,34.7569294,-82.3167920
14,Croftstone Court,29662,34.7565946,-82.3154718
301,Fieldgate Court,29662,34.7569670,-82.3170347
518,Cranberry Hill Circle,29662,34.7749664,-82.3165655
516,Cranberry Hill Circle,29662,34.7748903,-82.3165104
519,Cranberry Hill Circle,29662,34.7747979,-82.3168326
501,Cranberry Hill Circle,29662,34.7747194,-82.3177377
1,Fortis Way,29662,34.7740995,-82.3176997
21,Fortis Way,29662,34.7747003,-82.3180121
8,Fortis Way,29662,34.7744737,-82.3175397
10,Fortis Way,29662,34.7745351,-82.3175681
2,Farm Ridge,29662,34.7739873,-82.3178733
20,Farm Ridge,29662,34.7746677,-82.3182943
1,Farm Ridge,29662,34.7739709,-82.3183440
21,Farm Ridge,29662,34.7746237,-82.3186270
320,Cranberry Hill Circle,29662,34.7736560,-82.3183896
346,Cranberry Hill Circle,29662,34.7746180,-82.3189165
1,Cranberry Hill Circle,29662,34.7745937,-82.3162530
3,Cranberry Hill Circle,29662,34.7745701,-82.3163034
101,Cranberry Hill Circle,29662,34.7745302,-82.3163894
127,Cranberry Hill Circle,29662,34.7739867,-82.3173618
201,Cranberry Hill Circle,29662,34.7739388,-82.3174513
215,Cranberry Hill Circle,29662,34.7736711,-82.3179040
301,Cranberry Hill Circle,29662,34.7736220,-82.3179872
355,Cranberry Hill Circle,29662,34.7745969,-82.3192912
2,Sikes Circle,29662,34.7730627,-82.3151451
34,Sikes Circle,29662,34.7738524,-82.3157482
21,Sikes Circle,29662,34.7733968,-82.3159109
31,Sikes Circle,29662,34.7736316,-82.3160969
36,Sikes Circle,29662,34.7740852,-82.3158649
58,Sikes Circle,29662,34.7737366,-82.3165130
60,Sikes Circle,29662,34.7735955,-82.3168743
70,Sikes Circle,29662,34.7733655,-82.3166859
69,Sikes Circle,29662,34.7735777,-82.3163417
77,Sikes Circle,29662,34.7733853,-82.3161825
501,Fagin Circle,29662,34.7730980,-82.3156976
523,Fagin Circle,29662,34.7728599,-82.3164098
525,Fagin Circle,29662,34.7730324,-82.3164015
531,Fagin Circle,29662,34.7731572,-82.3165113
411,Twist Circle,29662,34.7728235,-82.3164970
441,Twist Circle,29662,34.7724740,-82.3175044
443,Twist Circle,29662,34.7725320,-82.3176454
451,Twist Circle,29662,34.7727153,-82.3177901
401,Twist Circle,29662,34.7731309,-82.3167699
409,Twist Circle,29662,34.7729458,-82.3166066
100,Bumble Circle,29662,34.7732825,-82.3168961
120,Bumble Circle,29662,34.7738346,-82.3171399
101,Bumble Circle,29662,34.7730829,-82.3172330
111,Bumble Circle,29662,34.7733122,-82.3174300
122,Bumble Circle,29662,34.7736220,-82.3174114
152,Bumble Circle,29662,34.7731050,-82.3182723
200,Bedwin Court,29662,34.7727544,-82.3181052
216,Bedwin Court,29662,34.7729567,-82.3185329
113,Bumble Circle,29662,34.7731960,-82.3175998
123,Bumble Circle,29662,34.7729733,-82.3174087
201,Bedwin Court,29662,34.7725419,-82.3184453
211,Bedwin Court,29662,34.7727704,-82.3186175
301,Huck Court,29662,34.7725988,-82.3179829
311,Huck Court,29662,34.7723621,-82.3177929
300,Cranberry Hill Circle,29662,34.7738306,-82.3182198
302,Cranberry Hill Circle,29662,34.7738776,-82.3182580
100,Cranberry Hill Circle,29662,34.7746710,-82.3168090
118,Cranberry Hill Circle,29662,34.7743000,-82.3174901
4,Pear Tree Court,29662,34.7606004,-82.3263992
6,Pear Tree Court,29662,34.7604239,-82.3264821
3,Pear Tree Court,29662,34.7601633,-82.3261404
5,Pear Tree Court,29662,34.7602395,-82.3264040
314,Appleton Lane,29662,34.7555686,-82.3239243
309,Appleton Lane,29662,34.7557418,-82.3237919
300,Appleton Lane,29662,34.7564696,-82.3245783
305,Appleton Lane,29662,34.7561123,-82.3241492
100,Merlot Court,29662,34.7564575,-82.3241195
104,Merlot Court,29662,34.7563533,-82.3236899
105,Merlot Court,29662,34.7565538,-82.3235093
128,Appleton Lane,29662,34.7576724,-82.3247789
206,Appleton Lane,29662,34.7566982,-82.3245295
103,Merlot Court,29662,34.7567664,-82.3235971
207,Appleton Lane,29662,34.7568629,-82.3240330
200,Appleton Lane,29662,34.7572847,-82.3246021
201,Appleton Lane,29662,34.7575178,-82.3241506
129,Appleton Lane,29662,34.7577234,-82.3242665
107,Appleton Lane,29662,34.7599225,-82.3251911
22,Appleton Lane,29662,34.7606514,-82.3260276
100,Appleton Lane,29662,34.7602860,-82.3258484
101,Appleton Lane,29662,34.7604706,-82.3254503
23,Appleton Lane,29662,34.7606661,-82.3255235
108,Planters Grove Drive,29662,34.7607162,-82.3244008
1,Mango Court,29662,34.7604820,-82.3240493
7,Mango Court,29662,34.7600916,-82.3246150
100,Seedling Way,29662,34.7606360,-82.3238516
2,Appleton Lane,29662,34.7629178,-82.3261135
12,Planters Grove Drive,29662,34.7616987,-82.3247913
100,Planters Grove Drive,29662,34.7614982,-82.3248462
104,Seedling Way,29662,34.7609190,-82.3235366
101,Seedling Way,29662,34.7610320,-82.3241628
105,Seedling Way,29662,34.7611373,-82.3236563
2,Crop Court,29662,34.7614481,-82.3243458
6,Crop Court,29662,34.7615333,-82.3238394
1,Crop Court,29662,34.7619544,-82.3243336
5,Crop Court,29662,34.7617539,-82.3238699
2,Planters Grove Drive,29662,34.7627113,-82.3247242
1,Appleton Lane,29662,34.7628567,-82.3256883
1,Planters Grove Drive,29662,34.7623554,-82.3244252
3,Planters Grove Drive,29662,34.7621900,-82.3244069
202,Peach Grove Place,29662,34.7622602,-82.3240163
201,Peach Grove Place,29662,34.7627700,-82.3240706
207,Peach Grove Place,29662,34.7624812,-82.3234116
526,Peach Grove Place,29662,34.7631156,-82.3243492
523,Peach Grove Place,29662,34.7630498,-82.3238802
4,Park Grove Drive,29662,34.7619083,-82.3219499
1,Napa Court,29662,34.7622005,-82.3221781
102,Park Grove Drive,29662,34.7625086,-82.3224917
4,Peach Grove Place,29662,34.7626697,-82.3222742
201,Park Grove Drive,29662,34.7627299,-82.3232261
212,Peach Grove Place,29662,34.7622678,-82.3228629
204,Park Grove Drive,29662,34.7632277,-82.3228875
1,Peach Grove Place,29662,34.7629068,-82.3228082
4,Napa Court,29662,34.7621198,-82.3216316
7,Napa Court,29662,34.7626858,-82.3214117
301,Park Grove Drive,29662,34.7640915,-82.3235199
213,Park Grove Drive,29662,34.7639178,-82.3234172
503,Peach Grove Place,29662,34.7650263,-82.3240225
313,Park Grove Drive,29662,34.7652464,-82.3237169
314,Park Grove Drive,29662,34.7655436,-82.3233329
442,Peach Grove Place,29662,34.7656632,-82.3239090
500,Peach Grove Place,29662,34.7655313,-82.3240636
216,Park Grove Drive,29662,34.7638342,-82.3229485
4,Winery Court,29662,34.7637690,-82.3225397
8,Winery Court,29662,34.7640949,-82.3222468
1,Winery Court,29662,34.7642252,-82.3229241
5,Winery Court,29662,34.7643054,-82.3223566
302,Park Grove Drive,29662,34.7644157,-82.3229485
1,Blossom Park Court,29662,34.7643633,-82.3216208
22,Peach Grove Place,29662,34.7641896,-82.3211661
100,Peach Grove Place,29662,34.7643781,-82.3210197
2,Blossom Park Court,29662,34.7647165,-82.3215206
17,Peach Grove Place,29662,34.7641336,-82.3216920
16,Blossom Park Court,29662,34.7654817,-82.3228584
11,Blossom Park Court,29662,34.7650423,-82.3227044
435,Peach Grove Place,29662,34.7657391,-82.3230827
110,Peach Grove Place,29662,34.7653686,-82.3210294
412,Peach Grove Place,29662,34.7655130,-82.3211710
409,Peach Grove Place,29662,34.7649958,-82.3213250
109,Groveview Trail,29662,34.7523660,-82.3152111
34,Trailstream Drive,29662,34.7529212,-82.3181852
100,Trailstream Drive,29662,34.7528508,-82.3178604
101,Trailstream Drive,29662,34.7532462,-82.3178773
3,Bethglen Court,29662,34.7538465,-82.3182821
31,Trailstream Drive,29662,34.7534284,-82.3182732
317,Woodvine Way,29662,34.7545701,-82.3180564
5,Bethglen Court,29662,34.7540538,-82.3181404
316,Woodvine Way,29662,34.7547882,-82.3178926
2,Friendsplot Cove,29662,34.7528588,-82.3175089
1,Friendsplot Cove,29662,34.7529681,-82.3169756
9,Friendsplot Cove,29662,34.7525941,-82.3169182
412,Middleshare Drive,29662,34.7535266,-82.3167376
105,Trailstream Drive,29662,34.7532466,-82.3174014
201,Trailstream Drive,29662,34.7533448,-82.3171359
4,Bethglen Court,29662,34.7537193,-82.3175696
8,Bethglen Court,29662,34.7539883,-82.3178307
508,Middleshare Drive,29662,34.7529791,-82.3158931
200,Groveview Trail,29662,34.7526247,-82.3156088
513,Middleshare Drive,29662,34.7531207,-82.3154306
500,Middleshare Drive,29662,34.7532132,-82.3164451
501,Middleshare Drive,29662,34.7534978,-82.3161174
413,Middleshare Drive,29662,34.7536466,-82.3162862
400,Middleshare Drive,29662,34.7542647,-82.3168615
305,Woodvine Way,29662,34.7543374,-82.3173395
228,Woodvine Way,29662,34.7546719,-82.3166004
300,Woodvine Way,29662,34.7546501,-82.3168394
314,Youngers Court,29662,34.7540707,-82.3155526
311,Youngers Court,29662,34.7539123,-82.3156835
401,Middleshare Drive,29662,34.7542974,-82.3164234
221,Woodvine Way,29662,34.7543883,-82.3160207
101,Groveview Trail,29662,34.7527525,-82.3142784
25,Groveview Trail,29662,34.7528555,-82.3140579
100,Groveview Trail,29662,34.7531084,-82.3145648
12,Groveview Trail,29662,34.7534512,-82.3137988
300,Youngers Court,29662,34.7533048,-82.3141709
607,Fieldgate Court,29662,34.7540174,-82.3139231
606,Fieldgate Court,29662,34.7540647,-82.3142019
118,Woodvine Way,29662,34.7551101,-82.3141118
603,Fieldgate Court,29662,34.7543846,-82.3136974
600,Fieldgate Court,29662,34.7546610,-82.3145072
113,Woodvine Way,29662,34.7547909,-82.3140010
200,Woodvine Way,29662,34.7550246,-82.3147285
205,Woodvine Way,29662,34.7546137,-82.3148126
3,Groveview Trail,29662,34.7537030,-82.3125975
101,Woodvine Way,29662,34.7541919,-82.3125070
4,Groveview Trail,29662,34.7539429,-82.3129938
1,Woodvine Way,29662,34.7536230,-82.3121648
3,Woodvine Way,29662,34.7538305,-82.3123013
6,Woodvine Way,29662,34.7541275,-82.3120117
100,Woodvine Way,29662,34.7543133,-82.3121148
1,Trailstream Drive,29662,34.7557564,-82.3174660
2,Trailstream Drive,29662,34.7561768,-82.3176863
402,Fieldgate Court,29662,34.7555922,-82.3172671
410,Fieldgate Court,29662,34.7553438,-82.3162538
500,Fieldgate Court,29662,34.7554175,-82.3159887
401,Fieldgate Court,29662,34.7560558,-82.3170649
308,Fieldgate Court,29662,34.7565187,-82.3177437
305,Fieldgate Court,29662,34.7566201,-82.3172340
307,Fieldgate Court,29662,34.7563343,-82.3172523
3,Fairbounty Court,29662,34.7561516,-82.3166174
5,Fairbounty Court,29662,34.7563362,-82.3164385
407,Fieldgate Court,29662,34.7557658,-82.3165361
508,Fieldgate Court,29662,34.7554152,-82.3153143
501,Fieldgate Court,29662,34.7558244,-82.3160428
4,Fairbounty Court,29662,34.7561316,-82.3160476
6,Fairbounty Court,29662,34.7562805,-82.3162005
300,Fieldgate Court,29662,34.7573961,-82.3174372
515,Fieldgate Court,29662,34.7555298,-82.3145745
2,Mauldin Farms Lane,29662,34.7768318,-82.3196348
9,Mauldin Farms Lane,29662,34.7771884,-82.3193770
100,Daniel Court,29662,34.7771357,-82.3196161
56,Mauldin Farms Lane,29662,34.7771401,-82.3171313
231,West Butler Road,29662,34.7754318,-82.3134371
207,West Butler Road,29662,34.7755413,-82.3127643
101,Daniel Court,29662,34.7773086,-82.3201973
115,Daniel Court,29662,34.7778671,-82.3201213
110,Daniel Court,29662,34.7775600,-82.3196016
2,Glen Laurel Court,29662,34.7775216,-82.3193913
1,Glen Laurel Court,29662,34.7778220,-82.3194317
129,Daniel Court,29662,34.7782995,-82.3195924
117,Daniel Court,29662,34.7780667,-82.3200224
119,Daniel Court,29662,34.7780887,-82.3201564
121,Daniel Court,29662,34.7783364,-82.3201441
127,Daniel Court,29662,34.7781702,-82.3197896
300,Daniel Court,29662,34.7783951,-82.3186790
305,Daniel Court,29662,34.7784055,-82.3191143
27,Glen Laurel Court,29662,34.7779615,-82.3180589
147,Daniel Court,29662,34.7788021,-82.3196896
141,Daniel Court,29662,34.7789821,-82.3199670
139,Daniel Court,29662,34.7786330,-82.3200449
330,Daniel Court,29662,34.7793667,-82.3193220
343,Daniel Court,29662,34.7797251,-82.3195644
55,Mauldin Farms Lane,29662,34.7774766,-82.3171477
36,Glen Laurel Court,29662,34.7776782,-82.3176689
114,West Butler Road,29662,34.7779585,-82.3121366
306,Waycross Lane,29681,34.7697446,-82.2794075
401,Lifesprings Court,29681,34.7701189,-82.2793422
407,Lifesprings Court,29681,34.7699353,-82.2796713
2,Bay Springs Drive,29681,34.7698262,-82.2786516
10,Bay Springs Drive,29681,34.7700142,-82.2788228
300,Waycross Lane,29681,34.7698967,-82.2791472
615,North Main Street,29662,34.7901225,-82.3140861
615,North Main Street,29662,34.7900640,-82.3140822
615,North Main Street,29662,34.7899834,-82.3140767
615,North Main Street,29662,34.7899319,-82.3140732
613,North Main Street,29662,34.7898737,-82.3140977
613,North Main Street,29662,34.7897257,-82.3140908
623,North Main Street,29662,34.7903731,-82.3140590
625,North Main Street,29662,34.7904704,-82.3140636
301,West Butler Road,29662,34.7759524,-82.3150653
301,West Butler Road,29662,34.7760035,-82.3148981
301,West Butler Road,29662,34.7759859,-82.3149624
2,Owens Lane,29662,34.7784680,-82.3075508
602,North Main Street,29662,34.7885562,-82.3130951
206,New Neely Ferry Road,29662,34.7749616,-82.3083799
505,North Main Street,29662,34.7864198,-82.3136797
413,North Main Street,29662,34.7840606,-82.3138556
310,North Main Street,29662,34.7838459,-82.3116450
107,East Butler Road,29662,34.7800368,-82.3035114
113,East Butler Road,29662,34.7805044,-82.3026888
303B,North Main Street,29662,34.7829941,-82.3122726
304,North Main Street,29662,34.7834407,-82.3116361
403,North Main Street,29662,34.7835075,-82.3136352
505,North Main Street,29662,34.7866697,-82.3138629
312,North Main Street,29662,34.7839322,-82.3116792
505,North Main Street,29662,34.7865496,-82.3138366
303A,North Main Street,29662,34.7830625,-82.3123123
306,North Main Street,29662,34.7836732,-82.3115766
401,North Main Street,29662,34.7834517,-82.3136130
439,North Main Street,29662,34.7849285,-82.3132963
304,North Main Street,29662,34.7833757,-82.3116094
516,North Main Street,29662,34.7877836,-82.3130241
409,North Main Street,29662,34.7838026,-82.3137528
505,North Main Street,29662,34.7863986,-82.3138168
314,North Main Street,29662,34.7840185,-82.3117134
105,East Butler Road,29662,34.7797638,-82.3037524
103,East Butler Road,29662,34.7795135,-82.3044801
103,East Butler Road,29662,34.7794597,-82.3046874
103,East Butler Road,29662,34.7796990,-82.3038914
103,East Butler Road,29662,34.7794776,-82.3046183
6,East Butler Road,29662,34.7785760,-82.3087953
14,East Butler Road,29662,34.7782233,-82.3083608
209,East Butler Road,29662,34.7822991,-82.3004558
107,East Butler Road,29662,34.7801251,-82.3033494
113,East Butler Road,29662,34.7804300,-82.3028011
119,East Butler Road,29662,34.7809842,-82.3019600
107,East Butler Road,29662,34.7802429,-82.3031335
105,East Butler Road,29662,34.7797984,-82.3036740
113,East Butler Road,29662,34.7804056,-82.3028482
105,East Butler Road,29662,34.7797293,-82.3038308
103,East Butler Road,29662,34.7795493,-82.3043419
103,East Butler Road,29662,34.7794956,-82.3045492
103,East Butler Road,29662,34.7795852,-82.3042037
107,East Butler Road,29662,34.7802690,-82.3030761
113,East Butler Road,29662,34.7805310,-82.3025806
113,East Butler Road,29662,34.7804667,-82.3027516
209,East Butler Road,29662,34.7823675,-82.3003801
103,East Butler Plaza,29662,34.7796684,-82.3039719
105,East Butler Road,29662,34.7798329,-82.3035956
211,East Butler Road,29662,34.7826426,-82.2999790
211,East Butler Road,29662,34.7824714,-82.3001728
211,East Butler Road,29662,34.7824157,-82.3002310
211,East Butler Road,29662,34.7827288,-82.2998417
211,East Butler Road,29662,34.7825219,-82.3001228
203,East Butler Road,29662,34.7815865,-82.3017204
203,East Butler Road,29662,34.7816777,-82.3016093
433,North Main Street,29662,34.7848603,-82.3141742
520,Bethel Road,29662,34.7774215,-82.2830817
308,East Butler Road,29662,34.7860907,-82.2919691
308,East Butler Road,29662,34.7860677,-82.2920309
787,East Butler Road,29662,34.8003950,-82.2861913
783,East Butler Road,29662,34.7989884,-82.2863035
787,East Butler Road,29662,34.7999522,-82.2862188
785,East Butler Road,29662,34.7993385,-82.2862837
787,East Butler Road,29662,34.8001626,-82.2861989
787,East Butler Road,29662,34.8002710,-82.2861986
783,East Butler Road,29662,34.7986497,-82.2863049
787,East Butler Road,29662,34.8003355,-82.2861926
783,East Butler Road,29662,34.7989315,-82.2863226
785,East Butler Road,29662,34.7994744,-82.2862767
5,Owens Lane,29662,34.7782069,-82.3077028
1099,East Butler Road,29607,34.8114513,-82.2786658
1099,East Butler Road,29607,34.8118721,-82.2781079
115,West Butler Road,29662,34.7769039,-82.3107300
1099,East Butler Road,29607,34.8115810,-82.2784938
257,West Butler Road,29662,34.7757891,-82.3140049
243,West Butler Road,29662,34.7755758,-82.3137422
119,West Butler Road,29662,34.7768321,-82.3108968
101,South Main Street,29662,34.7783275,-82.3090466
275,West Butler Road,29662,34.7759897,-82.3141367
3,Oyster Bay Court,29662,34.7618773,-82.3187087
4,Nucrop Court,29662,34.7638651,-82.3158338
4,Oyster Bay Court,29662,34.7624166,-82.3187370
1054,East Butler Road,29607,34.8092383,-82.2801061
150,Tanner Road,29607,34.8150680,-82.2745673
150,Tanner Road,29607,34.8152497,-82.2746771
150,Tanner Road,29607,34.8153385,-82.2747353
1054,East Butler Road,29607,34.8093391,-82.2799538
206D,New Neely Ferry Road,29662,34.7744995,-82.3076987
411,West Butler Road,29662,34.7751556,-82.3180424
121,West Butler Road,29662,34.7767962,-82.3109802
117,West Butler Road,29662,34.7768680,-82.3108134
113,West Butler Road,29662,34.7769398,-82.3106466
1099,East Butler Road,29607,34.8118371,-82.2781543
1099,East Butler Road,29607,34.8118074,-82.2781937
1099,East Butler Road,29607,34.8117798,-82.2782302
1099,East Butler Road,29607,34.8117534,-82.2782652
1099,East Butler Road,29607,34.8117227,-82.2783059
1099,East Butler Road,29607,34.8116945,-82.2783434
1099,East Butler Road,29607,34.8116537,-82.2783974
1099,East Butler Road,29607,34.8116179,-82.2784449
1099,East Butler Road,29607,34.8115381,-82.2785506
101,South Main Street,29662,34.7782667,-82.3089957
101,South Main Street,29662,34.7781652,-82.3089078
613,North Main Street,29662,34.7897750,-82.3140931
613,North Main Street,29662,34.7898244,-82.3140954
301,Ashby Park Lane,29607,34.8142845,-82.2742349
411,West Butler Road,29662,34.7751292,-82.3182371
411,West Butler Road,29662,34.7751424,-82.3181397
783,East Butler Road,29662,34.7987196,-82.2863223
783,East Butler Road,29662,34.7988029,-82.2863280
783,East Butler Road,29662,34.7988629,-82.2863269
785,East Butler Road,29662,34.7994091,-82.2862858
785,East Butler Road,29662,34.7995416,-82.2862756
787,East Butler Road,29662,34.8000494,-82.2862117
48,Brookfield Oaks Drive,29607,34.8069690,-82.2787447
249,West Butler Road,29662,34.7756018,-82.3138126
255,West Butler Road,29662,34.7756823,-82.3139414
261,West Butler Road,29662,34.7758611,-82.3140565
219,West Butler Road,29662,34.7753591,-82.3131703
225,West Butler Road,29662,34.7753844,-82.3133140
237,West Butler Road,29662,34.7755372,-82.3136038
701,Regent Park Court,29607,34.8088742,-82.2797076
400,Regent Park Court,29607,34.8080771,-82.2793996
308,East Butler Road,29662,34.7861124,-82.2918858
308,East Butler Road,29662,34.7859913,-82.2921869
120,Renaisance Circle,29662,34.7856675,-82.3112992
56,Brookfield Oaks Drive,29607,34.8054448,-82.2791178
56,Brookfield Oaks Drive,29607,34.8050551,-82.2792113
48,Brookfield Oaks Drive,29607,34.8061717,-82.2788668
211,East Butler Road,29662,34.7826794,-82.2999146
100,North Main Street,29662,34.7792018,-82.3094764
120,North Main Street,29662,34.7792904,-82.3095012
120,North Main Street,29662,34.7793736,-82.3095320
308,North Main Street,29662,34.7837595,-82.3116108
1,East Butler Road,29662,34.7790681,-82.3094419
429,North Main Street,29662,34.7847108,-82.3141147
53,Connaught Court,29662,34.7900041,-82.2901918
51,Connaught Court,29662,34.7899505,-82.2901641
55,Connaught Court,29662,34.7900577,-82.2902195
49,Connaught Court,29662,34.7898969,-82.2901364
43,Connaught Court,29662,34.7897886,-82.2899853
41,Connaught Court,29662,34.7897475,-82.2899361
35,Connaught Court,29662,34.7896157,-82.2897823
33,Connaught Court,29662,34.7895723,-82.2897300
27,Connaught Court,29662,34.7894438,-82.2895628
25,Connaught Court,29662,34.7894049,-82.2895136
19,Connaught Court,29662,34.7892663,-82.2893458
45,Connaught Court,29662,34.7898297,-82.2900344
39,Connaught Court,29662,34.7897063,-82.2898869
37,Connaught Court,29662,34.7896590,-82.2898346
31,Connaught Court,29662,34.7895290,-82.2896777
29,Connaught Court,29662,34.7894828,-82.2896120
23,Connaught Court,29662,34.7893660,-82.2894645
21,Connaught Court,29662,34.7893043,-82.2894028
17,Connaught Court,29662,34.7892283,-82.2892888
42,Connaught Court,29662,34.7900680,-82.2897479
40,Connaught Court,29662,34.7900276,-82.2896987
44,Connaught Court,29662,34.7901084,-82.2897971
38,Connaught Court,29662,34.7899872,-82.2896495
34,Connaught Court,29662,34.7898881,-82.2895356
32,Connaught Court,29662,34.7898517,-82.2894886
26,Connaught Court,29662,34.7897085,-82.2893147
24,Connaught Court,29662,34.7896711,-82.2892669
36,Connaught Court,29662,34.7899244,-82.2895825
30,Connaught Court,29662,34.7898154,-82.2894417
28,Connaught Court,29662,34.7897460,-82.2893626
22,Connaught Court,29662,34.7896337,-82.2892191
18,Connaught Court,29662,34.7895301,-82.2891225
14,Connaught Court,29662,34.7894927,-82.2890018
12,Connaught Court,29662,34.7894718,-82.2889388
6,Connaught Court,29662,34.7894229,-82.2887577
4,Connaught Court,29662,34.7894060,-82.2886907
16,Connaught Court,29662,34.7895136,-82.2890648
8,Connaught Court,29662,34.7894398,-82.2888248
2,Connaught Court,29662,34.7893891,-82.2886236
1054,East Butler Road,29607,34.8092768,-82.2800479
302,Waycross Lane,29681,34.7698512,-82.2792251
304,Waycross Lane,29681,34.7697963,-82.2793190
308,Waycross Lane,29681,34.7696870,-82.2795060
310,Waycross Lane,29681,34.7696283,-82.2796064
405,Lifesprings Court,29681,34.7699871,-82.2795785
403,Lifesprings Court,29681,34.7700664,-82.2794364
8,Bay Springs Drive,29681,34.7699694,-82.2787819
6,Bay Springs Drive,29681,34.7699239,-82.2787405
4,Bay Springs Drive,29681,34.7698846,-82.2787047
12,Bay Springs Drive,29681,34.7700844,-82.2788864
14,Bay Springs Drive,29681,34.7701257,-82.2789244
16,Bay Springs Drive,29681,34.7701746,-82.2789693
18,Bay Springs Drive,29681,34.7702203,-82.2790114
20,Bay Springs Drive,29681,34.7702651,-82.2790526
22,Bay Springs Drive,29681,34.7703059,-82.2790901
24,Bay Springs Drive,29681,34.7704213,-82.2791863
26,Bay Springs Drive,29681,34.7704581,-82.2792173
28,Bay Springs Drive,29681,34.7705100,-82.2792610
30,Bay Springs Drive,29681,34.7705605,-82.2793035
32,Bay Springs Drive,29681,34.7706032,-82.2793394
34,Bay Springs Drive,29681,34.7706515,-82.2793801
46,Bay Springs Drive,29681,34.7709794,-82.2796663
44,Bay Springs Drive,29681,34.7709311,-82.2796255
42,Bay Springs Drive,29681,34.7708884,-82.2795896
40,Bay Springs Drive,29681,34.7708379,-82.2795471
38,Bay Springs Drive,29681,34.7707860,-82.2795034
36,Bay Springs Drive,29681,34.7707492,-82.2794724
58,Bay Springs Drive,29681,34.7713014,-82.2799511
56,Bay Springs Drive,29681,34.7712531,-82.2799104
54,Bay Springs Drive,29681,34.7712104,-82.2798745
52,Bay Springs Drive,29681,34.7711599,-82.2798320
50,Bay Springs Drive,29681,34.7711080,-82.2797883
48,Bay Springs Drive,29681,34.7710713,-82.2797573
70,Bay Springs Drive,29681,34.7716078,-82.2802191
68,Bay Springs Drive,29681,34.7715594,-82.2801784
66,Bay Springs Drive,29681,34.7715168,-82.2801425
64,Bay Springs Drive,29681,34.7714663,-82.2800999
62,Bay Springs Drive,29681,34.7714144,-82.2800563
60,Bay Springs Drive,29681,34.7713776,-82.2800253
107,East Butler Road,29662,34.7803028,-82.3030172
107,East Butler Road,29662,34.7802135,-82.3031875
107,East Butler Road,29662,34.7801840,-82.3032415
107,East Butler Road,29662,34.7801546,-82.3032954
107,East Butler Road,29662,34.7800957,-82.3034034
107,East Butler Road,29662,34.7800662,-82.3034574
101,South Main Street,29662,34.7782123,-82.3089541
1140,East Butler Road,29607,34.8135108,-82.2751487
1140,East Butler Road,29607,34.8134677,-82.2751920
1140,East Butler Road,29607,34.8134247,-82.2752352
1140,East Butler Road,29607,34.8133816,-82.2752785
1140,East Butler Road,29607,34.8133385,-82.2753217
1140,East Butler Road,29607,34.8132954,-82.2753650
1140,East Butler Road,29607,34.8132523,-82.2754082
1140,East Butler Road,29607,34.8132092,-82.2754515
1140,East Butler Road,29607,34.8131661,-82.2754947
1140,East Butler Road,29607,34.8131231,-82.2755380
1140,East Butler Road,29607,34.8130800,-82.2755812
1140,East Butler Road,29607,34.8130369,-82.2756245
529,Fagin Circle,29662,34.7731156,-82.3164747
527,Fagin Circle,29662,34.7730740,-82.3164381
407,Twist Circle,29662,34.7729921,-82.3166475
405,Twist Circle,29662,34.7730383,-82.3166883
403,Twist Circle,29662,34.7730846,-82.3167291
439,Twist Circle,29662,34.7724973,-82.3174372
437,Twist Circle,29662,34.7725206,-82.3173701
435,Twist Circle,29662,34.7725439,-82.3173029
433,Twist Circle,29662,34.7725672,-82.3172358
431,Twist Circle,29662,34.7725905,-82.3171686
429,Twist Circle,29662,34.7726138,-82.3171014
427,Twist Circle,29662,34.7726371,-82.3170343
425,Twist Circle,29662,34.7726604,-82.3169671
423,Twist Circle,29662,34.7726837,-82.3168999
421,Twist Circle,29662,34.7727145,-82.3168122
419,Twist Circle,29662,34.7727359,-82.3167496
417,Twist Circle,29662,34.7727611,-82.3166779
415,Twist Circle,29662,34.7727769,-82.3166313
413,Twist Circle,29662,34.7728002,-82.3165641
449,Twist Circle,29662,34.7726694,-82.3177539
447,Twist Circle,29662,34.7726236,-82.3177177
445,Twist Circle,29662,34.7725778,-82.3176816
309,Huck Court,29662,34.7724094,-82.3178309
307,Huck Court,29662,34.7724568,-82.3178689
305,Huck Court,29662,34.7725041,-82.3179069
303,Huck Court,29662,34.7725515,-82.3179449
521,Fagin Circle,29662,34.7728815,-82.3163451
519,Fagin Circle,29662,34.7729032,-82.3162803
517,Fagin Circle,29662,34.7729248,-82.3162156
515,Fagin Circle,29662,34.7729465,-82.3161508
513,Fagin Circle,29662,34.7729681,-82.3160861
511,Fagin Circle,29662,34.7729898,-82.3160213
509,Fagin Circle,29662,34.7730114,-82.3159566
507,Fagin Circle,29662,34.7730331,-82.3158918
505,Fagin Circle,29662,34.7730547,-82.3158271
503,Fagin Circle,29662,34.7730763,-82.3157623
32,Sikes Circle,29662,34.7738031,-82.3157105
30,Sikes Circle,29662,34.7737537,-82.3156728
28,Sikes Circle,29662,34.7737044,-82.3156351
26,Sikes Circle,29662,34.7736550,-82.3155974
24,Sikes Circle,29662,34.7736056,-82.3155597
22,Sikes Circle,29662,34.7735563,-82.3155220
20,Sikes Circle,29662,34.7735069,-82.3154843
18,Sikes Circle,29662,34.7734576,-82.3154466
16,Sikes Circle,29662,34.7734082,-82.3154089
14,Sikes Circle,29662,34.7733588,-82.3153712
12,Sikes Circle,29662,34.7733095,-82.3153335
10,Sikes Circle,29662,34.7732601,-82.3152959
8,Sikes Circle,29662,34.7732108,-82.3152582
6,Sikes Circle,29662,34.7731614,-82.3152205
4,Sikes Circle,29662,34.7731120,-82.3151828
56,Sikes Circle,29662,34.7737683,-82.3164541
54,Sikes Circle,29662,34.7738000,-82.3163951
52,Sikes Circle,29662,34.7738316,-82.3163362
50,Sikes Circle,29662,34.7738633,-82.3162773
48,Sikes Circle,29662,34.7738950,-82.3162184
46,Sikes Circle,29662,34.7739267,-82.3161595
44,Sikes Circle,29662,34.7739584,-82.3161006
42,Sikes Circle,29662,34.7739901,-82.3160417
40,Sikes Circle,29662,34.7740218,-82.3159827
38,Sikes Circle,29662,34.7740535,-82.3159238
29,Sikes Circle,29662,34.7735846,-82.3160597
27,Sikes Circle,29662,34.7735377,-82.3160225
25,Sikes Circle,29662,34.7734907,-82.3159853
23,Sikes Circle,29662,34.7734437,-82.3159481
75,Sikes Circle,29662,34.7734334,-82.3162223
73,Sikes Circle,29662,34.7734815,-82.3162621
71,Sikes Circle,29662,34.7735296,-82.3163019
68,Sikes Circle,29662,34.7734115,-82.3167235
66,Sikes Circle,29662,34.7734575,-82.3167612
64,Sikes Circle,29662,34.7735035,-82.3167989
62,Sikes Circle,29662,34.7735495,-82.3168366
118,Bumble Circle,29662,34.7737961,-82.3171086
116,Bumble Circle,29662,34.7737426,-82.3170636
114,Bumble Circle,29662,34.7736966,-82.3170289
112,Bumble Circle,29662,34.7736493,-82.3169897
110,Bumble Circle,29662,34.7735215,-82.3170856
108,Bumble Circle,29662,34.7734676,-82.3170426
106,Bumble Circle,29662,34.7734319,-82.3170114
104,Bumble Circle,29662,34.7733821,-82.3169722
102,Bumble Circle,29662,34.7733370,-82.3169410
109,Bumble Circle,29662,34.7732663,-82.3173906
107,Bumble Circle,29662,34.7732205,-82.3173512
105,Bumble Circle,29662,34.7731746,-82.3173118
103,Bumble Circle,29662,34.7731288,-82.3172724
121,Bumble Circle,29662,34.7730178,-82.3174469
119,Bumble Circle,29662,34.7730624,-82.3174851
117,Bumble Circle,29662,34.7731069,-82.3175234
115,Bumble Circle,29662,34.7731514,-82.3175616
150,Bumble Circle,29662,34.7731394,-82.3182150
148,Bumble Circle,29662,34.7731739,-82.3181576
146,Bumble Circle,29662,34.7732084,-82.3181002
144,Bumble Circle,29662,34.7732428,-82.3180428
142,Bumble Circle,29662,34.7732773,-82.3179854
140,Bumble Circle,29662,34.7733118,-82.3179280
138,Bumble Circle,29662,34.7733463,-82.3178706
136,Bumble Circle,29662,34.7733807,-82.3178132
134,Bumble Circle,29662,34.7734152,-82.3177558
132,Bumble Circle,29662,34.7734497,-82.3176984
130,Bumble Circle,29662,34.7734841,-82.3176410
128,Bumble Circle,29662,34.7735186,-82.3175836
126,Bumble Circle,29662,34.7735531,-82.3175262
124,Bumble Circle,29662,34.7735875,-82.3174688
214,Bedwin Court,29662,34.7729833,-82.3184777
212,Bedwin Court,29662,34.7730108,-82.3184248
210,Bedwin Court,29662,34.7730596,-82.3183624
208,Bedwin Court,29662,34.7729483,-82.3182592
206,Bedwin Court,29662,34.7729027,-82.3182198
204,Bedwin Court,29662,34.7728485,-82.3181736
202,Bedwin Court,29662,34.7728047,-82.3181388
209,Bedwin Court,29662,34.7727247,-82.3185830
207,Bedwin Court,29662,34.7726790,-82.3185486
205,Bedwin Court,29662,34.7726333,-82.3185141
203,Bedwin Court,29662,34.7725876,-82.3184797
344,Cranberry Hill Circle,29662,34.7745744,-82.3189068
342,Cranberry Hill Circle,29662,34.7744848,-82.3188935
340,Cranberry Hill Circle,29662,34.7744093,-82.3188746
338,Cranberry Hill Circle,29662,34.7742973,-82.3188226
336,Cranberry Hill Circle,29662,34.7742171,-82.3187991
334,Cranberry Hill Circle,29662,34.7741370,-82.3187756
332,Cranberry Hill Circle,29662,34.7740660,-82.3187267
330,Cranberry Hill Circle,29662,34.7739977,-82.3186705
328,Cranberry Hill Circle,29662,34.7739293,-82.3186143
326,Cranberry Hill Circle,29662,34.7738263,-82.3185536
324,Cranberry Hill Circle,29662,34.7737645,-82.3185054
322,Cranberry Hill Circle,29662,34.7737000,-82.3184241
353,Cranberry Hill Circle,29662,34.7745238,-82.3192707
351,Cranberry Hill Circle,29662,34.7744507,-82.3192502
349,Cranberry Hill Circle,29662,34.7743776,-82.3192297
347,Cranberry Hill Circle,29662,34.7743044,-82.3192092
345,Cranberry Hill Circle,29662,34.7742318,-82.3191865
343,Cranberry Hill Circle,29662,34.7741611,-82.3191561
341,Cranberry Hill Circle,29662,34.7740903,-82.3191257
339,Cranberry Hill Circle,29662,34.7739989,-82.3190897
337,Cranberry Hill Circle,29662,34.7739507,-82.3190596
335,Cranberry Hill Circle,29662,34.7738684,-82.3190031
333,Cranberry Hill Circle,29662,34.7738162,-82.3189786
331,Cranberry Hill Circle,29662,34.7737283,-82.3189393
329,Cranberry Hill Circle,29662,34.7736926,-82.3189075
327,Cranberry Hill Circle,29662,34.7736233,-82.3188386
325,Cranberry Hill Circle,29662,34.7735615,-82.3187868
323,Cranberry Hill Circle,29662,34.7734594,-82.3187008
321,Cranberry Hill Circle,29662,34.7734033,-82.3186592
315,Cranberry Hill Circle,29662,34.7732907,-82.3185330
313,Cranberry Hill Circle,29662,34.7733372,-82.3184459
311,Cranberry Hill Circle,29662,34.7733884,-82.3183736
309,Cranberry Hill Circle,29662,34.7734246,-82.3183128
307,Cranberry Hill Circle,29662,34.7734796,-82.3182474
305,Cranberry Hill Circle,29662,34.7735233,-82.3181728
303,Cranberry Hill Circle,29662,34.7735773,-82.3180606
213,Cranberry Hill Circle,29662,34.7737037,-82.3178542
211,Cranberry Hill Circle,29662,34.7737476,-82.3177747
209,Cranberry Hill Circle,29662,34.7737858,-82.3177100
207,Cranberry Hill Circle,29662,34.7738372,-82.3176168
205,Cranberry Hill Circle,29662,34.7738623,-82.3175807
203,Cranberry Hill Circle,29662,34.7739006,-82.3175160
125,Cranberry Hill Circle,29662,34.7740285,-82.3172870
123,Cranberry Hill Circle,29662,34.7740703,-82.3172122
121,Cranberry Hill Circle,29662,34.7741121,-82.3171374
119,Cranberry Hill Circle,29662,34.7741539,-82.3170626
117,Cranberry Hill Circle,29662,34.7741957,-82.3169878
115,Cranberry Hill Circle,29662,34.7742375,-82.3169130
113,Cranberry Hill Circle,29662,34.7742653,-82.3168541
111,Cranberry Hill Circle,29662,34.7743211,-82.3167634
109,Cranberry Hill Circle,29662,34.7743629,-82.3166886
107,Cranberry Hill Circle,29662,34.7744047,-82.3166138
105,Cranberry Hill Circle,29662,34.7744465,-82.3165390
103,Cranberry Hill Circle,29662,34.7744884,-82.3164642
19,Fortis Way,29662,34.7746365,-82.3179914
17,Fortis Way,29662,34.7745727,-82.3179707
15,Fortis Way,29662,34.7745089,-82.3179500
11,Fortis Way,29662,34.7744142,-82.3179336
9,Fortis Way,29662,34.7743452,-82.3178964
7,Fortis Way,29662,34.7742683,-82.3178259
5,Fortis Way,29662,34.7742121,-82.3177838
3,Fortis Way,29662,34.7741558,-82.3177418
18,Farm Ridge,29662,34.7745855,-82.3182636
16,Farm Ridge,29662,34.7744874,-82.3182215
14,Farm Ridge,29662,34.7744117,-82.3181885
12,Farm Ridge,29662,34.7743070,-82.3181533
10,Farm Ridge,29662,34.7742651,-82.3181203
8,Farm Ridge,29662,34.7741666,-82.3180300
6,Farm Ridge,29662,34.7740953,-82.3179706
4,Farm Ridge,29662,34.7740202,-82.3178997
19,Farm Ridge,29662,34.7745550,-82.3186116
17,Farm Ridge,29662,34.7744159,-82.3186042
15,Farm Ridge,29662,34.7743518,-82.3185706
11,Farm Ridge,29662,34.7742739,-82.3185384
9,Farm Ridge,29662,34.7742251,-82.3185091
7,Farm Ridge,29662,34.7741595,-82.3184559
5,Farm Ridge,29662,34.7740966,-82.3184186
3,Farm Ridge,29662,34.7740084,-82.3183721
116,Cranberry Hill Circle,29662,34.7743412,-82.3174144
114,Cranberry Hill Circle,29662,34.7743824,-82.3173387
112,Cranberry Hill Circle,29662,34.7744237,-82.3172631
110,Cranberry Hill Circle,29662,34.7744649,-82.3171874
108,Cranberry Hill Circle,29662,34.7745061,-82.3171117
106,Cranberry Hill Circle,29662,34.7745473,-82.3170360
104,Cranberry Hill Circle,29662,34.7745886,-82.3169604
102,Cranberry Hill Circle,29662,34.7746298,-82.3168847
517,Cranberry Hill Circle,29662,34.7748609,-82.3169033
515,Cranberry Hill Circle,29662,34.7748226,-82.3170384
513,Cranberry Hill Circle,29662,34.7748133,-82.3171096
511,Cranberry Hill Circle,29662,34.7748078,-82.3172162
509,Cranberry Hill Circle,29662,34.7747901,-82.3173205
507,Cranberry Hill Circle,29662,34.7747725,-82.3174248
505,Cranberry Hill Circle,29662,34.7747548,-82.3175291
503,Cranberry Hill Circle,29662,34.7747371,-82.3176334
54,Mauldin Farms Lane,29662,34.7771217,-82.3172225
52,Mauldin Farms Lane,29662,34.7771005,-82.3173421
50,Mauldin Farms Lane,29662,34.7770774,-82.3174436
48,Mauldin Farms Lane,29662,34.7770609,-82.3175302
46,Mauldin Farms Lane,29662,34.7770481,-82.3175871
44,Mauldin Farms Lane,29662,34.7770326,-82.3177040
42,Mauldin Farms Lane,29662,34.7770239,-82.3177960
40,Mauldin Farms Lane,29662,34.7770191,-82.3178937
38,Mauldin Farms Lane,29662,34.7770039,-82.3179583
36,Mauldin Farms Lane,29662,34.7770037,-82.3180663
34,Mauldin Farms Lane,29662,34.7769848,-82.3181799
32,Mauldin Farms Lane,29662,34.7769752,-82.3182765
30,Mauldin Farms Lane,29662,34.7769656,-82.3183309
28,Mauldin Farms Lane,29662,34.7769561,-82.3184240
26,Mauldin Farms Lane,29662,34.7769465,-82.3185171
24,Mauldin Farms Lane,29662,34.7769370,-82.3186103
22,Mauldin Farms Lane,29662,34.7769274,-82.3187034
20,Mauldin Farms Lane,29662,34.7769178,-82.3187966
18,Mauldin Farms Lane,29662,34.7769130,-82.3188509
16,Mauldin Farms Lane,29662,34.7768987,-82.3189828
14,Mauldin Farms Lane,29662,34.7768892,-82.3190760
12,Mauldin Farms Lane,29662,34.7768749,-82.3192079
10,Mauldin Farms Lane,29662,34.7768700,-82.3192623
8,Mauldin Farms Lane,29662,34.7768605,-82.3193554
6,Mauldin Farms Lane,29662,34.7768556,-82.3194040
4,Mauldin Farms Lane,29662,34.7768414,-82.3195417
53,Mauldin Farms Lane,29662,34.7774640,-82.3172446
51,Mauldin Farms Lane,29662,34.7774515,-82.3173415
49,Mauldin Farms Lane,29662,34.7774390,-82.3174384
47,Mauldin Farms Lane,29662,34.7774264,-82.3175354
45,Mauldin Farms Lane,29662,34.7774139,-82.3176323
43,Mauldin Farms Lane,29662,34.7774014,-82.3177292
41,Mauldin Farms Lane,29662,34.7773889,-82.3178262
39,Mauldin Farms Lane,29662,34.7773763,-82.3179231
37,Mauldin Farms Lane,29662,34.7773638,-82.3180200
35,Mauldin Farms Lane,29662,34.7773513,-82.3181169
33,Mauldin Farms Lane,29662,34.7773387,-82.3182139
31,Mauldin Farms Lane,29662,34.7773262,-82.3183108
29,Mauldin Farms Lane,29662,34.7773146,-82.3183678
27,Mauldin Farms Lane,29662,34.7773021,-82.3184510
25,Mauldin Farms Lane,29662,34.7772858,-82.3185708
23,Mauldin Farms Lane,29662,34.7772761,-82.3186985
21,Mauldin Farms Lane,29662,34.7772636,-82.3187954
19,Mauldin Farms Lane,29662,34.7772510,-82.3188924
17,Mauldin Farms Lane,29662,34.7772385,-82.3189893
15,Mauldin Farms Lane,29662,34.7772260,-82.3190862
13,Mauldin Farms Lane,29662,34.7772134,-82.3191832
11,Mauldin Farms Lane,29662,34.7772009,-82.3192801
25,Glen Laurel Court,29662,34.7779662,-82.3181199
23,Glen Laurel Court,29662,34.7779698,-82.3182219
21,Glen Laurel Court,29662,34.7779707,-82.3183376
19,Glen Laurel Court,29662,34.7779585,-82.3184579
17,Glen Laurel Court,29662,34.7779565,-82.3185645
15,Glen Laurel Court,29662,34.7779574,-82.3187178
13,Glen Laurel Court,29662,34.7779371,-82.3188169
11,Glen Laurel Court,29662,34.7779062,-82.3189570
9,Glen Laurel Court,29662,34.7778959,-82.3190332
7,Glen Laurel Court,29662,34.7778753,-82.3191699
5,Glen Laurel Court,29662,34.7778632,-82.3192245
3,Glen Laurel Court,29662,34.7778426,-82.3193281
34,Glen Laurel Court,29662,34.7776312,-82.3177568
32,Glen Laurel Court,29662,34.7775992,-82.3179758
30,Glen Laurel Court,29662,34.7776072,-82.3180220
28,Glen Laurel Court,29662,34.7776257,-82.3181422
26,Glen Laurel Court,29662,34.7776329,-82.3182453
24,Glen Laurel Court,29662,34.7776298,-82.3183633
22,Glen Laurel Court,29662,34.7776154,-82.3184219
20,Glen Laurel Court,29662,34.7776273,-82.3185250
18,Glen Laurel Court,29662,34.7776149,-82.3186221
16,Glen Laurel Court,29662,34.7775920,-82.3187294
14,Glen Laurel Court,29662,34.7775682,-82.3188286
12,Glen Laurel Court,29662,34.7775416,-82.3189371
10,Glen Laurel Court,29662,34.7775282,-82.3189720
8,Glen Laurel Court,29662,34.7775256,-82.3191168
6,Glen Laurel Court,29662,34.7775193,-82.3192136
4,Glen Laurel Court,29662,34.7775195,-82.3193379
328,Daniel Court,29662,34.7793428,-82.3192774
326,Daniel Court,29662,34.7792608,-82.3191894
324,Daniel Court,29662,34.7792247,-82.3191322
322,Daniel Court,29662,34.7791549,-82.3190568
320,Daniel Court,29662,34.7791329,-82.3190133
318,Daniel Court,29662,34.7790477,-82.3189268
316,Daniel Court,29662,34.7789752,-82.3188993
314,Daniel Court,29662,34.7788717,-82.3188683
312,Daniel Court,29662,34.7788301,-82.3188442
310,Daniel Court,29662,34.7787576,-82.3188167
308,Daniel Court,29662,34.7786851,-82.3187891
306,Daniel Court,29662,34.7786126,-82.3187616
304,Daniel Court,29662,34.7785401,-82.3187340
302,Daniel Court,29662,34.7784404,-82.3186894
341,Daniel Court,29662,34.7797034,-82.3196153
339,Daniel Court,29662,34.7796405,-82.3196776
337,Daniel Court,29662,34.7796019,-82.3197319
335,Daniel Court,29662,34.7794933,-82.3197473
333,Daniel Court,29662,34.7794256,-82.3197656
331,Daniel Court,29662,34.7793158,-82.3197863
329,Daniel Court,29662,34.7792442,-82.3197487
327,Daniel Court,29662,34.7791646,-82.3196787
325,Daniel Court,29662,34.7791214,-82.3196200
323,Daniel Court,29662,34.7790062,-82.3194131
321,Daniel Court,29662,34.7789499,-82.3193453
319,Daniel Court,29662,34.7788642,-82.3193075
317,Daniel Court,29662,34.7788148,-82.3192890
315,Daniel Court,29662,34.7787466,-82.3192614
313,Daniel Court,29662,34.7786962,-82.3192338
311,Daniel Court,29662,34.7785951,-82.3192017
309,Daniel Court,29662,34.7785251,-82.3191718
307,Daniel Court,29662,34.7784344,-82.3191362
108,Daniel Court,29662,34.7774751,-82.3196045
106,Daniel Court,29662,34.7773659,-82.3196097
104,Daniel Court,29662,34.7773054,-82.3196103
102,Daniel Court,29662,34.7772206,-82.3196132
113,Daniel Court,29662,34.7778648,-82.3202321
111,Daniel Court,29662,34.7777743,-82.3203057
109,Daniel Court,29662,34.7776686,-82.3203375
107,Daniel Court,29662,34.7775628,-82.3203693
105,Daniel Court,29662,34.7774601,-82.3203755
103,Daniel Court,29662,34.7773658,-82.3203092
125,Daniel Court,29662,34.7782570,-82.3198860
123,Daniel Court,29662,34.7783125,-82.3200041
137,Daniel Court,29662,34.7785663,-82.3199544
135,Daniel Court,29662,34.7784996,-82.3198639
133,Daniel Court,29662,34.7784329,-82.3197734
131,Daniel Court,29662,34.7783662,-82.3196829
145,Daniel Court,29662,34.7788568,-82.3197790
143,Daniel Court,29662,34.7789405,-82.3198719
205,Edmondston Court,29662,34.7645343,-82.3172155
203,Edmondston Court,29662,34.7643748,-82.3170594
5,Natchez Drive,29662,34.7639060,-82.3173760
3,Natchez Drive,29662,34.7641015,-82.3175329
104,Edmondston Court,29662,34.7635137,-82.3164713
102,Edmondston Court,29662,34.7633571,-82.3166685
5,Planters Row Drive,29662,34.7629230,-82.3173228
3,Cade Court,29662,34.7628874,-82.3184934
4,Cade Court,29662,34.7633220,-82.3182021
204,Planters Row Drive,29662,34.7616745,-82.3183019
308,Planters Row Drive,29662,34.7610061,-82.3181765
304,Planters Row Drive,29662,34.7612261,-82.3181925
4,Sickle Court,29662,34.7614334,-82.3173945
9,Charlestown Court,29662,34.7611110,-82.3168787
5,Charlestown Court,29662,34.7611176,-82.3171975
3,Charlestown Court,29662,34.7609839,-82.3174064
6,Charlestown Court,29662,34.7605855,-82.3169875
4,Charlestown Court,29662,34.7605568,-82.3173107
7,Seagrass Court,29662,34.7601045,-82.3166985
5,Seagrass Court,29662,34.7600952,-82.3169684
3,Seagrass Court,29662,34.7599531,-82.3171714
4,Seagrass Court,29662,34.7595095,-82.3167691
108,Sea Oats Inlet,29662,34.7590727,-82.3177752
106,Sea Oats Inlet,29662,34.7589639,-82.3180443
104,Sea Oats Inlet,29662,34.7588551,-82.3183134
412,Planters Row Drive,29662,34.7598045,-82.3179651
408,Planters Row Drive,29662,34.7600429,-82.3180515
404,Planters Row Drive,29662,34.7602904,-82.3181024
23,Marsh Creek Drive,29662,34.7594849,-82.3187070
21,Marsh Creek Drive,29662,34.7597238,-82.3187141
19,Marsh Creek Drive,29662,34.7599458,-82.3187669
17,Marsh Creek Drive,29662,34.7601548,-82.3187740
15,Marsh Creek Drive,29662,34.7603993,-82.3187492
11,Marsh Creek Drive,29662,34.7605903,-82.3187794
9,Marsh Creek Drive,29662,34.7608330,-82.3188664
7,Marsh Creek Drive,29662,34.7610338,-82.3188831
5,Marsh Creek Drive,29662,34.7612266,-82.3189395
3,Marsh Creek Drive,29662,34.7613717,-82.3191093
15,Sea Oats Inlet,29662,34.7592057,-82.3195037
9,Sea Oats Inlet,29662,34.7593033,-82.3197544
5,Sea Oats Inlet,29662,34.7594020,-82.3200433
18,Sea Oats Inlet,29662,34.7587592,-82.3194991
14,Sea Oats Inlet,29662,34.7588448,-82.3197512
10,Sea Oats Inlet,29662,34.7589304,-82.3200034
6,Sea Oats Inlet,29662,34.7590160,-82.3202555
329,Marsh Creek Drive,29662,34.7579137,-82.3220059
327,Marsh Creek Drive,29662,34.7577586,-82.3222151
325,Marsh Creek Drive,29662,34.7575848,-82.3224007
323,Marsh Creek Drive,29662,34.7573470,-82.3223925
321,Marsh Creek Drive,29662,34.7571211,-82.3224092
319,Marsh Creek Drive,29662,34.7569355,-82.3223591
317,Marsh Creek Drive,29662,34.7567443,-82.3223090
315,Marsh Creek Drive,29662,34.7565363,-82.3222908
313,Marsh Creek Drive,29662,34.7563470,-82.3222612
311,Marsh Creek Drive,29662,34.7561675,-82.3221416
309,Marsh Creek Drive,29662,34.7559819,-82.3219161
307,Marsh Creek Drive,29662,34.7558463,-82.3217109
305,Marsh Creek Drive,29662,34.7557550,-82.3214706
3,Bounty Court,29662,34.7584117,-82.3213717
7,Gingam Court,29662,34.7582208,-82.3204730
10,Gingam Court,29662,34.7581083,-82.3198321
6,Gingam Court,29662,34.7578376,-82.3200172
111,Marsh Creek Drive,29662,34.7579333,-82.3189071
107,Marsh Creek Drive,29662,34.7581340,-82.3188464
114,Marsh Creek Drive,29662,34.7577380,-82.3194765
110,Marsh Creek Drive,29662,34.7579604,-82.3194257
6,Bayou Cove,29662,34.7569649,-82.3186708
4,Bayou Cove,29662,34.7569069,-82.3189246
217,Marsh Creek Drive,29662,34.7559876,-82.3197095
213,Marsh Creek Drive,29662,34.7561870,-82.3195539
209,Marsh Creek Drive,29662,34.7564081,-82.3194236
6,Tideland Court,29662,34.7551542,-82.3207096
4,Tideland Court,29662,34.7553456,-82.3208436
3,Tideland Court,29662,34.7553701,-82.3202112
320,Marsh Creek Drive,29662,34.7575760,-82.3216910
316,Marsh Creek Drive,29662,34.7572031,-82.3218980
314,Marsh Creek Drive,29662,34.7569836,-82.3218606
312,Marsh Creek Drive,29662,34.7567630,-82.3218126
310,Marsh Creek Drive,29662,34.7565425,-82.3217645
308,Marsh Creek Drive,29662,34.7563327,-82.3216686
304,Marsh Creek Drive,29662,34.7561364,-82.3212881
302,Marsh Creek Drive,29662,34.7560044,-82.3209695
220,Marsh Creek Drive,29662,34.7561644,-82.3202614
216,Marsh Creek Drive,29662,34.7563075,-82.3200832
210,Marsh Creek Drive,29662,34.7565017,-82.3199448
206,Marsh Creek Drive,29662,34.7567250,-82.3198337
504,Marsh Creek Drive,29662,34.7571876,-82.3201610
10,Leslie Court,29662,34.7568899,-82.3211571
6,Leslie Court,29662,34.7571200,-82.3210082
11,Leslie Court,29662,34.7564863,-82.3206721
9,Leslie Court,29662,34.7566625,-82.3205439
7,Leslie Court,29662,34.7568147,-82.3205358
103,Turnplow Court,29662,34.7586870,-82.3161276
102,Turnplow Court,29662,34.7583656,-82.3155846
7,Harrow Court,29662,34.7578934,-82.3150931
12,Harrow Court,29662,34.7573162,-82.3150548
10,Harrow Court,29662,34.7573827,-82.3153207
8,Harrow Court,29662,34.7575277,-82.3155353
6,Harrow Court,29662,34.7576729,-82.3157497
206,Fieldgate Court,29662,34.7577696,-82.3171523
202,Fieldgate Court,29662,34.7580503,-82.3168016
11,Croftstone Court,29662,34.7570469,-82.3154638
9,Croftstone Court,29662,34.7571163,-82.3157241
7,Croftstone Court,29662,34.7571857,-82.3159799
5,Croftstone Court,29662,34.7572551,-82.3163042
3,Croftstone Court,29662,34.7573227,-82.3165349
12,Croftstone Court,29662,34.7565285,-82.3157503
10,Croftstone Court,29662,34.7566407,-82.3160006
8,Croftstone Court,29662,34.7567628,-82.3162495
6,Croftstone Court,29662,34.7568479,-82.3165197
511,Fieldgate Court,29662,34.7556474,-82.3148273
505,Fieldgate Court,29662,34.7559591,-82.3154968
503,Fieldgate Court,29662,34.7558711,-82.3158189
408,Fieldgate Court,29662,34.7553732,-82.3165234
406,Fieldgate Court,29662,34.7554026,-82.3167929
404,Fieldgate Court,29662,34.7554584,-82.3170494
504,Fieldgate Court,29662,34.7554618,-82.3156518
111,Woodvine Way,29662,34.7547776,-82.3136958
109,Woodvine Way,29662,34.7547446,-82.3133846
107,Woodvine Way,29662,34.7546979,-82.3131293
105,Woodvine Way,29662,34.7545441,-82.3129101
103,Woodvine Way,29662,34.7543680,-82.3127085
116,Woodvine Way,29662,34.7551211,-82.3138505
114,Woodvine Way,29662,34.7551246,-82.3135899
112,Woodvine Way,29662,34.7551321,-82.3133787
110,Woodvine Way,29662,34.7550559,-82.3131483
108,Woodvine Way,29662,34.7549431,-82.3128982
106,Woodvine Way,29662,34.7548385,-82.3126969
104,Woodvine Way,29662,34.7546634,-82.3124831
102,Woodvine Way,29662,34.7544696,-82.3122944
604,Fieldgate Court,29662,34.7542228,-82.3143936
602,Fieldgate Court,29662,34.7544419,-82.3144504
605,Fieldgate Court,29662,34.7541733,-82.3137374
217,Woodvine Way,29662,34.7544447,-82.3157187
213,Woodvine Way,29662,34.7545010,-82.3154167
209,Woodvine Way,29662,34.7545574,-82.3151146
224,Woodvine Way,29662,34.7547223,-82.3163330
220,Woodvine Way,29662,34.7547727,-82.3160656
216,Woodvine Way,29662,34.7548231,-82.3157982
212,Woodvine Way,29662,34.7548734,-82.3155307
208,Woodvine Way,29662,34.7549238,-82.3152633
204,Woodvine Way,29662,34.7549742,-82.3149959
312,Woodvine Way,29662,34.7548334,-82.3176240
308,Woodvine Way,29662,34.7547460,-82.3173746
304,Woodvine Way,29662,34.7546965,-82.3171077
313,Woodvine Way,29662,34.7544072,-82.3178670
309,Woodvine Way,29662,34.7543158,-82.3176143
103,Trailstream Drive,29662,34.7532464,-82.3176394
32,Trailstream Drive,29662,34.7530475,-82.3184518
30,Trailstream Drive,29662,34.7531907,-82.3187664
28,Trailstream Drive,29662,34.7533838,-82.3189495
26,Trailstream Drive,29662,34.7536088,-82.3191201
24,Trailstream Drive,29662,34.7538579,-82.3192076
22,Trailstream Drive,29662,34.7541086,-82.3192087
20,Trailstream Drive,29662,34.7543429,-82.3191405
18,Trailstream Drive,29662,34.7545504,-82.3190243
16,Trailstream Drive,29662,34.7547409,-82.3188967
14,Trailstream Drive,29662,34.7549727,-82.3187737
12,Trailstream Drive,29662,34.7552045,-82.3186507
10,Trailstream Drive,29662,34.7553796,-82.3185692
8,Trailstream Drive,29662,34.7556203,-82.3183653
6,Trailstream Drive,29662,34.7558267,-82.3181306
4,Trailstream Drive,29662,34.7560017,-82.3179084
27,Trailstream Drive,29662,34.7535697,-82.3185250
23,Trailstream Drive,29662,34.7537974,-82.3187087
19,Trailstream Drive,29662,34.7541157,-82.3187193
17,Trailstream Drive,29662,34.7543970,-82.3185683
15,Trailstream Drive,29662,34.7546520,-82.3184287
11,Trailstream Drive,29662,34.7549077,-82.3182922
9,Trailstream Drive,29662,34.7551736,-82.3181448
7,Trailstream Drive,29662,34.7554086,-82.3179632
5,Trailstream Drive,29662,34.7555628,-82.3177623
405,Fieldgate Court,29662,34.7558515,-82.3168181
306,Fieldgate Court,29662,34.7567380,-82.3176670
304,Fieldgate Court,29662,34.7569574,-82.3175904
302,Fieldgate Court,29662,34.7571768,-82.3175138
6,Bethglen Court,29662,34.7538821,-82.3176554
5,Friendsplot Cove,29662,34.7527842,-82.3168746
408,Middleshare Drive,29662,34.7537599,-82.3168554
404,Middleshare Drive,29662,34.7540118,-82.3168798
409,Middleshare Drive,29662,34.7538508,-82.3163969
405,Middleshare Drive,29662,34.7540741,-82.3164102
509,Middleshare Drive,29662,34.7532603,-82.3156479
505,Middleshare Drive,29662,34.7533805,-82.3158815
107,Groveview Trail,29662,34.7524626,-82.3149779
105,Groveview Trail,29662,34.7525592,-82.3147448
103,Groveview Trail,29662,34.7526558,-82.3145116
206,Groveview Trail,29662,34.7525254,-82.3161263
204,Groveview Trail,29662,34.7525408,-82.3158359
504,Middleshare Drive,29662,34.7530794,-82.3162175
104,Groveview Trail,29662,34.7529122,-82.3149707
102,Groveview Trail,29662,34.7530103,-82.3147677
106,Groveview Trail,29662,34.7528142,-82.3151736
309,Youngers Court,29662,34.7537307,-82.3154966
307,Youngers Court,29662,34.7536153,-82.3152295
305,Youngers Court,29662,34.7534201,-82.3149281
312,Youngers Court,29662,34.7541224,-82.3153041
310,Youngers Court,29662,34.7540340,-82.3150957
308,Youngers Court,29662,34.7538912,-82.3149074
306,Youngers Court,29662,34.7537446,-82.3147232
304,Youngers Court,29662,34.7535980,-82.3145391
302,Youngers Court,29662,34.7534514,-82.3143550
10,Groveview Trail,29662,34.7535741,-82.3135976
8,Groveview Trail,29662,34.7536971,-82.3133963
6,Groveview Trail,29662,34.7538200,-82.3131951
23,Groveview Trail,29662,34.7529326,-82.3139251
21,Groveview Trail,29662,34.7530687,-82.3136566
19,Groveview Trail,29662,34.7531907,-82.3134189
15,Groveview Trail,29662,34.7533129,-82.3132218
9,Groveview Trail,29662,34.7534719,-82.3129958
5,Groveview Trail,29662,34.7535707,-82.3128067
103,Montauk Drive,29607,34.7526489,-82.3246880
213,Montauk Drive,29607,34.7542292,-82.3232279
211,Montauk Drive,29607,34.7540335,-82.3233049
209,Montauk Drive,29607,34.7538378,-82.3233819
207,Montauk Drive,29607,34.7536420,-82.3234589
205,Montauk Drive,29607,34.7534463,-82.3235360
203,Montauk Drive,29607,34.7532545,-82.3236211
8,Lynbrook Court,29607,34.7536811,-82.3212727
6,Lynbrook Court,29607,34.7537780,-82.3215026
7,Lynbrook Court,29607,34.7540900,-82.3210671
5,Lynbrook Court,29607,34.7541968,-82.3212809
3,Lynbrook Court,29607,34.7543013,-82.3214962
104,Manhassett Court,29607,34.7547790,-82.3222365
102,Manhassett Court,29607,34.7546671,-82.3220413
206,Manhassett Court,29607,34.7553251,-82.3231861
204,Manhassett Court,29607,34.7552171,-82.3229939
202,Manhassett Court,29607,34.7551092,-82.3228018
216,Montauk Drive,29607,34.7542582,-82.3227104
214,Montauk Drive,29607,34.7540769,-82.3228305
212,Montauk Drive,29607,34.7538967,-82.3228773
210,Montauk Drive,29607,34.7537127,-82.3229514
208,Montauk Drive,29607,34.7535259,-82.3230427
206,Montauk Drive,29607,34.7532323,-82.3231499
204,Montauk Drive,29607,34.7530267,-82.3232491
202,Montauk Drive,29607,34.7528790,-82.3234448
219,Bellport Drive,29607,34.7541394,-82.3223862
217,Bellport Drive,29607,34.7539538,-82.3224971
215,Bellport Drive,29607,34.7537543,-82.3225640
213,Bellport Drive,29607,34.7535547,-82.3226309
211,Bellport Drive,29607,34.7534141,-82.3227081
209,Bellport Drive,29607,34.7531436,-82.3228173
207,Bellport Drive,29607,34.7529551,-82.3229303
205,Bellport Drive,29607,34.7528179,-82.3230557
203,Bellport Drive,29607,34.7526577,-82.3232152
218,Bellport Drive,29607,34.7539102,-82.3220192
216,Bellport Drive,29607,34.7537158,-82.3220991
214,Bellport Drive,29607,34.7535214,-82.3221791
212,Bellport Drive,29607,34.7533265,-82.3222576
208,Bellport Drive,29607,34.7529351,-82.3224065
206,Bellport Drive,29607,34.7527540,-82.3225201
204,Bellport Drive,29607,34.7526184,-82.3227076
14,Watch Hill Court,29607,34.7531176,-82.3213462
12,Watch Hill Court,29607,34.7528924,-82.3215360
10,Watch Hill Court,29607,34.7527145,-82.3216805
8,Watch Hill Court,29607,34.7525515,-82.3217479
6,Watch Hill Court,29607,34.7523497,-82.3218147
4,Watch Hill Court,29607,34.7521835,-82.3219818
3,Moriches Court,29607,34.7513399,-82.3221402
4,Moriches Court,29607,34.7515293,-82.3227752
205,Greenport Way,29607,34.7517786,-82.3216323
204,Greenport Way,29607,34.7512165,-82.3215804
17,Watch Hill Court,29607,34.7533114,-82.3217495
15,Watch Hill Court,29607,34.7531944,-82.3218979
9,Watch Hill Court,29607,34.7528727,-82.3220415
7,Watch Hill Court,29607,34.7527080,-82.3221498
5,Watch Hill Court,29607,34.7524309,-82.3223220
3,Watch Hill Court,29607,34.7522859,-82.3224292
105,Tuckahoe Court,29607,34.7515484,-82.3233726
102,Tuckahoe Court,29607,34.7518264,-82.3238845
9,Orient Drive,29607,34.7526437,-82.3250666
7,Orient Drive,29607,34.7527514,-82.3252341
5,Orient Drive,29607,34.7528592,-82.3254015
3,Orient Drive,29607,34.7529670,-82.3255690
10,Orient Drive,29607,34.7523697,-82.3253414
8,Orient Drive,29607,34.7524777,-82.3255136
6,Orient Drive,29607,34.7525857,-82.3256858
4,Orient Drive,29607,34.7526937,-82.3258579
102,Montauk Drive,29607,34.7524493,-82.3242347
513,Flanders Court,29607,34.7520235,-82.3268287
511,Flanders Court,29607,34.7519127,-82.3266386
509,Flanders Court,29607,34.7518554,-82.3264940
507,Flanders Court,29607,34.7517407,-82.3263141
505,Flanders Court,29607,34.7517006,-82.3261127
503,Flanders Court,29607,34.7519509,-82.3259714
512,Flanders Court,29607,34.7523811,-82.3264234
510,Flanders Court,29607,34.7525537,-82.3262034
508,Flanders Court,29607,34.7524077,-82.3260354
506,Flanders Court,29607,34.7523268,-82.3258570
504,Flanders Court,29607,34.7522066,-82.3257167
502,Flanders Court,29607,34.7520818,-82.3255809
407,Flanders Court,29607,34.7516612,-82.3257106
403,Flanders Court,29607,34.7512328,-82.3253856
406,Flanders Court,29607,34.7512593,-82.3248176
404,Flanders Court,29607,34.7511222,-82.3248087
311,Park Grove Drive,29662,34.7650621,-82.3235615
309,Park Grove Drive,29662,34.7648788,-82.3235683
307,Park Grove Drive,29662,34.7646894,-82.3235328
305,Park Grove Drive,29662,34.7644870,-82.3235087
303,Park Grove Drive,29662,34.7642921,-82.3234618
312,Park Grove Drive,29662,34.7653781,-82.3231930
310,Park Grove Drive,29662,34.7652125,-82.3230531
308,Park Grove Drive,29662,34.7650181,-82.3230108
306,Park Grove Drive,29662,34.7648173,-82.3229900
304,Park Grove Drive,29662,34.7646165,-82.3229693
521,Peach Grove Place,29662,34.7632477,-82.3239013
519,Peach Grove Place,29662,34.7634456,-82.3239224
517,Peach Grove Place,29662,34.7636435,-82.3239435
515,Peach Grove Place,29662,34.7638415,-82.3239646
513,Peach Grove Place,29662,34.7640394,-82.3239857
511,Peach Grove Place,29662,34.7642373,-82.3240068
509,Peach Grove Place,29662,34.7644352,-82.3240280
507,Peach Grove Place,29662,34.7646331,-82.3240491
505,Peach Grove Place,29662,34.7648308,-82.3240654
524,Peach Grove Place,29662,34.7633101,-82.3243684
522,Peach Grove Place,29662,34.7635046,-82.3243876
520,Peach Grove Place,29662,34.7636992,-82.3244068
518,Peach Grove Place,29662,34.7638937,-82.3244260
516,Peach Grove Place,29662,34.7640882,-82.3244453
514,Peach Grove Place,29662,34.7642827,-82.3244645
512,Peach Grove Place,29662,34.7644772,-82.3244837
510,Peach Grove Place,29662,34.7646718,-82.3245029
508,Peach Grove Place,29662,34.7648663,-82.3245221
506,Peach Grove Place,29662,34.7650511,-82.3244537
504,Peach Grove Place,29662,34.7652340,-82.3243715
502,Peach Grove Place,29662,34.7653827,-82.3242176
440,Peach Grove Place,29662,34.7657868,-82.3237261
438,Peach Grove Place,29662,34.7659104,-82.3235432
436,Peach Grove Place,29662,34.7660340,-82.3233603
434,Peach Grove Place,29662,34.7661577,-82.3231773
432,Peach Grove Place,29662,34.7662813,-82.3229944
430,Peach Grove Place,29662,34.7664000,-82.3228083
428,Peach Grove Place,29662,34.7664616,-82.3225836
426,Peach Grove Place,29662,34.7664463,-82.3223496
424,Peach Grove Place,29662,34.7663665,-82.3220736
422,Peach Grove Place,29662,34.7662299,-82.3218632
420,Peach Grove Place,29662,34.7660933,-82.3218023
418,Peach Grove Place,29662,34.7659482,-82.3216445
416,Peach Grove Place,29662,34.7658032,-82.3214867
414,Peach Grove Place,29662,34.7656581,-82.3213288
433,Peach Grove Place,29662,34.7658460,-82.3229352
429,Peach Grove Place,29662,34.7659851,-82.3226927
425,Peach Grove Place,29662,34.7660240,-82.3224279
423,Peach Grove Place,29662,34.7659324,-82.3222077
421,Peach Grove Place,29662,34.7657798,-82.3220594
419,Peach Grove Place,29662,34.7656450,-82.3219065
417,Peach Grove Place,29662,34.7654822,-82.3217685
415,Peach Grove Place,29662,34.7653586,-82.3216156
413,Peach Grove Place,29662,34.7652323,-82.3214524
9,Blossom Park Court,29662,34.7649297,-82.3224575
7,Blossom Park Court,29662,34.7647602,-82.3222680
5,Blossom Park Court,29662,34.7645820,-82.3220873
3,Blossom Park Court,29662,34.7644190,-82.3218949
14,Blossom Park Court,29662,34.7655423,-82.3225686
12,Blossom Park Court,29662,34.7653986,-82.3223962
10,Blossom Park Court,29662,34.7652454,-82.3222362
8,Blossom Park Court,29662,34.7650923,-82.3220762
6,Blossom Park Court,29662,34.7649392,-82.3219162
4,Blossom Park Court,29662,34.7647980,-82.3217453
108,Peach Grove Place,29662,34.7651868,-82.3209029
106,Peach Grove Place,29662,34.7649878,-82.3208196
104,Peach Grove Place,29662,34.7647845,-82.3208862
102,Peach Grove Place,29662,34.7645813,-82.3209529
20,Peach Grove Place,29662,34.7640004,-82.3212530
16,Peach Grove Place,29662,34.7637570,-82.3213470
14,Peach Grove Place,29662,34.7635453,-82.3214134
12,Peach Grove Place,29662,34.7633178,-82.3215399
10,Peach Grove Place,29662,34.7631042,-82.3216465
8,Peach Grove Place,29662,34.7629475,-82.3218535
6,Peach Grove Place,29662,34.7628039,-82.3220901
304,Bel Arbor Lane,29662,34.7611421,-82.3223816
302,Bel Arbor Lane,29662,34.7612693,-82.3221979
209,Sonoma Drive,29662,34.7604427,-82.3222400
207,Sonoma Drive,29662,34.7603252,-82.3220480
205,Sonoma Drive,29662,34.7602078,-82.3218560
203,Sonoma Drive,29662,34.7600432,-82.3217254
210,Peach Grove Place,29662,34.7621651,-82.3230787
208,Peach Grove Place,29662,34.7620912,-82.3233011
206,Peach Grove Place,29662,34.7621212,-82.3235478
204,Peach Grove Place,29662,34.7621882,-82.3237828
211,Park Grove Drive,29662,34.7637178,-82.3233963
209,Park Grove Drive,29662,34.7635179,-82.3233754
207,Park Grove Drive,29662,34.7633179,-82.3233545
205,Park Grove Drive,29662,34.7631180,-82.3233336
203,Park Grove Drive,29662,34.7629187,-82.3233089
205,Peach Grove Place,29662,34.7625306,-82.3236595
203,Peach Grove Place,29662,34.7626379,-82.3238725
10,Planters Grove Drive,29662,34.7619029,-82.3247945
8,Planters Grove Drive,29662,34.7621072,-82.3247978
6,Planters Grove Drive,29662,34.7623114,-82.3248010
4,Planters Grove Drive,29662,34.7625141,-82.3247892
106,Planters Grove Drive,29662,34.7608925,-82.3245659
104,Planters Grove Drive,29662,34.7610688,-82.3247309
102,Planters Grove Drive,29662,34.7612788,-82.3248017
102,Seedling Way,29662,34.7607736,-82.3236888
103,Seedling Way,29662,34.7611572,-82.3239240
4,Crop Court,29662,34.7614129,-82.3240783
3,Crop Court,29662,34.7619008,-82.3240751
5,Mango Court,29662,34.7601922,-82.3243987
3,Mango Court,29662,34.7603354,-82.3242224
420,Bel Arbor Lane,29662,34.7596257,-82.3244165
418,Bel Arbor Lane,29662,34.7597539,-82.3242491
416,Bel Arbor Lane,29662,34.7598822,-82.3240817
414,Bel Arbor Lane,29662,34.7600104,-82.3239143
412,Bel Arbor Lane,29662,34.7601387,-82.3237469
410,Bel Arbor Lane,29662,34.7602669,-82.3235795
408,Bel Arbor Lane,29662,34.7603952,-82.3234121
406,Bel Arbor Lane,29662,34.7605234,-82.3232447
404,Bel Arbor Lane,29662,34.7606517,-82.3230773
402,Bel Arbor Lane,29662,34.7607799,-82.3229099
421,Bel Arbor Lane,29662,34.7592889,-82.3242489
419,Bel Arbor Lane,29662,34.7594193,-82.3240745
417,Bel Arbor Lane,29662,34.7595496,-82.3239002
415,Bel Arbor Lane,29662,34.7596799,-82.3237258
413,Bel Arbor Lane,29662,34.7598103,-82.3235514
411,Bel Arbor Lane,29662,34.7599406,-82.3233770
409,Bel Arbor Lane,29662,34.7600709,-82.3232026
407,Bel Arbor Lane,29662,34.7602012,-82.3230283
405,Bel Arbor Lane,29662,34.7603316,-82.3228539
212,Park Grove Drive,29662,34.7636320,-82.3229282
208,Park Grove Drive,29662,34.7634299,-82.3229078
3,Winery Court,29662,34.7643040,-82.3226477
6,Winery Court,29662,34.7638852,-82.3223059
15,Peach Grove Place,29662,34.7639280,-82.3217914
11,Peach Grove Place,29662,34.7636892,-82.3219012
9,Peach Grove Place,29662,34.7634912,-82.3220143
7,Peach Grove Place,29662,34.7632836,-82.3221409
5,Peach Grove Place,29662,34.7631649,-82.3223344
3,Peach Grove Place,29662,34.7630218,-82.3226078
5,Napa Court,29662,34.7625521,-82.3216920
3,Napa Court,29662,34.7623781,-82.3219366
202,Bel Arbor Lane,29662,34.7617082,-82.3214688
5,Golden Crest Court,29662,34.7621967,-82.3210879
121,Golden Crest Court,29662,34.7644194,-82.3204751
119,Golden Crest Court,29662,34.7642443,-82.3205734
117,Golden Crest Court,29662,34.7640691,-82.3206717
115,Golden Crest Court,29662,34.7638940,-82.3207700
113,Golden Crest Court,29662,34.7637182,-82.3208657
111,Golden Crest Court,29662,34.7635264,-82.3208899
109,Golden Crest Court,29662,34.7633345,-82.3209140
107,Golden Crest Court,29662,34.7631427,-82.3209381
105,Golden Crest Court,29662,34.7629508,-82.3209622
103,Golden Crest Court,29662,34.7627590,-82.3209864
120,Golden Crest Court,29662,34.7644596,-82.3200073
118,Golden Crest Court,29662,34.7642887,-82.3200250
116,Golden Crest Court,29662,34.7640876,-82.3201688
114,Golden Crest Court,29662,34.7639352,-82.3202442
112,Golden Crest Court,29662,34.7637585,-82.3203538
110,Golden Crest Court,29662,34.7635818,-82.3204633
108,Golden Crest Court,29662,34.7633876,-82.3204932
106,Golden Crest Court,29662,34.7631895,-82.3205055
104,Golden Crest Court,29662,34.7629915,-82.3205179
11,Chablis Court,29662,34.7630178,-82.3200926
9,Chablis Court,29662,34.7627913,-82.3201338
7,Chablis Court,29662,34.7625850,-82.3200608
3,Chablis Court,29662,34.7624733,-82.3203160
6,Chablis Court,29662,34.7621021,-82.3200603
4,Chablis Court,29662,34.7621097,-82.3203136
104,Bel Arbor Lane,29662,34.7617543,-82.3204463
102,Bel Arbor Lane,29662,34.7617015,-82.3201970
105,Bel Arbor Lane,29662,34.7613997,-82.3205762
103,Bel Arbor Lane,29662,34.7613544,-82.3203229
9,Knollvine Cove,29662,34.7610066,-82.3204283
7,Knollvine Cove,29662,34.7610521,-82.3206743
5,Knollvine Cove,29662,34.7610914,-82.3209249
3,Knollvine Cove,29662,34.7611798,-82.3211491
12,Knollvine Cove,29662,34.7605678,-82.3206598
10,Knollvine Cove,29662,34.7606325,-82.3208932
8,Knollvine Cove,29662,34.7607279,-82.3211265
6,Knollvine Cove,29662,34.7608187,-82.3213626
4,Knollvine Cove,29662,34.7609294,-82.3215815
206,Sonoma Drive,29662,34.7606864,-82.3218600
204,Sonoma Drive,29662,34.7605349,-82.3216571
6,Korbel Court,29662,34.7601248,-82.3206499
4,Korbel Court,29662,34.7599255,-82.3206666
14,Colombard Court,29662,34.7589590,-82.3226769
12,Colombard Court,29662,34.7590779,-82.3225216
10,Colombard Court,29662,34.7592081,-82.3223344
8,Colombard Court,29662,34.7593159,-82.3222111
6,Colombard Court,29662,34.7594554,-82.3220171
212,Riesling Way,29662,34.7598366,-82.3223831
210,Riesling Way,29662,34.7596679,-82.3225103
208,Riesling Way,29662,34.7595219,-82.3226970
206,Riesling Way,29662,34.7593729,-82.3228357
204,Riesling Way,29662,34.7592034,-82.3229800
213,Riesling Way,29662,34.7599064,-82.3228283
211,Riesling Way,29662,34.7597551,-82.3230086
209,Riesling Way,29662,34.7596039,-82.3231888
207,Riesling Way,29662,34.7594101,-82.3232875
205,Riesling Way,29662,34.7592116,-82.3233771
17,Colombard Court,29662,34.7585374,-82.3225672
15,Colombard Court,29662,34.7586288,-82.3223893
11,Colombard Court,29662,34.7587943,-82.3222109
9,Colombard Court,29662,34.7589205,-82.3220358
7,Colombard Court,29662,34.7590506,-82.3218357
5,Colombard Court,29662,34.7592350,-82.3216447
3,Sutters Glen Court,29662,34.7580894,-82.3228986
104,Colombard Court,29662,34.7588234,-82.3241188
102,Colombard Court,29662,34.7588601,-82.3237810
312,Appleton Lane,29662,34.7554236,-82.3241306
310,Appleton Lane,29662,34.7553982,-82.3243909
308,Appleton Lane,29662,34.7555988,-82.3245098
306,Appleton Lane,29662,34.7558117,-82.3245886
304,Appleton Lane,29662,34.7560276,-82.3246539
302,Appleton Lane,29662,34.7562486,-82.3246161
307,Appleton Lane,29662,34.7559543,-82.3238987
102,Merlot Court,29662,34.7563361,-82.3239287
205,Appleton Lane,29662,34.7570812,-82.3240722
203,Appleton Lane,29662,34.7572995,-82.3241114
204,Appleton Lane,29662,34.7568433,-82.3245373
202,Appleton Lane,29662,34.7571184,-82.3245595
105,Appleton Lane,29662,34.7601052,-82.3252775
103,Appleton Lane,29662,34.7602879,-82.3253639
126,Appleton Lane,29662,34.7578549,-82.3248722
124,Appleton Lane,29662,34.7580373,-82.3249654
122,Appleton Lane,29662,34.7582816,-82.3251180
120,Appleton Lane,29662,34.7584434,-82.3252044
116,Appleton Lane,29662,34.7586508,-82.3253373
112,Appleton Lane,29662,34.7590682,-82.3254999
110,Appleton Lane,29662,34.7592629,-82.3256056
108,Appleton Lane,29662,34.7594549,-82.3255986
106,Appleton Lane,29662,34.7597058,-82.3256956
104,Appleton Lane,29662,34.7598992,-82.3257465
102,Appleton Lane,29662,34.7600926,-82.3257975
20,Appleton Lane,29662,34.7608264,-82.3261441
18,Appleton Lane,29662,34.7610090,-82.3262424
16,Appleton Lane,29662,34.7612070,-82.3263222
14,Appleton Lane,29662,34.7614208,-82.3263073
12,Appleton Lane,29662,34.7616402,-82.3263107
10,Appleton Lane,29662,34.7617901,-82.3263284
8,Appleton Lane,29662,34.7622960,-82.3262188
6,Appleton Lane,29662,34.7624570,-82.3261913
4,Appleton Lane,29662,34.7626874,-82.3261524
21,Appleton Lane,29662,34.7608593,-82.3256372
19,Appleton Lane,29662,34.7610487,-82.3256961
15,Appleton Lane,29662,34.7612112,-82.3258300
11,Appleton Lane,29662,34.7618407,-82.3257976
9,Appleton Lane,29662,34.7620439,-82.3257758
7,Appleton Lane,29662,34.7622471,-82.3257539
5,Appleton Lane,29662,34.7624503,-82.3257320
3,Appleton Lane,29662,34.7626535,-82.3257102
7,Kiwi Court,29662,34.7638517,-82.3260346
5,Kiwi Court,29662,34.7636718,-82.3260278
3,Kiwi Court,29662,34.7635143,-82.3260529
4,White Tail Court,29662,34.7636982,-82.3265866
15,Deer Ridge Court,29662,34.7619220,-82.3268535
11,Deer Ridge Court,29662,34.7621283,-82.3268191
9,Deer Ridge Court,29662,34.7622941,-82.3269004
7,Deer Ridge Court,29662,34.7624741,-82.3270091
5,Deer Ridge Court,29662,34.7626209,-82.3271658
3,Deer Ridge Court,29662,34.7627452,-82.3272974
107,White Tail Court,29662,34.7620286,-82.3280894
105,White Tail Court,29662,34.7621525,-82.3278891
103,White Tail Court,29662,34.7623759,-82.3278019
12,Deer Ridge Court,29662,34.7617373,-82.3275297
10,Deer Ridge Court,29662,34.7620022,-82.3275861
8,Deer Ridge Court,29662,34.7621828,-82.3274039
104,White Tail Court,29662,34.7625220,-82.3284182
7,Crossbow Way,29662,34.7633246,-82.3285424
5,Crossbow Way,29662,34.7631859,-82.3283866
3,Crossbow Way,29662,34.7630473,-82.3282309
10,Crossbow Way,29662,34.7636811,-82.3283199
8,Crossbow Way,29662,34.7635406,-82.3281806
6,Crossbow Way,29662,34.7634000,-82.3280414
4,Crossbow Way,29662,34.7632595,-82.3279021
106,Crossbow Way,29662,34.7642631,-82.3290161
104,Crossbow Way,29662,34.7641853,-82.3288422
102,Crossbow Way,29662,34.7640564,-82.3287208
4,Fawn Lake Place,29662,34.7636267,-82.3290979
7,Deer Cross Court,29662,34.7635308,-82.3299398
96,Brookfield Oaks Drive,29607,34.8045151,-82.2770908
105,Miller Road,29662,34.7852890,-82.3094077
105,Miller Road,29662,34.7852192,-82.3093752
105,Miller Road,29662,34.7851494,-82.3093427
105,Miller Road,29662,34.7850796,-82.3093101
105,Miller Road,29662,34.7850097,-82.3092776
535,West Butler Road,29662,34.7746460,-82.3232578
535,West Butler Road,29662,34.7747313,-82.3232589
535,West Butler Road,29662,34.7748166,-82.3232600
103,East Butler Road,29662,34.7795314,-82.3044110
110,North Main Street,29662,34.7800135,-82.3100431
110,North Main Street,29662,34.7798647,-82.3099676
610,Bridgeway Boulevard,29681,34.7953666,-82.2776826
2113,Via Corso Avenue,29681,34.7958584,-82.2776027
304,North Main Street,29662,34.7835180,-82.3116677
505,North Main Street,29662,34.7864527,-82.3138137
437,North Main Street,29662,34.7849153,-82.3135853
435,North Main Street,29662,34.7849039,-82.3138365
427,North Main Street,29662,34.7846334,-82.3140838
425,North Main Street,29662,34.7845275,-82.3140416
423,North Main Street,29662,34.7844734,-82.3140201
421,North Main Street,29662,34.7844076,-82.3139938
419,North Main Street,29662,34.7843569,-82.3139736
415,North Main Street,29662,34.7842171,-82.3139180
417,North Main Street,29662,34.7842842,-82.3139447
413,North Main Street,29662,34.7841355,-82.3138854
411,North Main Street,29662,34.7838939,-82.3137892
407,North Main Street,29662,34.7837080,-82.3137151
405,North Main Street,29662,34.7835881,-82.3136674
103,East Butler Road,29662,34.7795673,-82.3042728
103,East Butler Road,29662,34.7796031,-82.3041346
103,East Butler Road,29662,34.7796378,-82.3040525
119,East Butler Road,29662,34.7809558,-82.3020188
119,East Butler Road,29662,34.7809275,-82.3020776
119,East Butler Road,29662,34.7808991,-82.3021364
203,East Butler Road,29662,34.7817452,-82.3014810
213,East Butler Road,29662,34.7828059,-82.2995917
213,East Butler Road,29662,34.7828799,-82.2996807
213,East Butler Road,29662,34.7829868,-82.2998062
213,East Butler Road,29662,34.7830505,-82.2998860
213,East Butler Road,29662,34.7831442,-82.3000001
213,East Butler Road,29662,34.7832126,-82.3000777
213,East Butler Road,29662,34.7833756,-82.2998050
213,East Butler Road,29662,34.7833091,-82.2997218
213,East Butler Road,29662,34.7832070,-82.2996020
213,East Butler Road,29662,34.7831414,-82.2995164
213,East Butler Road,29662,34.7830580,-82.2994000
213,East Butler Road,29662,34.7829961,-82.2993099
225,East Butler Road,29662,34.7839856,-82.2976112
410,East Butler Road,29662,34.7874524,-82.2899366
410,East Butler Road,29662,34.7873700,-82.2900301
410,East Butler Road,29662,34.7872941,-82.2901146
308,East Butler Road,29662,34.7860254,-82.2921111
306,East Butler Road,29662,34.7858085,-82.2924271
306,East Butler Road,29662,34.7858601,-82.2926193
306,East Butler Road,29662,34.7859275,-82.2924950
306,East Butler Road,29662,34.7857294,-82.2925549
306,East Butler Road,29662,34.7857874,-82.2925857
306,East Butler Road,29662,34.7858699,-82.2924659
306,East Butler Road,29662,34.7859186,-82.2925914
110,East Butler Road,29662,34.7793380,-82.3026535
110,East Butler Road,29662,34.7792930,-82.3027165
110,East Butler Road,29662,34.7792480,-82.3027796
110,East Butler Road,29662,34.7792030,-82.3028426
110,East Butler Road,29662,34.7793829,-82.3025905
110,East Butler Road,29662,34.7794598,-82.3026777
110,East Butler Road,29662,34.7794148,-82.3027408
110,East Butler Road,29662,34.7793698,-82.3028038
110,East Butler Road,29662,34.7793248,-82.3028668
110,East Butler Road,29662,34.7792799,-82.3029299
106,East Butler Road,29662,34.7789847,-82.3035311
106,East Butler Road,29662,34.7790100,-82.3034433
106,East Butler Road,29662,34.7790278,-82.3033691
106,East Butler Road,29662,34.7790484,-82.3032972
12,East Butler Road,29662,34.7784300,-82.3085863
10,East Butler Road,29662,34.7785208,-82.3085760
8,East Butler Road,29662,34.7785349,-82.3086661
8,East Butler Road,29662,34.7785405,-82.3087232
14,East Butler Road,29662,34.7783325,-82.3083421
14,East Butler Road,29662,34.7784562,-82.3083159
18,East Butler Road,29662,34.7784899,-82.3081014
20,East Butler Road,29662,34.7784178,-82.3081157
22,East Butler Road,29662,34.7783456,-82.3081299
24,East Butler Road,29662,34.7782735,-82.3081442
26,East Butler Road,29662,34.7782013,-82.3081584
30,East Butler Road,29662,34.7779970,-82.3080512
10,Owens Lane,29662,34.7779033,-82.3079599
38,East Butler Road,29662,34.7783831,-82.3078344
36,East Butler Road,29662,34.7784599,-82.3078276
2,Owens Lane,29662,34.7782594,-82.3076713
2,Owens Lane,29662,34.7783512,-82.3076154
2,Owens Lane,29662,34.7784112,-82.3075949
2121,Via Corso Avenue,29681,34.7959861,-82.2776000
15,Winchester Court,29662,34.7712067,-82.3017599
15,Winchester Court,29662,34.7711388,-82.3018888
1103,Via Corso Avenue,29681,34.7954546,-82.2772886
620,Bridgeway Boulevard,29681,34.7954724,-82.2777100
128,Millport Circle,29607,34.8083722,-82.2866850
800,West Butler Road,29607,34.7759003,-82.3264134
5,East Butler Road,29662,34.7795342,-82.3086460
10,City Center Drive,29662,34.7800445,-82.3049175
580,Brookwood Point Place,29681,34.7735463,-82.2752323
9,East Butler Road,29662,34.7790907,-82.3082347
802,Miller Road,29607,34.8028446,-82.2941833
401,West Butler Road,29662,34.7753684,-82.3168332
417,West Butler Road,29662,34.7751342,-82.3188927
336,West Butler Road,29662,34.7766600,-82.3183619
360,West Butler Road,29662,34.7765826,-82.3191616
386,West Butler Road,29662,34.7760328,-82.3186331
308,West Butler Road,29662,34.7762055,-82.3170866
320,West Butler Road,29662,34.7761303,-82.3177424
394,West Butler Road,29662,34.7759106,-82.3191244
408,West Butler Road,29662,34.7759742,-82.3195763
326,West Butler Road,29662,34.7760304,-82.3179133
126,West Butler Road,29662,34.7770775,-82.3146148
114,West Butler Road,29662-2583,34.7791405,-82.3123216
110,West Butler Road,29662,34.7784527,-82.3110075
112,West Butler Road,29662,34.7783783,-82.3114873
107,North Main Street,29662,34.7795948,-82.3108467
129,West Butler Road,29662,34.7762467,-82.3114976
111,West Butler Road,29662,34.7769312,-82.3101632
150,South Main Street,29662,34.7759823,-82.3097006
109,North Main Street,29662,34.7799140,-82.3109223
627,North Main Street,29662,34.7909449,-82.3142978
729,North Main Street,29662,34.7966003,-82.3160759
731,North Main Street,29662,34.7972168,-82.3160506
733,North Main Street,29662,34.7973585,-82.3162406
739,North Main Street,29662,34.7973524,-82.3173328
309,West Butler Road,29662,34.7756890,-82.3153903
315,West Butler Road,29662,34.7755906,-82.3159703
214,East Butler Road,29662,34.7827678,-82.2982424
511,North Main Street,29662,34.7876889,-82.3138805
302,North Main Street,29662,34.7831837,-82.3114451
118,West Butler Road,29662,34.7773264,-82.3139696
512,North Main Street,29662,34.7870072,-82.3128621
504,North Main Street,29662,34.7866899,-82.3126949
301,North Main Street,29662,34.7828335,-82.3122505
408,North Main Street,29662,34.7841882,-82.3119040
514,North Main Street,29662,34.7871558,-82.3127365
108,North Main Street,29662,34.7794978,-82.3099665
502,North Main Street,29662,34.7861975,-82.3117036
107,Evening Way,29662,34.7830721,-82.3131997
202,North Main Street,29662,34.7811847,-82.3107577
410,North Main Street,29662,34.7845713,-82.3120810
206,North Main Street,29662,34.7816401,-82.3107275
200,East Butler Road,29662,34.7806894,-82.3010106
205,East Butler Road,29662,34.7816789,-82.3009967
203,East Butler Road,29662,34.7816693,-82.3016887
118,East Butler Road,29662,34.7803302,-82.3017324
119,East Butler Road,29662,34.7809833,-82.3020929
116,East Butler Road,29662,34.7801121,-82.3017369
120,East Butler Road,29662,34.7804692,-82.3015544
102,East Butler Road,29662,34.7787798,-82.3043032
114,East Butler Road,29662,34.7797893,-82.3022245
224,East Butler Road,29662,34.7840335,-82.2961616
212,East Butler Road,29662,34.7822598,-82.2987913
411,East Butler Road,29662,34.7883985,-82.2902378
304,East Butler Road,29662,34.7854646,-82.2930062
308,East Butler Road,29662,34.7859857,-82.2919986
406,East Butler Road,29662,34.7866632,-82.2905707
550,Brookwood Point Place,29681,34.7688857,-82.2769244
10,Centimeters Drive,29662,34.7988371,-82.2871339
798,East Butler Road,29662,34.8009759,-82.2849466
400,Brookfield Parkway,29607,34.8123060,-82.2834615
128,Millport Circle,29607,34.8083070,-82.2866812
126,Millport Circle,29607,34.8089793,-82.2865684
120,Millport Circle,29607,34.8081685,-82.2855799
101,East Butler Road,29662,34.7796836,-82.3063852
111,Bethel School Road,29681,34.7761042,-82.2780202
300,West Butler Road,29662,34.7767599,-82.3154493
304,West Butler Road,29662,34.7767505,-82.3162315
1004,East Butler Road,29607,34.8066266,-82.2817914
1070,East Butler Road,29607,34.8108437,-82.2777311
1006,East Butler Road,29607,34.8078215,-82.2812273
601,Regent Park Court,29607,34.8087036,-82.2793922
801,Regent Park Court,29607,34.8086389,-82.2801238
400,Regent Park Court,29607,34.8081114,-82.2793661
100,Regent Park Court,29607,34.8082441,-82.2803661
1120,East Butler Road,29607,34.8112261,-82.2756075
356,Bridgeway Boulevard,29681,34.7977339,-82.2740512
1071,Holland Road,29681,34.7980412,-82.2779849
1100,Log Shoals Road,29662,34.7631451,-82.2957182
142,Tanner Road,29607,34.8156325,-82.2748911
1201,East Butler Road,29607,34.8157188,-82.2738267
621,North Main Street,29662,34.7903394,-82.3144388
1141,East Butler Road,29607,34.8138144,-82.2761852
1133,East Butler Road,29607,34.8135371,-82.2765557
220,Bridges Road,29681,34.7896970,-82.2760464
140,Bridges Road,29662,34.7905255,-82.2816821
407,West Butler Road,29662,34.7749510,-82.3197238
437,West Butler Road,29662,34.7749142,-82.3207047
517,West Butler Road,29607,34.7747600,-82.3229320
545,West Butler Road,29607,34.7747166,-82.3239147
447,West Butler Road,29662,34.7748971,-82.3211799
501,West Butler Road,29607,34.7749348,-82.3214279
503,West Butler Road,29607,34.7746488,-82.3213595
505,West Butler Road,29607,34.7744276,-82.3218334
507,West Butler Road,29607,34.7746632,-82.3221012
509,West Butler Road,29607,34.7748893,-82.3221067
511,West Butler Road,29607,34.7747877,-82.3224306
513,West Butler Road,29607,34.7741155,-82.3225741
535,West Butler Road,29607,34.7747371,-82.3232218
431,West Butler Road,29662,34.7747766,-82.3202692
515,West Butler Road,29607,34.7743724,-82.3229039
106,East Butler Road,29662,34.7789600,-82.3033909
550,South Main Street,29662,34.7706465,-82.2895522
509,South Main Street,29662,34.7702554,-82.2879196
507,South Main Street,29662,34.7702909,-82.2888525
251,Forrester Drive,29607,34.8059989,-82.3130427
155,Verdin Road,29607,34.8153435,-82.2770749
300,Ashby Park Lane,29607,34.8138910,-82.2748612
302,Ashby Park Lane,29607,34.8135173,-82.2745453
304,Ashby Park Lane,29607,34.8132431,-82.2741649
167,Verdin Road,29607,34.8142072,-82.2773567
179,Verdin Road,29607,34.8134049,-82.2775814
150,Verdin Road,29607,34.8161502,-82.2787731
2,Digital Place,29681,34.7952500,-82.2788850
801,East Butler Road,29662,34.8017551,-82.2861310
502,North Main Street,29662,34.7861798,-82.3125741
205,North Main Street,29662,34.7817682,-82.3120924
203,North Main Street,29662,34.7814633,-82.3117985
815,Holland Road,29681,34.7883000,-82.2763008
1060,East Butler Road,20607,34.8096219,-82.2789244
109,Miller Road,29662,34.7853919,-82.3086464
102,Renaissance Circle,29662,34.7846438,-82.3108662
104,Renaissance Circle,29662,34.7847192,-82.3107237
106,Renaissance Circle,29662,34.7848772,-82.3107335
108,Renaissance Circle,29662,34.7850081,-82.3107871
110,Renaissance Circle,29662,34.7851394,-82.3108439
112,Renaissance Circle,29662,34.7852678,-82.3108994
114,Renaissance Circle,29662,34.7853975,-82.3109534
116,Renaissance Circle,29662,34.7855267,-82.3110089
118,Renaissance Circle,29662,34.7856696,-82.3111101
120,Renaissance Circle,29662,34.7856750,-82.3112804
122,Renaissance Circle,29662,34.7856522,-82.3114194
1220,Alexander Street,29662,34.7849214,-82.3111386
1230,Alexander Street,29662,34.7853409,-82.3113162
100,Renaissance Circle,29662,34.7846153,-82.3110056
500,North Main Street,29662,34.7854864,-82.3125581
498,North Main Street,29662,34.7850647,-82.3121114
305,North Main Street,29662,34.7831761,-82.3124370
135,West Butler Road,29662,34.7768761,-82.3126058
109,South Main Street,29662,34.7779485,-82.3087556
111,Millport Circle,29607,34.8064724,-82.2865176
1,Park Plaza,29607,34.8019093,-82.2824686
810,East Butler Road,29607,34.8018817,-82.2846477
930,East Butler Road,29607,34.8041915,-82.2834320
116,North Main Street,29662,34.7809205,-82.3105987
112,North Main Street,29662,34.7804467,-82.3103093
110,North Main Street,29662,34.7799645,-82.3099530
1030,East Butler Road,29607,34.8089408,-82.2804161
6,High Farm Road,29607,34.7827023,-82.3279316
818,Laurel Meadows Parkway,29607,34.7801411,-82.3264444
514,Laurel Meadows Parkway,29607,34.7837331,-82.3277742
808,Laurel Meadows Parkway,29607,34.7803704,-82.3277488
605,Laurel Meadows Parkway,29607,34.7818385,-82.3283607
104,Laurel Meadows Parkway,29607,34.7783701,-82.3254995
821,Laurel Meadows Parkway,29607,34.7805352,-82.3260329
4,Crestbrook Drive,29607,34.7820023,-82.3274458
108,Laurel Meadows Parkway,29607,34.7787752,-82.3256062
609,North Main Street,29662,34.7891753,-82.3141959
205,Laurel Meadows Parkway,29607,34.7807974,-82.3263050
9,High Farm Road,29607,34.7822954,-82.3282684
10,Taylor Road,29607,34.7763778,-82.3241238
113,Laurel Meadows Parkway,29607,34.7792490,-82.3261131
3,Kalmia Creek Drive,29607,34.7809495,-82.3273042
1,High Farm Road,29607,34.7824315,-82.3273039
118,Laurel Meadows Parkway,29607,34.7797352,-82.3255151
508,Laurel Meadows Parkway,29607,34.7835450,-82.3272263
10,Kalmia Creek Drive,29607,34.7812005,-82.3279735
6,Laurelberry Lane,29607,34.7774146,-82.3253064
816,Laurel Meadows Parkway,29607,34.7801226,-82.3266783
516,Laurel Meadows Parkway,29607,34.7837026,-82.3279637
2,Kalmia Creek Drive,29607,34.7813958,-82.3270447
536,Laurel Meadows Parkway,29607,34.7828337,-82.3292239
124,Laurel Meadows Parkway,29607,34.7803378,-82.3254839
5,Crestbrook Drive,29607,34.7816163,-82.3275998
534,Laurel Meadows Parkway,29607,34.7830361,-82.3292905
809,Laurel Meadows Parkway,29607,34.7805265,-82.3272781
532,Laurel Meadows Parkway,29607,34.7832417,-82.3292990
202,Laurel Meadows Parkway,29607,34.7807072,-82.3255999
504,Mary Knob,29607,34.7939087,-82.3195678
506,Laurel Meadows Parkway,29607,34.7833732,-82.3271327
204,Laurel Meadows Parkway,29607,34.7809321,-82.3257250
528,Laurel Meadows Parkway,29607,34.7835089,-82.3290387
511,Mary Knob,29607,34.7929589,-82.3201922
201,North Main Street,29662,34.7810677,-82.3115070
208,Laurel Meadows Parkway,29607,34.7811045,-82.3261409
520,Laurel Meadows Parkway,29607,34.7836771,-82.3282306
6,Kalmia Creek Drive,29607,34.7813332,-82.3275163
538,Laurel Meadows Parkway,29607,34.7826799,-82.3291645
810,Laurel Meadows Parkway,29607,34.7802145,-82.3275047
7,Crestbrook Drive,29607,34.7815589,-82.3278341
804,Laurel Meadows Parkway,29607,34.7805193,-82.3279577
510,Mary Knob,29607,34.7935469,-82.3203180
606,Laurel Meadows Parkway,29607,34.7818218,-82.3288217
802,Laurel Meadows Parkway,29607,34.7806560,-82.3281487
304,Laurel Meadows Parkway,29607,34.7819915,-82.3267520
107,Laurel Meadows Parkway,29607,34.7786364,-82.3260142
5,Kalmia Creek Drive,29607,34.7809479,-82.3275626
601,Laurel Meadows Parkway,29607,34.7822488,-82.3285636
112,Laurel Meadows Parkway,29607,34.7791740,-82.3256785
206,Laurel Meadows Parkway,29607,34.7810626,-82.3258847
3,High Farm Road,29607,34.7824069,-82.3275411
119,Laurel Meadows Parkway,29607,34.7797037,-82.3260500
4,Kalmia Creek Drive,29607,34.7813403,-82.3272687
8,High Farm Road,29607,34.7826605,-82.3281845
2,Laurelberry Lane,29607,34.7774109,-82.3257981
812,Laurel Meadows Parkway,29607,34.7801281,-82.3272247
507,Mary Knob,29607,34.7932953,-82.3196583
300,Laurel Meadows Parkway,29607,34.7815650,-82.3266522
537,Laurel Meadows Parkway,29607,34.7828333,-82.3288056
508,Mary Knob,29607,34.7935788,-82.3199828
302,Laurel Meadows Parkway,29607,34.7817888,-82.3267065
535,Laurel Meadows Parkway,29607,34.7830242,-82.3288755
501,Mary Knob,29607,34.7937698,-82.3188471
6,Crestbrook Drive,29607,34.7819637,-82.3276945
523,Laurel Meadows Parkway,29607,34.7832613,-82.3285661
209,North Main Street,29662,34.7821129,-82.3128059
600,Laurel Meadows Parkway,29607,34.7821972,-82.3289750
111,Laurel Meadows Parkway,29607,34.7790484,-82.3260905
509,Laurel Meadows Parkway,29607,34.7833674,-82.3275652
402,Laurel Meadows Parkway,29607,34.7823978,-82.3268685
209,Hollyridge Court,29607,34.7793341,-82.3306863
461,North Main Street,29662,34.7854567,-82.3143448
10,High Farm Road,29607,34.7826315,-82.3284246
814,Laurel Meadows Parkway,29607,34.7800999,-82.3269509
510,Laurel Meadows Parkway,29607,34.7836590,-82.3273708
500,Laurel Meadows Parkway,29607,34.7827966,-82.3269693
820,Laurel Meadows Parkway,29607,34.7801776,-82.3261976
500,Taylor Road,29607,34.7829852,-82.3260644
813,Laurel Meadows Parkway,29607,34.7804985,-82.3267601
604,Laurel Meadows Parkway,29607,34.7819784,-82.3288765
106,Laurel Meadows Parkway,29607,34.7785703,-82.3255575
527,Laurel Meadows Parkway,29607,34.7831924,-82.3288807
805,Laurel Meadows Parkway,29607,34.7806673,-82.3275341
400,Laurel Meadows Parkway,29607,34.7821908,-82.3267983
110,Laurel Meadows Parkway,29607,34.7789752,-82.3256511
513,Laurel Meadows Parkway,29607,34.7833691,-82.3278847
7,Kalmia Creek Drive,29607,34.7808731,-82.3278036
5,High Farm Road,29607,34.7823676,-82.3277858
116,Laurel Meadows Parkway,29607,34.7795582,-82.3255963
704,Laurel Meadows Parkway,29607,34.7810472,-82.3283606
12,High Farm Road,29607,34.7826145,-82.3286498
4,Laurelberry Lane,29607,34.7773215,-82.3255630
120,Laurel Meadows Parkway,29607,34.7799297,-82.3254594
524,Laurel Meadows Parkway,29607,34.7836232,-82.3286247
8,Kalmia Creek Drive,29607,34.7812918,-82.3277595
4,High Farm Road,29607,34.7827571,-82.3276972
822,Laurel Meadows Parkway,29607,34.7801710,-82.3259525
9,Crestbrook Drive,29607,34.7814769,-82.3280510
502,Laurel Meadows Parkway,29607,34.7830065,-82.3270388
815,Laurel Meadows Parkway,29607,34.7804893,-82.3265090
505,Mary Knob,29607,34.7934445,-82.3194225
1,Crestbrook Drive,29607,34.7816828,-82.3271103
504,Laurel Meadows Parkway,29607,34.7831871,-82.3270757
819,Laurel Meadows Parkway,29607,34.7805364,-82.3262625
517,Laurel Meadows Parkway,29607,34.7833475,-82.3281097
209,Laurel Meadows Parkway,29607,34.7808659,-82.3265509
211,Laurel Meadows Parkway,29607,34.7810209,-82.3268118
121,Laurel Meadows Parkway,29607,34.7798873,-82.3259537
522,Laurel Meadows Parkway,29607,34.7836395,-82.3284238
702,Laurel Meadows Parkway,29607,34.7812717,-82.3284229
700,Laurel Meadows Parkway,29607,34.7814483,-82.3285048
1,Laurelberry Lane,29607,34.7778276,-82.3256113
811,Laurel Meadows Parkway,29607,34.7804764,-82.3270193
3,Crestbrook Drive,29607,34.7816312,-82.3273483
102,Laurel Meadows Parkway,29607,34.7781432,-82.3254816
200,Laurel Meadows Parkway,29607,34.7805425,-82.3255236
8,Crestbrook Drive,29607,34.7819018,-82.3279339
706,Laurel Meadows Parkway,29607,34.7808185,-82.3282674
2,Crestbrook Drive,29607,34.7820485,-82.3272238
109,Laurel Meadows Parkway,29607,34.7788333,-82.3261050
1,Kalmia Creek Drive,29607,34.7810117,-82.3270682
542,Laurel Meadows Parkway,29607,34.7823525,-82.3290395
105,Camden Woods Trail,29607,34.7771781,-82.3305879
115,Laurel Meadows Parkway,29607,34.7794483,-82.3261274
526,Laurel Meadows Parkway,29607,34.7835826,-82.3288153
210,Laurel Meadows Parkway,29607,34.7812016,-82.3264096
404,Laurel Meadows Parkway,29607,34.7825963,-82.3269216
212,Laurel Meadows Parkway,29607,34.7813922,-82.3265766
2,High Farm Road,29607,34.7827625,-82.3274439
122,Laurel Meadows Parkway,29607,34.7801284,-82.3255081
608,Laurel Meadows Parkway,29607,34.7816206,-82.3287009
503,Laurel Meadows Parkway,29607,34.7830023,-82.3274648
3,Laurelberry Lane,29607,34.7777107,-82.3253084
10,Crestbrook Drive,29607,34.7818710,-82.3281487
105,Laurel Meadows Parkway,29607,34.7784265,-82.3259681
505,Laurel Meadows Parkway,29607,34.7831816,-82.3274706
603,Laurel Meadows Parkway,29607,34.7820350,-82.3284740
519,Laurel Meadows Parkway,29607,34.7833129,-82.3283394
502,Mary Knob,29607,34.7941309,-82.3193820
7,High Farm Road,29607,34.7823322,-82.3280314
114,Laurel Meadows Parkway,29607,34.7793717,-82.3257073
530,Laurel Meadows Parkway,29607,34.7834110,-82.3291996
540,Laurel Meadows Parkway,29607,34.7825188,-82.3290947
569,Waterbrook Drive,29607,34.7775969,-82.3283152
567,Waterbrook Drive,29607,34.7775882,-82.3282449
565,Waterbrook Drive,29607,34.7775806,-82.3281836
563,Waterbrook Drive,29607,34.7775738,-82.3281299
561,Waterbrook Drive,29607,34.7775671,-82.3280760
559,Waterbrook Drive,29607,34.7775591,-82.3280112
557,Waterbrook Drive,29607,34.7775396,-82.3278911
555,Waterbrook Drive,29607,34.7775316,-82.3278268
553,Waterbrook Drive,29607,34.7775244,-82.3277694
551,Waterbrook Drive,29607,34.7775168,-82.3277087
920,Goldendale Court,29607,34.7775198,-82.3263753
922,Goldendale Court,29607,34.7775745,-82.3263781
924,Goldendale Court,29607,34.7776200,-82.3263805
926,Goldendale Court,29607,34.7776710,-82.3263831
912,Goldendale Court,29607,34.7772676,-82.3263565
914,Goldendale Court,29607,34.7773209,-82.3263593
916,Goldendale Court,29607,34.7773662,-82.3263616
918,Goldendale Court,29607,34.7774200,-82.3263643
910,Goldendale Court,29607,34.7770621,-82.3264006
908,Goldendale Court,29607,34.7770107,-82.3264167
906,Goldendale Court,29607,34.7769660,-82.3264307
904,Goldendale Court,29607,34.7769222,-82.3264444
902,Goldendale Court,29607,34.7768730,-82.3264597
900,Goldendale Court,29607,34.7768159,-82.3264775
913,Goldendale Court,29607,34.7775751,-82.3268145
915,Goldendale Court,29607,34.7776251,-82.3268173
917,Goldendale Court,29607,34.7776738,-82.3268201
919,Goldendale Court,29607,34.7777308,-82.3268232
546,Waterbrook Drive,29607,34.7775369,-82.3270906
544,Waterbrook Drive,29607,34.7774898,-82.3270615
542,Waterbrook Drive,29607,34.7774439,-82.3270332
540,Waterbrook Drive,29607,34.7773962,-82.3270036
911,Goldendale Court,29607,34.7773107,-82.3268019
909,Goldendale Court,29607,34.7772506,-82.3268158
907,Goldendale Court,29607,34.7772007,-82.3268274
905,Goldendale Court,29607,34.7771571,-82.3268375
903,Goldendale Court,29607,34.7771078,-82.3268489
901,Goldendale Court,29607,34.7770558,-82.3268610
539,Waterbrook Drive,29607,34.7770404,-82.3272715
537,Waterbrook Drive,29607,34.7769878,-82.3272386
535,Waterbrook Drive,29607,34.7769429,-82.3272106
533,Waterbrook Drive,29607,34.7769022,-82.3271850
531,Waterbrook Drive,29607,34.7768564,-82.3271563
529,Waterbrook Drive,29607,34.7768112,-82.3271281
527,Waterbrook Drive,29607,34.7767130,-82.3270725
525,Waterbrook Drive,29607,34.7766738,-82.3270257
523,Waterbrook Drive,29607,34.7766406,-82.3269861
506,Mary Knob,29607,34.7937678,-82.3198351
204,Chetsworth Lane,29607,34.7942368,-82.3190393
509,Mary Knob,29607,34.7930177,-82.3197332
503,Mary Knob,29607,34.7936411,-82.3192338
512,Mary Knob,29607,34.7931786,-82.3204189
512,Laurel Meadows Parkway,29607,34.7837286,-82.3275582
521,Waterbrook Drive,29607,34.7766036,-82.3269420
519,Waterbrook Drive,29607,34.7765325,-82.3268261
517,Waterbrook Drive,29607,34.7765102,-82.3267668
515,Waterbrook Drive,29607,34.7764898,-82.3267127
513,Waterbrook Drive,29607,34.7764685,-82.3266562
511,Waterbrook Drive,29607,34.7764679,-82.3265248
509,Waterbrook Drive,29607,34.7764715,-82.3264542
507,Waterbrook Drive,29607,34.7764744,-82.3263974
505,Waterbrook Drive,29607,34.7764771,-82.3263434
503,Waterbrook Drive,29607,34.7764799,-82.3262890
501,Waterbrook Drive,29607,34.7764831,-82.3262245
711,Rock Hill Court,29607,34.7786350,-82.3274853
709,Rock Hill Court,29607,34.7786872,-82.3274479
707,Rock Hill Court,29607,34.7787281,-82.3274186
705,Rock Hill Court,29607,34.7787662,-82.3273913
703,Rock Hill Court,29607,34.7788075,-82.3273616
701,Rock Hill Court,29607,34.7788506,-82.3273307
719,Rock Hill Court,29607,34.7783995,-82.3276441
717,Rock Hill Court,29607,34.7784456,-82.3276116
715,Rock Hill Court,29607,34.7784903,-82.3275801
713,Rock Hill Court,29607,34.7785333,-82.3275498
731,Rock Hill Court,29607,34.7781070,-82.3278730
729,Rock Hill Court,29607,34.7781582,-82.3278359
727,Rock Hill Court,29607,34.7782028,-82.3278038
725,Rock Hill Court,29607,34.7782423,-82.3277753
723,Rock Hill Court,29607,34.7782814,-82.3277470
721,Rock Hill Court,29607,34.7783271,-82.3277142
739,Rock Hill Court,29607,34.7778786,-82.3280256
737,Rock Hill Court,29607,34.7779289,-82.3279890
735,Rock Hill Court,29607,34.7779722,-82.3279576
733,Rock Hill Court,29607,34.7780140,-82.3279271
601,Graythorn Lane,29607,34.7778567,-82.3276662
603,Graythorn Lane,29607,34.7779002,-82.3276331
605,Graythorn Lane,29607,34.7779429,-82.3276006
607,Graythorn Lane,29607,34.7779893,-82.3275654
609,Graythorn Lane,29607,34.7780669,-82.3275006
611,Graythorn Lane,29607,34.7781166,-82.3274644
613,Graythorn Lane,29607,34.7781589,-82.3274337
615,Graythorn Lane,29607,34.7781959,-82.3274068
617,Graythorn Lane,29607,34.7782329,-82.3273799
619,Graythorn Lane,29607,34.7782832,-82.3273434
621,Graythorn Lane,29607,34.7785010,-82.3271960
623,Graythorn Lane,29607,34.7785491,-82.3271587
625,Graythorn Lane,29607,34.7785917,-82.3271257
627,Graythorn Lane,29607,34.7786330,-82.3270938
921,Goldendale Court,29607,34.7778435,-82.3267489
923,Goldendale Court,29607,34.7778884,-82.3267131
925,Goldendale Court,29607,34.7779326,-82.3266778
927,Goldendale Court,29607,34.7779794,-82.3266403
620,Graythorn Lane,29607,34.7781920,-82.3269119
622,Graythorn Lane,29607,34.7782376,-82.3268772
624,Graythorn Lane,29607,34.7782797,-82.3268452
626,Graythorn Lane,29607,34.7783238,-82.3268118
309,East Butler Road,29662,34.7857973,-82.2946741
101,Miller Road,29662,34.7848318,-82.3101185
17,East Butler Road,29662,34.7789035,-82.3075252
100,Miller Road,29662,34.7843451,-82.3097216
200,South Main Street,29662,34.7760863,-82.3083746
750,Old Mill Road,29662,34.7841559,-82.2972474
100,Professional Court,29662,34.7953180,-82.2857961
201,Murray Drive,29662,34.7841660,-82.3097039
122,South Main Street,29662,34.7768952,-82.3089902
503,Murray Drive,29662,34.7807288,-82.3078244
20,Owens Lane,29662,34.7772947,-82.3083289
1140,East Butler Road,29607,34.8132424,-82.2753385
309,Ashby Park Lane,29607,34.8131581,-82.2732471
311,Ashby Park Lane,29607,34.8130261,-82.2731822
307,Ashby Park Lane,29607,34.8132911,-82.2733303
209,Rockbridge Road,29607,34.8013565,-82.3033382
205,Rockbridge Road,29607,34.8019799,-82.3031268
203,Rockbridge Road,29607,34.8023501,-82.3029810
201,Rockbridge Road,29607,34.8028105,-82.3028038
207,Rockbridge Road,29607,34.8016596,-82.3032427
793,East Butler Road,29662,34.8010789,-82.2861622
412,North Main Street,29662,34.7848533,-82.3122917
104,South Main Street,29662,34.7777128,-82.3096775
475,North Main Street,29662,34.7859421,-82.3139366
116,West Butler Road,29662,34.7773660,-82.3134338
1015,East Butler Road,29607,34.8086171,-82.2822453
1312,Old Stage Road,29681,34.7617198,-82.2904435
451,North Main Street,29662,34.7853007,-82.3133806
503,South Main Street,29662,34.7708834,-82.2901610
510,South Main Street,29662,34.7688876,-82.2886082
513,North Main Street,29662,34.7881236,-82.3140470
107,Murphy Lane,29607,34.7652063,-82.3288913
103,Murphy Lane,29607,34.7652481,-82.3281675
1301,Brookfield Boulevard,29607,34.8128144,-82.2822295
1061,Holland Road,29681,34.7959926,-82.2750357
611,North Main Street,29662,34.7894619,-82.3141447
100,Millport Circle,29607,34.8057236,-82.2844956
130,Neely Ferry Road,29680,34.7619976,-82.2945795
801,West Butler Road,29607,34.7749986,-82.3260395
590,Fowler Circle,29607,34.7643427,-82.3267223
209,Murphy Lane,29607,34.7649247,-82.3294990
150,Verdin Road,29607,34.8161494,-82.2787435
791,East Butler Road,29662,34.8007498,-82.2861456
303,Ashby Park Lane,29607,34.8137529,-82.2738780
305,Ashby Park Lane,29607,34.8134280,-82.2735306
576,Brookwood Point Place,29681,34.7707916,-82.2743579
115,South Main Street,29662,34.7776693,-82.3084019
501,Regent Park Court,29607,34.8084737,-82.2791773
300,Regent Park Court,29607,34.8078689,-82.2798495
200,Regent Park Court,29607,34.8080225,-82.2801250
905,West Butler Road,29607,34.7751992,-82.3277001
101,McCaw Street,29662,34.7945908,-82.3147896
310,East Butler Road,29662,34.7865420,-82.2909228
203,West Butler Road,29662,34.7763419,-82.3141810
56,Brookfield Oaks Drive,29607,34.8052931,-82.2791840
74,Brookfield Oaks Drive,29607,34.8036556,-82.2796483
218,New Neely Ferry Road,29662,34.7733336,-82.3048649
520,Bridgeway Boulevard,29681,34.7955843,-82.2770692
205,South Main Street,29662,34.7760049,-82.3081113
114,Ashmore Bridge Road,29662,34.7742416,-82.3162952
107,Ashmore Bridge Road,29662,34.7749453,-82.3156292
901,East Butler Road,29607,34.8038163,-82.2850318
825,East Butler Road,29607,34.8033036,-82.2857507
210,North Main Street,29662,34.7824234,-82.3113154
212,North Main Street,29662,34.7826065,-82.3114900
108,South Main Street,29662,34.7772163,-82.3094152
925,West Butler Road,29607,34.7753810,-82.3284777
111,North Main Street,29662,34.7802155,-82.3112043
618,Graythorn Lane,29607,34.7781035,-82.3269758
616,Graythorn Lane,29607,34.7780592,-82.3270076
614,Graythorn Lane,29607,34.7780206,-82.3270354
612,Graythorn Lane,29607,34.7779813,-82.3270636
610,Graythorn Lane,29607,34.7779386,-82.3270944
608,Graythorn Lane,29607,34.7778915,-82.3271283
600,Graythorn Lane,29607,34.7776725,-82.3272950
602,Graythorn Lane,29607,34.7777167,-82.3272617
604,Graythorn Lane,29607,34.7777568,-82.3272316
606,Graythorn Lane,29607,34.7777989,-82.3271998
204,Crepe Myrtle Court,29607,34.8025475,-82.3001170
509,North Main Street,29662,34.7873010,-82.3137753
507,North Main Street,29662,34.7869295,-82.3140714
117,East Butler Road,29662,34.7806369,-82.3021108
410,East Butler Road,29662,34.7873565,-82.2899772
408,East Butler Road,29662,34.7871074,-82.2902676
104,East Butler Road,29662,34.7789871,-82.3038573
235,Murphy Lane,29607,34.7649375,-82.3299424
308,New Neely Ferry Road,29662,34.7710472,-82.3039040
1,Winchester Court,29662,34.7723653,-82.3028019
3,Winchester Court,29662,34.7722533,-82.3026282
5,Winchester Court,29662,34.7721367,-82.3024804
7,Winchester Court,29662,34.7720123,-82.3023446
9,Winchester Court,29662,34.7718736,-82.3021914
11,Winchester Court,29662,34.7715458,-82.3019643
12,Winchester Court,29662,34.7708782,-82.3022511
10,Winchester Court,29662,34.7711438,-82.3025952
6,Winchester Court,29662,34.7716066,-82.3029334
2,Winchester Court,29662,34.7719180,-82.3031410
305,New Neely Ferry Road,29662,34.7726502,-82.3034304
850,East Butler Road,29607,34.8026989,-82.2837145
