House number,Street name,Postal code,Latitude,Longitude
124,North Townville Street,29678,34.6855918,-82.9530588
135,Eagles Nest Drive,29678,34.6966058,-82.9500624
1011,Highway 123 By-Pass,29678,34.6927271,-82.9756656
922,Bypass 123,29678,34.6949100,-82.9724166
926,Bypass 123,29678,34.6948897,-82.9724604
928,Bypass 123,29678,34.6948716,-82.9724996
930,Bypass 123,29678,34.6948485,-82.9725495
932,Bypass 123,29678,34.6948215,-82.9726079
934,Bypass 123,29678,34.6947967,-82.9726613
416,Marina Bay Drive,29672,34.7073721,-82.9458520
128,Ram Cat Alley,29678,34.6848613,-82.9535372
126,Ram Cat Alley,29678,34.6848573,-82.9535856
124,Ram Cat Alley,29678,34.6848497,-82.9536775
122,Ram Cat Alley,29678,34.6848437,-82.9537513
120,Ram Cat Alley,29678,34.6848367,-82.9538368
116,Ram Cat Alley,29678,34.6848228,-82.9540051
114,Ram Cat Alley,29678,34.6848176,-82.9540685
112,Ram Cat Alley,29678,34.6848066,-82.9542027
106,Ram Cat Alley,29678,34.6847940,-82.9543566
105,North Fairplay Street,29678,34.6847118,-82.9549494
103,Ram Cat Alley,29678,34.6849611,-82.9545531
105A,Ram Cat Alley,29678,34.6849754,-82.9544692
105B,Ram Cat Alley,29678,34.6849804,-82.9544230
107,Ram Cat Alley,29678,34.6849826,-82.9542869
109,Ram Cat Alley,29678,34.6849809,-82.9542185
111,Ram Cat Alley,29678,34.6849964,-82.9541420
113,Ram Cat Alley,29678,34.6850107,-82.9539670
117,Ram Cat Alley,29678,34.6850184,-82.9538691
119,Ram Cat Alley,29678,34.6850217,-82.9538376
125,Ram Cat Alley,29678,34.6850338,-82.9536639
141,Ram Cat Alley,29678,34.6850548,-82.9534695
113,North Townville Street,29678,34.6850895,-82.9533246
115,North Townville Street,29678,34.6851466,-82.9533290
119,North Townville Street,29678,34.6852878,-82.9533461
121,North Townville Street,29678,34.6853760,-82.9533464
123,North Townville Street,29678,34.6854256,-82.9533484
125,North Townville Street,29678,34.6855158,-82.9533578
127,North Townville Street,29678,34.6855794,-82.9533598
117,East North 1st Street,29678,34.6858278,-82.9535821
116,East North 1st Street,29678,34.6855533,-82.9536116
115,East North 1st Street,29678,34.6858267,-82.9536344
111,East North 1st Street,29678,34.6858212,-82.9536814
111,East North 1st Street,29678,34.6858190,-82.9537202
110,East North 1st Street,29678,34.6855433,-82.9538034
109,East North 1st Street,29678,34.6858124,-82.9538088
107,East North 1st Street,29678,34.6857981,-82.9539898
108,East North 1st Street,29678,34.6855102,-82.9541534
108,East North 1st Street,29678,34.6855169,-82.9541065
106,East North 1st Street,29678,34.6855003,-82.9542634
104,East North 1st Street,29678,34.6854926,-82.9543237
108,North Fairplay Street,29678,34.6850041,-82.9546429
110,North Fairplay Street,29678,34.6850460,-82.9546483
104,West North 1st Street,29678,34.6856944,-82.9556166
104B,West North 1st Street,29678,34.6856514,-82.9554784
100,West North 1st Street,29678,34.6856812,-82.9550909
103,East North 1st Street,29678,34.6857363,-82.9546899
203,North Townville Street,29678,34.6861046,-82.9534400
123,East North 1st Street,29678,34.6858510,-82.9534426
207,East North 1st Street,29678,34.6858995,-82.9526997
209,East North 1st Street,29678,34.6858995,-82.9525340
211,East North 1st Street,29678,34.6859050,-82.9524690
214,East North 1st Street,29678,34.6856657,-82.9522719
205,North Depot Street,29678,34.6862921,-82.9517958
325,East North 1st Street,29678,34.6860853,-82.9503682
327,East North 1st Street,29678,34.6860986,-82.9502193
331,East North 1st Street,29678,34.6860975,-82.9501127
104,North Cherry Street,29678,34.6857132,-82.9480702
415,East Main Street,29678,34.6854496,-82.9492651
207,Main Street,29678,34.6851259,-82.9527131
211,Main Street,29678,34.6851276,-82.9526453
219,Main Street,29678,34.6851463,-82.9523899
223,Main Street,29678,34.6851667,-82.9522162
225,Main Street,29678,34.6851778,-82.9520982
233A,Main Street,29678,34.6851816,-82.9519580
235,Main Street,29678,34.6851915,-82.9516684
125,North Depot Street,29678,34.6855808,-82.9517099
218,East North 1st Street,29678,34.6856724,-82.9521579
216,East North 1st Street,29678,34.6856668,-82.9522182
118,North Townville Street,29678,34.6854606,-82.9530457
116,North Townville Street,29678,34.6853669,-82.9530242
114,North Townville Street,29678,34.6853117,-82.9530269
12019,North Radio Station Road,29678,34.6850033,-82.9886484
201,Hopkins Road,29678,34.6934333,-82.9538476
200,Lee Lane,29678,34.6961998,-82.9578409
698,West South 4th Street,29678,34.6790528,-82.9656150
995,South Oak Street,29678,34.6692806,-82.9556070
710,North Townville Street,29678,34.6950078,-82.9563601
100,Bobcat Ridge,29678,34.6752538,-82.9886358
813,Bypass 123,29678,34.6968607,-82.9655909
830,Bypass 123,29678,34.6971123,-82.9683122
315,Holland Avenue,29678,34.6802308,-82.9415551
491,East Main Street,29678,34.6852346,-82.9484461
100,South Walnut Street,29678,34.6837180,-82.9501408
225,East North 1st Street,29679,34.6862469,-82.9518356
221,East North 1st Street,29679,34.6862412,-82.9522521
211,Ingles Place,29672,34.7013975,-82.9358246
115,Rochester Highway,29672,34.7027017,-82.9389309
965,Bypass 123,29678,34.6943532,-82.9719257
504,South Oak Street,29678,34.6768852,-82.9569094
502,East South 2nd Street,29678,34.6823965,-82.9473570
300,East South 2nd Street,29678,34.6819057,-82.9505572
507,South Townville Street,29678,34.6770868,-82.9518068
1011,East North 1st Street,29678,34.6984996,-82.9403906
210,Ingles Place,29678,34.7004610,-82.9375424
1020,East North 1st Street,29678,34.6991191,-82.9385922
10111,Clemson Boulevard,29678,34.7000695,-82.9338793
106,North Fairplay Street,29678,34.6846981,-82.9545099
114,North Fairplay Street,29678,34.6853760,-82.9544630
115,East North 2nd Street,29678,34.6873201,-82.9531200
112,East North 2nd Street,29678,34.6868370,-82.9540750
207,North Townville Street,29678,34.6865625,-82.9536335
115,East North 2nd Street,29678,34.6874855,-82.9540160
205,North Townville Street,29678,34.6862895,-82.9536060
101,East North 2nd Street,29678,34.6872694,-82.9547649
215,North Townville Street,29678,34.6868430,-82.9536475
210,North Townville Street,29678,34.6863350,-82.9530825
319,East North 1st Street,29678,34.6861005,-82.9506390
401,East North 1st Street,29678,34.6862100,-82.9497885
405,East North 1st Street,29678,34.6863870,-82.9493885
407,East North 1st Street,29678,34.6862998,-82.9490139
102,North Cherry Street,29678,34.6848370,-82.9479460
416,East Main Street,29678,34.6852464,-82.9491441
408,East North 1st Street,29678,34.6858410,-82.9491025
508,East North 1st Street,29678,34.6859624,-82.9477209
412,East North 1st Street,29678,34.6858435,-82.9486330
493,East Main Street,29678,34.6855890,-82.9486530
401,East Main Street,29678,34.6855035,-82.9496714
110,North Oak Street,29678,34.6850691,-82.9562398
111,West North 1st Street,29678,34.6851431,-82.9557526
115,West North 1st Street,29678,34.6852315,-82.9560799
101,West North 1st Street,29678,34.6853157,-82.9550934
107,West North 1st Street,29678,34.6852800,-82.9552614
514,South Walnut Street,29678,34.6773137,-82.9491571
1016,Overbrook Drive,29678,34.6783906,-82.9345759
321,West South 4th Street,29678,34.6784025,-82.9602454
616,Quincy Road,29678,34.6744677,-82.9619585
400,South Pine Street,29678,34.6789234,-82.9576366
400,South Fairplay Street,29678,34.6788464,-82.9543935
111,East South 2nd Street,29678,34.6824366,-82.9531514
207,West South 2nd Street,29678,34.6816333,-82.9568257
208,West South 2nd Street,29678,34.6821112,-82.9570367
201,South Fairplay Street,29678,34.6817057,-82.9539039
212,East South 3rd Street,29678,34.6807003,-82.9512960
525,East Main Street,29678,34.6860760,-82.9462600
301,East Main Street,29678,34.6854815,-82.9512405
508,East Main Street,29678,34.6850879,-82.9471084
623,Return Church Road,29678,34.6464098,-82.9902089
936,South Depot Street,29678,34.6706294,-82.9510387
800,Bypass 123,29678,34.6980761,-82.9656500
200,West North 2nd Street,29678,34.6870308,-82.9571751
1109-A,Jennings Avenue,29678,34.6922485,-82.9807251
700,Bypass 123,29678,34.6980960,-82.9636678
708,Bypass 123,29678,34.6981332,-82.9645392
816A,West North 1st Street,29678,34.6896387,-82.9727581
514,US-123,29678,34.6981524,-82.9542654
403,East Main Street,29678,34.6854733,-82.9495606
695,Bypass 123,29678,34.6970182,-82.9631919
515,By Pass 123,29678,34.6967313,-82.9541155
620,East North 1st Street,29678,34.6877126,-82.9445781
404,North Fairplay Street,29678,34.6887854,-82.9550065
109,Bypass 123,29678,34.6992593,-82.9397338
221,Thomas Heights Circle,29678,34.6922742,-82.9377463
1010,East Main Street,29678,34.6849623,-82.9354234
101,Perry Avenue,29678,34.6837803,-82.9439817
407,South Stribling Street,29678,34.6821304,-82.9384280
918,Williams Street,29678,34.6839013,-82.9401300
101,East Cresent Drive,29678,34.6696024,-82.9432882
300,South Poplar Street,29678,34.6799745,-82.9591133
298,South Poplar Street,29678,34.6807284,-82.9600257
404,West North 1st Street,29678,34.6861514,-82.9606712
12015,North Radio Station Road,29678,34.6853313,-82.9885098
1305,Sandifer Boulevard,29678,34.6924942,-82.9843716
1313,Sandifer Boulevard,29678,34.6921718,-82.9852022
201,Hopkins Road,29678,34.6933945,-82.9538986
810,West South 4th Street,29678,34.6757518,-82.9698364
315,Holland Avenue,29678,34.6813466,-82.9399934
