House number,Street name,Postal code,Latitude,Longitude
10,вуліца Прытыцкага,222310,54.3115160,26.8395284
29,вуліца Прытыцкага,222306,54.3073828,26.8376596
8,Грамадоўская вуліца,222310,54.3102378,26.8358004
40А,Віленская вуліца,222306,54.3149181,26.8533248
10А,вуліца Францішка Скарыны,222310,54.3001637,26.8466809
1,вуліца Будаўнікоў,222307,54.2991558,26.8406176
143,вуліца Вялікі Гасцінец,222310,54.2992250,26.8634308
14А,вуліца Льва Талстога,222310,54.3064157,26.8431653
8-1,Верадоўская вуліца,222310,54.3107461,26.9205507
111А,вуліца Вялікі Гасцінец,222307,54.3031022,26.8476604
143,Лібава-Роменская вуліца,222310,54.3113919,26.8576294
67А,вуліца Вялікі Гасцінец,222304,54.3084937,26.8191721
100А,Гарадоцкая вуліца,222310,54.3053894,26.8727608
2Б,вуліца Тамары Дудко,222302,54.3004062,26.8763837
102,Гарадоцкая вуліца,222302,54.3039063,26.8728137
15А,вуліца Будаўнікоў,222307,54.2972470,26.8513636
17А,вуліца Будаўнікоў,222307,54.2964695,26.8534220
67,вуліца Вялікі Гасцінец,222304,54.3077918,26.8222850
6,Віленская вуліца,222310,54.3088905,26.8414660
67Б,вуліца Вялікі Гасцінец,222304,54.3087461,26.8174604
25,вуліца Якуба Ясінскага,222304,54.3016899,26.8261714
67,вуліца Вялікі Гасцінец,222304,54.3080765,26.8215829
2А,2-і завулак Максіма Горкага,222301,54.3306694,26.8722935
67,вуліца Вялікі Гасцінец,222304,54.3080743,26.8215053
298,Велікасельская вуліца,222301,54.3186322,26.9107249
153,вуліца Вялікі Гасцінец,222310,54.2952789,26.8752117
58А,вуліца Вялікі Гасцінец,222304,54.3070352,26.8325050
14Б,вуліца Будаўнікоў,222307,54.2967362,26.8474560
21,вуліца Францішка Скарыны,222307,54.2965552,26.8471228
1,Віленская вуліца,222306,54.3079534,26.8407575
113,вуліца Вялікі Гасцінец,222310,54.3023425,26.8454059
6А,вуліца Будаўнікоў,222307,54.2966195,26.8434452
29,вуліца Прытыцкага,222310,54.3075477,26.8376575
24А,вуліца Багдана Хмяльніцкага,222310,54.2996210,26.8446600
32,вуліца Міру,222310,54.2933211,26.8511760
25А,вуліца Францішка Скарыны,222307,54.2955159,26.8464455
32,вуліца Францішка Скарыны,222307,54.2954045,26.8442204
56А,вуліца Міру,222307,54.2904215,26.8513858
68А,вуліца Вялікі Гасцінец,222310,54.3048473,26.8457867
52,вуліца Вялікі Гасцінец,222304,54.3078963,26.8285059
2,вуліца Льва Талстога,222310,54.3078052,26.8356099
3,Цэнтральная плошча,222310,54.3066200,26.8369062
52 к1,вуліца Вялікі Гасцінец,222304,54.3084265,26.8291433
46А,вуліца Міру,222310,54.2913694,26.8504038
1,Цэнтральная плошча,222310,54.3059014,26.8402538
38,вуліца Францішка Скарыны,222307,54.2948683,26.8430115
1,вуліца Багдана Хмяльніцкага,222310,54.3089124,26.8453673
18,завулак Чарняхоўскага,222301,54.3209827,26.8650675
16,вуліца Якуба Ясінскага,222310,54.3047871,26.8270414
18,вуліца Якуба Ясінскага,222310,54.3044829,26.8269515
19,Віленская вуліца,222306,54.3107610,26.8493561
5,вуліца Якуба Ясінскага,222304,54.3064625,26.8261265
1Б,вуліца Валынца,222310,54.3091683,26.8476419
18,вуліца Прытыцкага,222306,54.3092458,26.8390804
7,вуліца Машэрава,222310,54.3041913,26.8301700
6,Віленская вуліца,222310,54.3089556,26.8413490
12,вуліца Валынца,222310,54.3103642,26.8415102
9,вуліца Машэрава,222310,54.3037406,26.8301763
5,вуліца Забэйды-Суміцкага,222310,54.3056277,26.8280567
11А,Віленская вуліца,222310,54.3101047,26.8459329
15,Замкавая вуліца,222301,54.3216007,26.8731545
1А,Вакзальная вуліца,222303,54.3157916,26.8407093
147,вуліца Вялікі Гасцінец,222302,54.2964631,26.8730201
3,Замкавая вуліца,222310,54.3194355,26.8724686
3,Вясновая вуліца,222307,54.2888021,26.8468791
152А,вуліца Вялікі Гасцінец,222302,54.2957686,26.8931479
152Б,вуліца Вялікі Гасцінец,222302,54.2962625,26.8933801
17,вуліца Гогаля,222306,54.3215358,26.8701402
19,Замкавая вуліца,222310,54.3234880,26.8740626
2Б,вуліца Чайкоўскага,222304,54.2978234,26.8243180
16,плошча Старое Места,222310,54.3193951,26.8701906
40,Віленская вуліца,222310,54.3156700,26.8528885
1,вуліца Вандыша,222310,54.3186883,26.8590903
67А,вуліца Вялікі Гасцінец,222304,54.3084791,26.8189395
143А,вуліца Вялікі Гасцінец,222310,54.2970596,26.8678923
2/2,вуліца Тамары Дудко,222310,54.3008457,26.8771823
143,Лібава-Роменская вуліца,222310,54.3113699,26.8576659
143А,Лібава-Роменская вуліца,222310,54.3097200,26.8555376
2А,вуліца Тамары Дудко,222310,54.3011185,26.8744311
8-1,Верадоўская вуліца,222310,54.3107660,26.9203703
10Б,вуліца Прытыцкага,222310,54.3115327,26.8403620
23,Палярная вуліца,222310,54.3190973,26.8630025
4,вуліца Вандыша,222310,54.3189756,26.8596996
20,Палярная вуліца,222310,54.3194700,26.8624143
37,вуліца Вандыша,222310,54.3182173,26.8657474
29,Палярная вуліца,222310,54.3190158,26.8639935
6,Палярная вуліца,222310,54.3196767,26.8600439
10,вуліца Вандыша,222310,54.3188704,26.8615492
27,вуліца Вандыша,222310,54.3183552,26.8637343
34,вуліца Вандыша,222310,54.3185259,26.8656739
12,Палярная вуліца,222310,54.3195846,26.8610088
23,вуліца Вандыша,222310,54.3184190,26.8628493
5,Таполевая вуліца,222310,54.3200531,26.8601252
21,Палярная вуліца,222310,54.3191190,26.8626386
2,вуліца Вандыша,222310,54.3190267,26.8591681
39,вуліца Вандыша,222310,54.3181797,26.8663151
27,Палярная вуліца,222310,54.3190402,26.8636876
4,Палярная вуліца,222310,54.3197060,26.8596621
29,вуліца Вандыша,222310,54.3183459,26.8642116
32,вуліца Вандыша,222310,54.3185338,26.8653003
13,Палярная вуліца,222310,54.3192290,26.8611907
21,Таполевая вуліца,222310,54.3198649,26.8626026
10,Палярная вуліца,222310,54.3196103,26.8606900
3,Таполевая вуліца,222310,54.3200815,26.8598465
19,Палярная вуліца,222310,54.3191575,26.8622374
3,вуліца Вандыша,222310,54.3186747,26.8594290
29,Таполевая вуліца,222310,54.3197362,26.8638927
2,Палярная вуліца,222310,54.3197332,26.8593167
31,вуліца Вандыша,222310,54.3183273,26.8644703
28,вуліца Вандыша,222310,54.3186352,26.8649399
11,Палярная вуліца,222310,54.3192667,26.8608647
11,вуліца Вандыша,222310,54.3185631,26.8606934
19,Таполевая вуліца,222310,54.3198981,26.8622542
8,Палярная вуліца,222310,54.3196455,26.8603533
1,Таполевая вуліца,222310,54.3201120,26.8594332
30,Палярная вуліца,222310,54.3193294,26.8641667
17,Палярная вуліца,222310,54.3191849,26.8618564
5,вуліца Вандыша,222310,54.3186584,26.8597842
25,Таполевая вуліца,222310,54.3198212,26.8631437
20,вуліца Вандыша,222310,54.3187385,26.8631962
33,вуліца Вандыша,222310,54.3183006,26.8647882
26,вуліца Вандыша,222310,54.3186930,26.8644841
9,Палярная вуліца,222310,54.3192756,26.8605196
13,вуліца Вандыша,222310,54.3185611,26.8610786
17,Таполевая вуліца,222310,54.3199078,26.8620016
28,Палярная вуліца,222310,54.3193703,26.8637699
15,Палярная вуліца,222310,54.3192093,26.8615285
7,вуліца Вандыша,222310,54.3186475,26.8601024
23,Таполевая вуліца,222310,54.3198472,26.8628950
18,вуліца Вандыша,222310,54.3187572,26.8628449
24,вуліца Вандыша,222310,54.3186985,26.8641159
7,Палярная вуліца,222310,54.3193002,26.8602621
15,вуліца Вандыша,222310,54.3185449,26.8614534
15,Таполевая вуліца,222310,54.3199381,26.8616714
26,Палярная вуліца,222310,54.3193914,26.8634302
9,вуліца Вандыша,222310,54.3185852,26.8603990
16,вуліца Вандыша,222310,54.3187798,26.8625662
36,вуліца Вандыша,222310,54.3184961,26.8660345
18,Палярная вуліца,222310,54.3195016,26.8620663
22,вуліца Вандыша,222310,54.3186877,26.8636437
5,Палярная вуліца,222310,54.3193638,26.8599632
17,вуліца Вандыша,222310,54.3184999,26.8618089
13,Таполевая вуліца,222310,54.3199575,26.8613890
8,вуліца Вандыша,222310,54.3188836,26.8610013
24,Палярная вуліца,222310,54.3194178,26.8630487
14,вуліца Вандыша,222310,54.3188181,26.8622176
25,вуліца Вандыша,222310,54.3183978,26.8631755
16,Палярная вуліца,222310,54.3195475,26.8616648
3,Палярная вуліца,222310,54.3193609,26.8595618
19,вуліца Вандыша,222310,54.3184690,26.8621879
9,Таполевая вуліца,222310,54.3200143,26.8607903
11,Таполевая вуліца,222310,54.3199896,26.8610919
25,Палярная вуліца,222310,54.3190625,26.8633033
6,вуліца Вандыша,222310,54.3189340,26.8603534
22,Палярная вуліца,222310,54.3194518,26.8627172
35,вуліца Вандыша,222310,54.3182668,26.8651353
31,Палярная вуліца,222310,54.3189632,26.8643772
12,вуліца Вандыша,222310,54.3188268,26.8619203
25А,вуліца Вандыша,222310,54.3183903,26.8635113
14,Палярная вуліца,222310,54.3195583,26.8613497
1,Палярная вуліца,222310,54.3193884,26.8592673
21,вуліца Вандыша,222310,54.3184320,26.8625026
7,Таполевая вуліца,222310,54.3200255,26.8604593
56А,Лібава-Роменская вуліца,222304,54.3095865,26.8617971
3,вуліца Забэйды-Суміцкага,222310,54.3061493,26.8282103
1,Паркавая вуліца,222306,54.3177284,26.8416413
2,Паркавая вуліца,222306,54.3176517,26.8410000
2А,Паркавая вуліца,222306,54.3178377,26.8409080
3,Паркавая вуліца,222306,54.3181483,26.8415835
4,Паркавая вуліца,222306,54.3181423,26.8410569
5,Паркавая вуліца,222306,54.3184531,26.8416516
6,Паркавая вуліца,222306,54.3185086,26.8409830
7,Паркавая вуліца,222306,54.3186372,26.8422633
9,Паркавая вуліца,222306,54.3189116,26.8417153
8,Паркавая вуліца,222306,54.3189819,26.8409801
10,Паркавая вуліца,222306,54.3195535,26.8408562
11,Паркавая вуліца,222306,54.3198024,26.8416355
12,Паркавая вуліца,222306,54.3200509,26.8408533
13,Паркавая вуліца,222306,54.3202402,26.8416962
6,Лясная вуліца,222306,54.3203876,26.8374695
14,Сухая вуліца,222306,54.3209231,26.8383907
152А,вуліца Вялікі Гасцінец,222302,54.2959436,26.8936031
54,вуліца Максіма Горкага,222310,54.3290405,26.8830654
41,Полацкая вуліца,222306,54.3217409,26.8468262
8,Вакзальная вуліца,222310,54.3158459,26.8478778
52,вуліца Вялікі Гасцінец,222304,54.3081181,26.8286156
9,Віленская вуліца,222310,54.3094729,26.8441101
6,вуліца Чкалава,222310,54.2997409,26.8268705
6,вуліца Машэрава,222310,54.2997603,26.8311822
10,вуліца Металістаў,222310,54.3040982,26.8045357
27,вуліца Язэпа Драздовіча,222304,54.2990474,26.8207717
2,Цэнтральная плошча,222306,54.3085289,26.8396257
143,Лібава-Роменская вуліца,222310,54.3106118,26.8567763
161,Лібава-Роменская вуліца,222310,54.3054844,26.8600389
116Г,Гарадоцкая вуліца,222302,54.2938470,26.8730123
80,вуліца Францішка Скарыны,222310,54.2840039,26.8405372
112Б,Гарадоцкая вуліца,222302,54.2940923,26.8712728
21,Іллянская вуліца,222301,54.3232842,26.8828854
86А,вуліца Вялікі Гасцінец,222306,54.3034447,26.8564976
4А,вуліца Касманаўтаў,222306,54.3037341,26.8554793
15,вуліца Францішка Скарыны,222310,54.2987047,26.8510171
149А,вуліца Вялікі Гасцінец,222310,54.2953255,26.8731667
115А,вуліца Вялікі Гасцінец,222310,54.3008826,26.8469301
20,Афіцэрская вуліца,222310,54.3231880,26.8810184
2,вуліца Канстанцыі Буйло,222304,54.2975756,26.8316535
116В,Гарадоцкая вуліца,222302,54.2940355,26.8719349
45,вуліца Францішка Скарыны,222307,54.2936256,26.8482196
6,Віленская вуліца,222310,54.3089556,26.8413490
