House number,Street name,Postal code,Latitude,Longitude
1Б,вуліца Леніна,223710,52.7933071,27.5335131
9,вуліца Каржа,223710,52.7821169,27.5403436
31,вуліца Казлова,223707,52.7848992,27.5449816
26,вуліца Казлова,223710,52.7841663,27.5399718
21А,Чыгуначная вуліца,223710,52.7924558,27.5415732
20,вуліца Леніна,223710,52.7861638,27.5382763
12А,Чыгуначная вуліца,223710,52.7942933,27.5447488
46А,вуліца Казлова,223710,52.7851087,27.5320360
46А,вуліца Казлова,223710,52.7851172,27.5319021
47,вуліца Канстанціна Заслонава,223710,52.7858263,27.5218924
2Б,вуліца Максіма Горкага,223710,52.7888911,27.5544616
2Б,вуліца Максіма Горкага,223710,52.7888290,27.5543262
51,вуліца Максіма Горкага,223710,52.7934874,27.5493289
46А,вуліца Казлова,223710,52.7853037,27.5318552
21А,Чыгуначная вуліца,223710,52.7921384,27.5417703
21А,Чыгуначная вуліца,223710,52.7921847,27.5417349
21А,Чыгуначная вуліца,223710,52.7923052,27.5416297
24,вуліца Казлова,223710,52.7845070,27.5413166
24,вуліца Казлова,223710,52.7850749,27.5431715
19,праспект Міру,223710,52.7853187,27.5257953
13А,вуліца Судзілоўскага,223703,52.7865073,27.4964199
85А,Кастрычніцкая вуліца,223710,52.7897644,27.5061626
4,Набярэжная вуліца,223710,52.7854160,27.5536918
21,Чыгуначная вуліца,223710,52.7923059,27.5402925
34,бульвар Шахцёраў,223710,52.7850402,27.5097353
57,вуліца Канстанціна Заслонава,223710,52.7847490,27.5178112
1А,вуліца Ленінскага Камсамолу,223710,52.7868919,27.5467129
43,вуліца Ленінскага Камсамолу,223702,52.7952955,27.5404204
106,Кастрычніцкая вуліца,223710,52.7935066,27.5028152
23,вуліца Канстанціна Заслонава,223707,52.7913065,27.5389446
2А,вуліца Максіма Горкага,223710,52.7885798,27.5531794
16А,Любанская шаша,223710,52.8121927,27.5677709
17Б,вуліца Леніна,223707,52.7865829,27.5390644
38,вуліца Ленінскага Камсамолу,223710,52.7928777,27.5445729
74,вуліца Казлова,223710,52.7822089,27.5169391
46А,вуліца Канстанціна Заслонава,223710,52.7867649,27.5273158
2,вуліца Судзілоўскага,223700,52.7870894,27.5009645
59,вуліца Канстанціна Заслонава,223710,52.7842081,27.5157472
21,Чыгуначная вуліца,223710,52.7921314,27.5399849
21,вуліца Судзілоўскага,223703,52.7862835,27.4920616
2,Лясны праезд,223710,52.7692758,27.5318520
11,вуліца Леніна,223710,52.7878839,27.5424434
19,вуліца Ленінскага Камсамолу,223710,52.7891156,27.5450699
2,Набярэжная вуліца,223710,52.7862077,27.5540353
43,Казлова,223710,52.7822072,27.5343315
67,вуліца Канстанціна Заслонава,223710,52.7840916,27.5090804
65,вуліца Канстанціна Заслонава,223710,52.7825214,27.5084881
75,вуліца Канстанціна Заслонава,223710,52.7835102,27.5082684
12,праспект Міру,223710,52.7899285,27.5204136
4,Слуцкая вуліца,223710,52.7937877,27.5197914
32/1,Спартыўная вуліца,223710,52.7926983,27.5271034
38,вуліца Ленінскага Камсамолу,223710,52.7931291,27.5444153
5,Кастрычніцкая вуліца,223710,52.7955810,27.5346326
36,Кастрычніцкая вуліца,223710,52.7926581,27.5201047
34,Кастрычніцкая вуліца,223710,52.7928129,27.5211196
30,Кастрычніцкая вуліца,223710,52.7933114,27.5227573
24,Кастрычніцкая вуліца,223710,52.7941188,27.5253924
20,Кастрычніцкая вуліца,223710,52.7948818,27.5267834
18,Кастрычніцкая вуліца,223710,52.7949605,27.5281313
14,Кастрычніцкая вуліца,223710,52.7953803,27.5294187
6,Кастрычніцкая вуліца,223710,52.7971371,27.5319710
10,Кастрычніцкая вуліца,223710,52.7962235,27.5318221
2,праспект Міру,223710,52.7907631,27.5191993
43,Кастрычніцкая вуліца,223710,52.7902408,27.5171971
51,Кастрычніцкая вуліца,223710,52.7904857,27.5150201
61,Кастрычніцкая вуліца,223710,52.7901395,27.5139620
65,Кастрычніцкая вуліца,223710,52.7904655,27.5129270
1А,бульвар Шахцёраў,223710,52.7904694,27.5118676
69А,Кастрычніцкая вуліца,223710,52.7905568,27.5101754
85,Кастрычніцкая вуліца,223710,52.7905968,27.5063279
1,Маладзёжная вуліца,223710,52.7899274,27.5029688
28,Набярэжная вуліца,223710,52.7752058,27.5348617
27,Набярэжная вуліца,223710,52.7747727,27.5354856
25,Набярэжная вуліца,223710,52.7757433,27.5378324
25А,Набярэжная вуліца,223710,52.7760244,27.5396551
24А,Набярэжная вуліца,223710,52.7768067,27.5400113
23,Набярэжная вуліца,223710,52.7769859,27.5414328
24,Набярэжная вуліца,223710,52.7771078,27.5405849
22,Набярэжная вуліца,223710,52.7768811,27.5422952
21,Набярэжная вуліца,223710,52.7777048,27.5427409
40,вуліца Леніна,223710,52.7784412,27.5446814
26,Паркавая вуліца,223710,52.7785899,27.5435095
6,Паркавая вуліца,223710,52.7773955,27.5362781
8,Паркавая вуліца,223710,52.7779843,27.5369950
10,Паркавая вуліца,223710,52.7771819,27.5371851
26,Набярэжная вуліца,223710,52.7756893,27.5360669
12,Паркавая вуліца,223710,52.7769466,27.5381621
14,Паркавая вуліца,223710,52.7777691,27.5383624
20,Паркавая вуліца,223710,52.7791281,27.5417983
22,Паркавая вуліца,223710,52.7796581,27.5424322
24,Паркавая вуліца,223710,52.7788458,27.5426785
1,вуліца Каржа,223710,52.7779758,27.5340184
1,вуліца Каржа,223710,52.7801633,27.5344773
5,Паркавая вуліца,223710,52.7787164,27.5363250
3,вуліца Каржа,223710,52.7811093,27.5365586
1,Паркавы праезд,223710,52.7806786,27.5368845
5А,вуліца Каржа,223710,52.7810749,27.5385044
5,вуліца Каржа,223710,52.7816316,27.5384016
3,Паркавы праезд,223710,52.7801566,27.5376104
23,Паркавая вуліца,223710,52.7809807,27.5405827
5,вуліца Каржа,223710,52.7820185,27.5403671
36,вуліца Леніна,223710,52.7803849,27.5429594
9,Паркавая вуліца,223710,52.7791130,27.5380471
13,Паркавая вуліца,223710,52.7795282,27.5393976
35,вуліца Казлова,223710,52.7840840,27.5440812
31А,вуліца Казлова,223710,52.7847059,27.5442431
37,вуліца Казлова,223710,52.7837632,27.5451231
31,вуліца Казлова,223710,52.7849199,27.5449228
33,вуліца Казлова,223710,52.7845113,27.5456079
23А,вуліца Казлова,223710,52.7843287,27.5468025
23А,вуліца Казлова,223710,52.7844468,27.5471544
25Б,Набярэжная вуліца,223710,52.7758228,27.5389399
20,Набярэжная вуліца,223710,52.7772253,27.5438345
15,Паркавая вуліца,223710,52.7797973,27.5400074
19,Паркавая вуліца,223710,52.7802634,27.5413370
17,Паркавая вуліца,223710,52.7799184,27.5407121
21,Паркавая вуліца,223710,52.7803161,27.5420282
38,вуліца Леніна,223710,52.7818325,27.5413654
37,вуліца Казлова,223710,52.7839828,27.5458112
39,вуліца Леніна,223710,52.7820626,27.5441701
45,вуліца Леніна,223710,52.7811816,27.5447574
47,вуліца Леніна,223710,52.7807955,27.5453120
51,вуліца Леніна,223710,52.7803094,27.5455082
53,вуліца Леніна,223710,52.7799742,27.5459871
59,вуліца Леніна,223710,52.7797824,27.5485399
16,Набярэжная вуліца,223710,52.7807132,27.5487544
19,Набярэжная вуліца,223710,52.7811861,27.5476479
17,Набярэжная вуліца,223710,52.7808541,27.5483010
15,Набярэжная вуліца,223710,52.7824093,27.5493182
11,Набярэжная вуліца,223710,52.7831233,27.5493213
12,Набярэжная вуліца,223710,52.7828965,27.5500785
14,Набярэжная вуліца,223710,52.7821085,27.5505945
13,Набярэжная вуліца,223710,52.7829481,27.5511271
8,Набярэжная вуліца,223710,52.7840045,27.5521866
5,Набярэжная вуліца,223710,52.7851528,27.5510684
6,Набярэжная вуліца,223710,52.7849163,27.5517813
15,вуліца Казлова,223710,52.7860286,27.5509485
25,вуліца Казлова,223710,52.7852970,27.5485672
23,вуліца Казлова,223710,52.7850055,27.5471592
21,вуліца Казлова,223710,52.7856425,27.5477225
11,вуліца Казлова,223710,52.7863426,27.5500597
19,вуліца Казлова,223710,52.7860438,27.5486556
9,вуліца Казлова,223710,52.7867437,27.5509765
1,вуліца Казлова,223710,52.7874996,27.5532743
3,вуліца Казлова,223710,52.7870525,27.5522886
5,вуліца Казлова,223710,52.7864108,27.5517720
17,вуліца Казлова,223710,52.7855401,27.5503044
7,вуліца Казлова,223710,52.7863570,27.5526529
4,Набярэжная вуліца,223710,52.7849723,27.5527884
1,Набярэжная вуліца,223710,52.7868002,27.5536565
29,вуліца Казлова,223710,52.7844211,27.5489083
18,Набярэжная вуліца,223710,52.7817839,27.5484682
9,Набярэжная вуліца,223710,52.7837796,27.5502225
3,Набярэжная вуліца,223710,52.7856348,27.5523663
18,Паркавая вуліца,223710,52.7784576,27.5420685
7,Набярэжная вуліца,223710,52.7844158,27.5510477
79,вуліца Канстанціна Заслонава,223710,52.7826154,27.5059365
93,вуліца Канстанціна Заслонава,223710,52.7826319,27.5033644
81,вуліца Канстанціна Заслонава,223710,52.7838883,27.5066152
95,вуліца Канстанціна Заслонава,223710,52.7839273,27.5040320
73,вуліца Канстанціна Заслонава,223710,52.7832636,27.5076868
71,вуліца Канстанціна Заслонава,223710,52.7828209,27.5078685
89,вуліца Канстанціна Заслонава,223710,52.7835585,27.5057010
87,вуліца Канстанціна Заслонава,223710,52.7832923,27.5051401
85,вуліца Канстанціна Заслонава,223710,52.7828550,27.5052775
31,Маладзёжная вуліца,223710,52.7835791,27.5033796
29,Маладзёжная вуліца,223710,52.7832996,27.5027937
33,Маладзёжная вуліца,223710,52.7828803,27.5026563
25,Маладзёжная вуліца,223710,52.7848977,27.5036452
97,вуліца Канстанціна Заслонава,223710,52.7846540,27.5042695
21,вуліца Багамолава,223710,52.7855124,27.5043142
91,вуліца Канстанціна Заслонава,223710,52.7841508,27.5051245
21,Маладзёжная вуліца,223710,52.7851882,27.5027545
27,Маладзёжная вуліца,223710,52.7840572,27.5028587
77,вуліца Канстанціна Заслонава,223710,52.7841084,27.5077219
69,вуліца Канстанціна Заслонава,223710,52.7850273,27.5094055
28,бульвар Шахцёраў,223710,52.7858724,27.5096291
19,Маладзёжная вуліца,223710,52.7858623,27.5027289
17,Маладзёжная вуліца,223710,52.7860828,27.5028752
19,вуліца Багамолава,223710,52.7862272,27.5039746
15,вуліца Багамолава,223710,52.7863213,27.5094797
74,вуліца Казлова,223710,52.7819987,27.5173171
72,вуліца Казлова,223710,52.7819992,27.5200009
60,вуліца Канстанціна Заслонава,223710,52.7838088,27.5211381
58,вуліца Канстанціна Заслонава,223710,52.7842329,27.5197616
70,вуліца Казлова,223710,52.7819273,27.5219476
69,вуліца Казлова,223710,52.7826042,27.5223576
68,вуліца Казлова,223710,52.7820059,27.5231063
66,вуліца Казлова,223710,52.7823721,27.5242177
64,вуліца Казлова,223710,52.7828943,27.5248464
40,праспект Міру,223710,52.7834339,27.5258634
36,праспект Міру,223710,52.7839971,27.5240304
56,вуліца Канстанціна Заслонава,223710,52.7847136,27.5214853
32,праспект Міру,223710,52.7853679,27.5239056
26,вуліца Казлова,223710,52.7840223,27.5394388
26,вуліца Леніна,223710,52.7849022,27.5384353
24,вуліца Леніна,223710,52.7852263,27.5389967
28,вуліца Леніна,223710,52.7846053,27.5397382
34,вуліца Казлова,223710,52.7843729,27.5362361
36,вуліца Казлова,223710,52.7841911,27.5355485
38,вуліца Казлова,223710,52.7845524,27.5344492
22,вуліца Леніна,223710,52.7858171,27.5380010
22А,вуліца Леніна,223710,52.7853658,27.5367037
14,вуліца Леніна,223710,52.7868881,27.5375942
2,вуліца Леніна,223710,52.7886022,27.5361329
16,вуліца Леніна,223710,52.7865901,27.5370176
4,вуліца Леніна,223710,52.7882789,27.5355905
6,вуліца Леніна,223710,52.7878544,27.5351886
10А,вуліца Леніна,223710,52.7869415,27.5353711
10,вуліца Леніна,223710,52.7875380,27.5365988
40,вуліца Канстанціна Заслонава,223710,52.7860369,27.5308868
12,вуліца Леніна,223710,52.7861403,27.5337240
46,вуліца Казлова,223710,52.7843301,27.5327161
48,вуліца Казлова,223710,52.7841280,27.5320193
52,вуліца Казлова,223710,52.7837448,27.5309171
50,вуліца Казлова,223710,52.7844763,27.5309716
60,вуліца Казлова,223710,52.7840836,27.5285463
58,вуліца Казлова,223710,52.7842850,27.5292397
62,вуліца Казлова,223710,52.7844609,27.5276349
19,праспект Міру,223710,52.7857369,27.5254629
56,вуліца Казлова,223710,52.7834655,27.5296826
56А,вуліца Казлова,223710,52.7833712,27.5288233
56Б,вуліца Казлова,223710,52.7833900,27.5283061
44Б,вуліца Казлова,223710,52.7834494,27.5317497
44А,вуліца Казлова,223710,52.7834434,27.5323225
44,вуліца Казлова,223710,52.7834954,27.5331226
32Б,вуліца Казлова,223710,52.7835074,27.5352848
32А,вуліца Казлова,223710,52.7835039,27.5358416
32,вуліца Казлова,223710,52.7835778,27.5366702
58А,вуліца Казлова,223710,52.7849588,27.5284101
52,вуліца Канстанціна Заслонава,223710,52.7859043,27.5276358
50,вуліца Канстанціна Заслонава,223710,52.7862348,27.5265084
48,вуліца Канстанціна Заслонава,223710,52.7864554,27.5271507
46,вуліца Канстанціна Заслонава,223710,52.7866970,27.5278032
44,вуліца Канстанціна Заслонава,223710,52.7872236,27.5294029
38,вуліца Канстанціна Заслонава,223710,52.7875792,27.5307248
34,вуліца Канстанціна Заслонава,223710,52.7880430,27.5320569
36,вуліца Канстанціна Заслонава,223710,52.7877619,27.5314012
30,вуліца Канстанціна Заслонава,223710,52.7885446,27.5336297
8,вуліца Леніна,223710,52.7879490,27.5340269
30А,вуліца Казлова,223710,52.7848829,27.5373945
38А,вуліца Казлова,223710,52.7850040,27.5339448
42,вуліца Канстанціна Заслонава,223710,52.7866180,27.5295890
50А,вуліца Казлова,223710,52.7849277,27.5304201
54,вуліца Канстанціна Заслонава,223710,52.7862673,27.5255419
48А,вуліца Канстанціна Заслонава,223710,52.7865986,27.5265844
46А,вуліца Канстанціна Заслонава,223710,52.7867583,27.5272953
54,вуліца Казлова,223710,52.7833516,27.5309258
42,вуліца Казлова,223710,52.7833888,27.5344098
40,вуліца Казлова,223710,52.7837822,27.5344083
46А,вуліца Казлова,223710,52.7850449,27.5319513
32,вуліца Канстанціна Заслонава,223710,52.7872390,27.5319602
28,вуліца Канстанціна Заслонава,223710,52.7892468,27.5350992
18,вуліца Леніна,223710,52.7879702,27.5367418
20,вуліца Леніна,223710,52.7862705,27.5382934
1,вуліца Леніна,223710,52.7895726,27.5367272
3,вуліца Леніна,223710,52.7893205,27.5381217
9,вуліца Леніна,223710,52.7888673,27.5374854
24,вуліца Канстанціна Заслонава,223710,52.7902565,27.5384538
26,вуліца Канстанціна Заслонава,223710,52.7900163,27.5374396
22,вуліца Канстанціна Заслонава,223710,52.7901748,27.5394992
21,вуліца Леніна,223710,52.7870819,27.5414930
15,вуліца Ленінскага Камсамолу,223710,52.7880138,27.5441770
15А,вуліца Леніна,223710,52.7885064,27.5400591
31,вуліца Леніна,223710,52.7858370,27.5412246
29,вуліца Леніна,223710,52.7861739,27.5422910
23,вуліца Леніна,223710,52.7865963,27.5401723
19,вуліца Леніна,223710,52.7874488,27.5396132
33,вуліца Леніна,223710,52.7851642,27.5406368
25,вуліца Леніна,223710,52.7858327,27.5399193
17,вуліца Леніна,223710,52.7870236,27.5390560
15,вуліца Леніна,223710,52.7876935,27.5383100
24,вуліца Казлова,223710,52.7848673,27.5422910
22,вуліца Казлова,223710,52.7856523,27.5429021
18,вуліца Казлова,223710,52.7856254,27.5442372
20,вуліца Казлова,223710,52.7859939,27.5439141
13,вуліца Леніна,223710,52.7884261,27.5385984
25,вуліца Ленінскага Камсамолу,223710,52.7894288,27.5429277
23,вуліца Ленінскага Камсамолу,223710,52.7897429,27.5441278
16,вуліца Канстанціна Заслонава,223710,52.7912757,27.5416161
35,вуліца Ленінскага Камсамолу,223710,52.7909734,27.5428546
29,вуліца Ленінскага Камсамолу,223710,52.7908250,27.5438086
37,вуліца Ленінскага Камсамолу,223710,52.7915149,27.5436416
27,вуліца Ленінскага Камсамолу,223710,52.7903217,27.5446333
7,вуліца Ленінскага Камсамолу,223710,52.7868554,27.5445947
5,вуліца Ленінскага Камсамолу,223710,52.7871865,27.5457035
3,вуліца Ленінскага Камсамолу,223710,52.7874899,27.5466451
16,вуліца Казлова,223710,52.7862550,27.5447802
9,вуліца Ленінскага Камсамолу,223710,52.7874365,27.5448340
1А,вуліца Ленінскага Камсамолу,223710,52.7868500,27.5465858
1,вуліца Ленінскага Камсамолу,223710,52.7869673,27.5474553
12А,вуліца Казлова,223710,52.7859045,27.5456376
13,вуліца Ленінскага Камсамолу,223710,52.7882901,27.5454025
19,вуліца Ленінскага Камсамолу,223710,52.7891150,27.5451025
21,вуліца Ленінскага Камсамолу,223710,52.7897479,27.5450970
11,вуліца Ленінскага Камсамолу,223710,52.7881828,27.5464511
20,вуліца Канстанціна Заслонава,223710,52.7907079,27.5400858
20А,вуліца Канстанціна Заслонава,223710,52.7903735,27.5406285
18,вуліца Канстанціна Заслонава,223710,52.7907174,27.5411946
14,вуліца Канстанціна Заслонава,223710,52.7916348,27.5426518
17,вуліца Ленінскага Камсамолу,223710,52.7887559,27.5459695
5,вуліца Леніна,223710,52.7892715,27.5391219
7,вуліца Леніна,223710,52.7894909,27.5398346
33,вуліца Ленінскага Камсамолу,223710,52.7901919,27.5420082
31,вуліца Ленінскага Камсамолу,223710,52.7904102,27.5427132
99,Кастрычніцкая вуліца,223710,52.7894164,27.5039390
97,Кастрычніцкая вуліца,223710,52.7898347,27.5040890
7,Маладзёжная вуліца,223710,52.7873350,27.5029608
24,вуліца Багамолава,223710,52.7871138,27.5040185
11,Маладзёжная вуліца,223710,52.7878046,27.5037814
15,Маладзёжная вуліца,223710,52.7878513,27.5049889
16,бульвар Шахцёраў,223710,52.7886534,27.5054748
14,бульвар Шахцёраў,223710,52.7890952,27.5057927
18,бульвар Шахцёраў,223710,52.7882156,27.5058214
87,Кастрычніцкая вуліца,223710,52.7898681,27.5068998
75,Кастрычніцкая вуліца,223710,52.7905717,27.5080851
71,Кастрычніцкая вуліца,223710,52.7903793,27.5096591
73,Кастрычніцкая вуліца,223710,52.7904499,27.5093141
77,Кастрычніцкая вуліца,223710,52.7894070,27.5078869
77,Кастрычніцкая вуліца,223710,52.7898301,27.5080737
4,бульвар Шахцёраў,223710,52.7894182,27.5088590
2,бульвар Шахцёраў,223710,52.7897512,27.5100845
6,бульвар Шахцёраў,223710,52.7892207,27.5101377
8,бульвар Шахцёраў,223710,52.7886723,27.5101310
10,бульвар Шахцёраў,223710,52.7882198,27.5102413
12,бульвар Шахцёраў,223710,52.7884937,27.5079276
22А,вуліца Багамолава,223710,52.7875310,27.5066559
24,бульвар Шахцёраў,223710,52.7871832,27.5093454
26,бульвар Шахцёраў,223710,52.7871416,27.5100118
55,Кастрычніцкая вуліца,223710,52.7898114,27.5147894
57,Кастрычніцкая вуліца,223710,52.7890271,27.5146609
53,Кастрычніцкая вуліца,223710,52.7895043,27.5152458
47,Кастрычніцкая вуліца,223710,52.7889840,27.5161836
20,вуліца Багамолава,223710,52.7872039,27.5129666
18,вуліца Багамолава,223710,52.7874572,27.5150723
22,вуліца Багамолава,223710,52.7872355,27.5119236
3,бульвар Шахцёраў,223710,52.7876514,27.5117322
16,вуліца Багамолава,223710,52.7869665,27.5143746
16А,вуліца Багамолава,223710,52.7869746,27.5153765
14,вуліца Багамолава,223710,52.7879358,27.5156443
18А,праспект Міру,223710,52.7886571,27.5191869
4,вуліца Багамолава,223710,52.7873902,27.5202677
10,вуліца Багамолава,223710,52.7879427,27.5166490
12,вуліца Багамолава,223710,52.7869226,27.5169142
16А,праспект Міру,223710,52.7891097,27.5197628
24А,праспект Міру,223710,52.7877927,27.5208413
12А,праспект Міру,223710,52.7896509,27.5185437
10,праспект Міру,223710,52.7904080,27.5199163
12,праспект Міру,223710,52.7901611,27.5202626
20А,праспект Міру,223710,52.7883413,27.5194865
2,вуліца Багамолава,223710,52.7870769,27.5203731
16,праспект Міру,223710,52.7893738,27.5205687
18,праспект Міру,223710,52.7891415,27.5209645
20,праспект Міру,223710,52.7888928,27.5213424
24,праспект Міру,223710,52.7880477,27.5216175
26,праспект Міру,223710,52.7878215,27.5220391
45,Кастрычніцкая вуліца,223710,52.7900165,27.5165650
14А,праспект Міру,223710,52.7889550,27.5181141
30А,праспект Міру,223710,52.7876772,27.5191830
5А,Маладзёжная вуліца,223710,52.7888056,27.5028822
3,Маладзёжная вуліца,223710,52.7891505,27.5033775
7,Маладзёжная вуліца,223710,52.7879650,27.5027581
13,Маладзёжная вуліца,223710,52.7878975,27.5044890
81,Кастрычніцкая вуліца,223710,52.7891382,27.5073127
1,бульвар Шахцёраў,223710,52.7900546,27.5119011
49,Кастрычніцкая вуліца,223710,52.7885473,27.5167031
6,вуліца Багамолава,223710,52.7869566,27.5175877
28,праспект Міру,223710,52.7875801,27.5224131
5,Маладзёжная вуліца,223710,52.7884944,27.5028302
20,бульвар Шахцёраў,223710,52.7877329,27.5089701
22,бульвар Шахцёраў,223710,52.7876402,27.5100726
53А,Кастрычніцкая вуліца,223710,52.7894452,27.5139912
23,Маладзёжная вуліца,223710,52.7845700,27.5028301
83,вуліца Канстанціна Заслонава,223710,52.7847256,27.5068484
7,праспект Міру,223710,52.7908798,27.5213387
13,праспект Міру,223710,52.7894393,27.5223861
41,Кастрычніцкая вуліца,223710,52.7917444,27.5226306
1А,праспект Міру,223710,52.7910684,27.5225234
3А,праспект Міру,223710,52.7912878,27.5235086
5А,праспект Міру,223710,52.7917141,27.5239855
9,праспект Міру,223710,52.7905052,27.5231072
1,вуліца Наруцкага,223710,52.7921954,27.5250852
13А,праспект Міру,223710,52.7892896,27.5239798
15А,праспект Міру,223710,52.7887066,27.5243647
11А,праспект Міру,223710,52.7896137,27.5232507
52,Чыгуначная вуліца,223710,52.7882696,27.5251783
50,Чыгуначная вуліца,223710,52.7887969,27.5259101
48,Чыгуначная вуліца,223710,52.7891082,27.5269601
39,Кастрычніцкая вуліца,223710,52.7920282,27.5231769
37,Кастрычніцкая вуліца,223710,52.7923969,27.5240458
5,вуліца Наруцкага,223710,52.7910349,27.5248329
17,праспект Міру,223710,52.7880677,27.5237362
15,праспект Міру,223710,52.7884310,27.5233495
3,вуліца Наруцкага,223710,52.7916795,27.5250900
28,Кастрычніцкая вуліца,223710,52.7937246,27.5235980
11,праспект Міру,223710,52.7904830,27.5215691
35,Кастрычніцкая вуліца,223710,52.7927952,27.5258836
33,Кастрычніцкая вуліца,223710,52.7930144,27.5263005
31,Кастрычніцкая вуліца,223710,52.7933189,27.5270173
2,вуліца Наруцкага,223710,52.7920763,27.5259393
68,вуліца Будаўнікоў,223710,52.7910265,27.5267375
66,вуліца Будаўнікоў,223710,52.7911129,27.5270291
64,вуліца Будаўнікоў,223710,52.7912064,27.5273245
30,Працоўная вуліца,223710,52.7914459,27.5270860
28,Працоўная вуліца,223710,52.7915988,27.5269622
26,Працоўная вуліца,223710,52.7918711,27.5270702
24,Працоўная вуліца,223710,52.7919794,27.5274073
22,Працоўная вуліца,223710,52.7920750,27.5277075
20,Працоўная вуліца,223710,52.7921562,27.5279709
25,Спартыўная вуліца,223710,52.7924469,27.5276548
27,Спартыўная вуліца,223710,52.7923656,27.5273914
29,Спартыўная вуліца,223710,52.7922717,27.5270991
31,Спартыўная вуліца,223710,52.7921905,27.5268358
23,Спартыўная вуліца,223710,52.7925554,27.5280166
21,Спартыўная вуліца,223710,52.7926350,27.5282701
19,Спартыўная вуліца,223710,52.7927226,27.5285565
17,Спартыўная вуліца,223710,52.7927943,27.5287903
15,Спартыўная вуліца,223710,52.7928679,27.5290411
13,Спартыўная вуліца,223710,52.7929762,27.5293624
11,Спартыўная вуліца,223710,52.7930511,27.5296100
16,Працоўная вуліца,223710,52.7923328,27.5285108
18,Працоўная вуліца,223710,52.7922516,27.5282599
14,Працоўная вуліца,223710,52.7924132,27.5287666
12,Працоўная вуліца,223710,52.7924912,27.5290168
10,Працоўная вуліца,223710,52.7926429,27.5293016
8,Працоўная вуліца,223710,52.7925920,27.5295465
4,Працоўная вуліца,223710,52.7922556,27.5296452
2,Працоўная вуліца,223710,52.7921271,27.5297545
46,вуліца Будаўнікоў,223710,52.7919948,27.5298652
44,вуліца Будаўнікоў,223710,52.7920776,27.5301391
42,вуліца Будаўнікоў,223710,52.7921700,27.5304367
3,Спартыўная вуліца,223710,52.7923850,27.5302365
5,Спартыўная вуліца,223710,52.7925395,27.5301075
9,Спартыўная вуліца,223710,52.7928866,27.5298151
7,Спартыўная вуліца,223710,52.7927449,27.5299363
17,Працоўная вуліца,223710,52.7916892,27.5274160
15,Працоўная вуліца,223710,52.7917543,27.5276208
13,Працоўная вуліца,223710,52.7918404,27.5279079
11,Працоўная вуліца,223710,52.7919072,27.5281159
9,Працоўная вуліца,223710,52.7920044,27.5284214
7,Працоўная вуліца,223710,52.7920745,27.5286269
5,Працоўная вуліца,223710,52.7921668,27.5289350
3,Працоўная вуліца,223710,52.7922305,27.5291352
48,вуліца Будаўнікоў,223710,52.7918737,27.5294338
58,вуліца Будаўнікоў,223710,52.7914834,27.5282065
54,вуліца Будаўнікоў,223710,52.7916475,27.5287200
52,вуліца Будаўнікоў,223710,52.7917175,27.5289255
50,вуліца Будаўнікоў,223710,52.7918099,27.5292336
62,вуліца Будаўнікоў,223710,52.7913324,27.5277146
60,вуліца Будаўнікоў,223710,52.7913975,27.5279194
56,вуліца Будаўнікоў,223710,52.7915503,27.5284145
67,вуліца Будаўнікоў,223710,52.7906996,27.5270152
65,вуліца Будаўнікоў,223710,52.7907951,27.5273050
63,вуліца Будаўнікоў,223710,52.7908887,27.5275980
18,вуліца Наруцкага,223710,52.7905463,27.5271371
16,вуліца Наруцкага,223710,52.7903552,27.5272950
14,вуліца Наруцкага,223710,52.7901979,27.5274235
12,вуліца Наруцкага,223710,52.7900107,27.5275814
10,вуліца Наруцкага,223710,52.7898037,27.5277576
8,Шахцёрская вуліца,223710,52.7903925,27.5280045
4,Шахцёрская вуліца,223710,52.7907270,27.5277313
6,Шахцёрская вуліца,223710,52.7905358,27.5278893
10,Шахцёрская вуліца,223710,52.7902113,27.5281526
8,вуліца Наруцкага,223710,52.7896600,27.5278839
6,вуліца Наруцкага,223710,52.7895843,27.5280971
4,вуліца Наруцкага,223710,52.7894692,27.5281971
94,Чыгуначная вуліца,223710,52.7892615,27.5284073
14,Шахцёрская вуліца,223710,52.7898372,27.5284506
12,Шахцёрская вуліца,223710,52.7899869,27.5283309
16,Шахцёрская вуліца,223710,52.7896275,27.5285262
18,Шахцёрская вуліца,223710,52.7895756,27.5287929
92,Чыгуначная вуліца,223710,52.7893525,27.5287286
90,Чыгуначная вуліца,223710,52.7894206,27.5289527
88,Чыгуначная вуліца,223710,52.7895175,27.5292407
86,Чыгуначная вуліца,223710,52.7895767,27.5294454
84,Чыгуначная вуліца,223710,52.7897260,27.5296690
82,Чыгуначная вуліца,223710,52.7897473,27.5299444
80,Чыгуначная вуліца,223710,52.7898302,27.5302637
78,Чыгуначная вуліца,223710,52.7898971,27.5305068
76,Чыгуначная вуліца,223710,52.7900507,27.5309349
51,вуліца Будаўнікоў,223710,52.7912893,27.5304811
3,Шахцёрская вуліца,223710,52.7907300,27.5282624
5,Шахцёрская вуліца,223710,52.7905739,27.5283571
7,Шахцёрская вуліца,223710,52.7904310,27.5285015
9,Шахцёрская вуліца,223710,52.7903343,27.5286405
11,Шахцёрская вуліца,223710,52.7901977,27.5287466
13,Шахцёрская вуліца,223710,52.7901122,27.5288040
4,Піянерская вуліца,223710,52.7906962,27.5289262
3,Піянерская вуліца,223710,52.7908810,27.5288131
6,Піянерская вуліца,223710,52.7904282,27.5292504
5,Піянерская вуліца,223710,52.7904799,27.5289838
7,Піянерская вуліца,223710,52.7906210,27.5293824
9,Піянерская вуліца,223710,52.7907834,27.5298960
8,Піянерская вуліца,223710,52.7906910,27.5295878
10,Піянерская вуліца,223710,52.7908471,27.5300961
15,Шахцёрская вуліца,223710,52.7901481,27.5290041
17,Шахцёрская вуліца,223710,52.7902792,27.5293534
19,Шахцёрская вуліца,223710,52.7903868,27.5296424
21,Шахцёрская вуліца,223710,52.7904745,27.5298839
23,Шахцёрская вуліца,223710,52.7905688,27.5302067
25,Шахцёрская вуліца,223710,52.7906190,27.5304381
49,вуліца Будаўнікоў,223710,52.7911242,27.5297750
45,вуліца Будаўнікоў,223710,52.7913844,27.5292059
32,Спартыўная вуліца,223710,52.7929156,27.5277649
27,Кастрычніцкая вуліца,223710,52.7931828,27.5285620
23,Кастрычніцкая вуліца,223710,52.7939760,27.5294072
25,Кастрычніцкая вуліца,223710,52.7937568,27.5289904
21,Кастрычніцкая вуліца,223710,52.7942308,27.5299732
6,Спартыўная вуліца,223710,52.7934390,27.5307723
4,вуліца Наруцкага,223710,52.7914732,27.5264113
4,Спартыўная вуліца,223710,52.7932271,27.5314163
2,Спартыўная вуліца,223710,52.7929366,27.5303734
42,вуліца Будаўнікоў,223710,52.7926944,27.5316093
41,вуліца Будаўнікоў,223710,52.7918938,27.5310419
47,вуліца Будаўнікоў,223710,52.7914409,27.5314161
32,Чыгуначная вуліца,223710,52.7904386,27.5318507
30,Чыгуначная вуліца,223710,52.7912629,27.5330116
2Б,вуліца Леніна,223710,52.7928854,27.5327665
2А,вуліца Леніна,223710,52.7937642,27.5318753
40,Чыгуначная вуліца,223710,52.7903270,27.5312384
17,Кастрычніцкая вуліца,223710,52.7943032,27.5309467
37,вуліца Будаўнікоў,223710,52.7923430,27.5320943
36,Чыгуначная вуліца,223710,52.7918607,27.5319936
34,Чыгуначная вуліца,223710,52.7913282,27.5325166
43,вуліца Будаўнікоў,223710,52.7917017,27.5304266
20,Шахцёрская вуліца,223710,52.7897511,27.5290064
22,Шахцёрская вуліца,223710,52.7898289,27.5292585
24,Шахцёрская вуліца,223710,52.7899221,27.5295774
26,Шахцёрская вуліца,223710,52.7899999,27.5298295
28,Шахцёрская вуліца,223710,52.7900901,27.5301072
30,Шахцёрская вуліца,223710,52.7901617,27.5303542
32,Шахцёрская вуліца,223710,52.7903745,27.5306331
32А,Шахцёрская вуліца,223710,52.7902282,27.5307356
26,Кастрычніцкая вуліца,223710,52.7940449,27.5245066
12,Кастрычніцкая вуліца,223710,52.7958277,27.5299302
11,Кастрычніцкая вуліца,223710,52.7948972,27.5328289
1А,вуліца Леніна,223710,52.7941218,27.5331226
1Б,вуліца Леніна,223710,52.7931653,27.5337939
28,Чыгуначная вуліца,223710,52.7922205,27.5350893
35,вуліца Будаўнікоў,223710,52.7931180,27.5350471
9,Кастрычніцкая вуліца,223710,52.7945874,27.5338801
38,вуліца Будаўнікоў,223710,52.7940517,27.5344385
40,вуліца Будаўнікоў,223710,52.7935545,27.5342790
34,вуліца Будаўнікоў,223710,52.7937819,27.5354087
32,вуліца Будаўнікоў,223710,52.7941292,27.5351597
32А,вуліца Будаўнікоў,223710,52.7939356,27.5360424
30А,вуліца Будаўнікоў,223710,52.7945633,27.5371095
30,вуліца Будаўнікоў,223710,52.7942848,27.5370839
25,вуліца Будаўнікоў,223710,52.7938856,27.5375906
23,вуліца Будаўнікоў,223710,52.7935393,27.5380670
24,Чыгуначная вуліца,223710,52.7925169,27.5366579
24,Чыгуначная вуліца,223710,52.7923185,27.5380711
24,Чыгуначная вуліца,223710,52.7922003,27.5370675
24,Чыгуначная вуліца,223710,52.7920556,27.5373457
22,Чыгуначная вуліца,223710,52.7926927,27.5390134
20,Чыгуначная вуліца,223710,52.7928229,27.5394929
1,вуліца Гуляева,223710,52.7937147,27.5388205
24,вуліца Будаўнікоў,223702,52.7946477,27.5379707
5,вуліца Гуляева,223710,52.7956588,27.5374554
1,Кастрычніцкая вуліца,223710,52.7959318,27.5366421
3,вуліца Гуляева,223710,52.7952713,27.5377827
26,вуліца Будаўнікоў,223710,52.7951566,27.5371398
26,Чыгуначная вуліца,223710,52.7918168,27.5361904
49А,вуліца Ленінскага Камсамолу,223710,52.7967615,27.5380817
49,вуліца Ленінскага Камсамолу,223710,52.7968219,27.5388965
47,вуліца Ленінскага Камсамолу,223710,52.7963644,27.5394376
41,вуліца Ленінскага Камсамолу,223710,52.7952590,27.5394767
45,вуліца Ленінскага Камсамолу,223710,52.7958809,27.5397385
2,вуліца Гуляева,223710,52.7936853,27.5396918
2,Паўночная вуліца,223710,52.7975894,27.5407454
64,вуліца Ленінскага Камсамолу,223710,52.7974763,27.5403578
62,вуліца Ленінскага Камсамолу,223710,52.7973204,27.5401125
60,вуліца Ленінскага Камсамолу,223710,52.7971412,27.5399653
56,вуліца Ленінскага Камсамолу,223710,52.7966464,27.5401163
54,вуліца Ленінскага Камсамолу,223710,52.7964662,27.5402605
52,вуліца Ленінскага Камсамолу,223710,52.7962302,27.5404556
50,вуліца Ленінскага Камсамолу,223710,52.7959898,27.5406626
48,вуліца Ленінскага Камсамолу,223710,52.7958225,27.5408174
46,вуліца Ленінскага Камсамолу,223710,52.7955694,27.5410151
58,вуліца Ленінскага Камсамолу,223710,52.7968771,27.5399907
4,Паўночная вуліца,223710,52.7977686,27.5412520
8,Паўночная вуліца,223710,52.7976360,27.5420967
10,Паўночная вуліца,223710,52.7979759,27.5430036
12,Паўночная вуліца,223710,52.7984710,27.5436644
17,Камунальная вуліца,223710,52.7982710,27.5441966
15,Камунальная вуліца,223710,52.7979271,27.5445565
7А,Камунальная вуліца,223710,52.7975502,27.5448827
11,Камунальная вуліца,223710,52.7971882,27.5451743
6А,вуліца Будаўнікоў,223710,52.7974191,27.5437090
8А,вуліца Будаўнікоў,223710,52.7970564,27.5440032
12А,вуліца Будаўнікоў,223710,52.7967508,27.5413117
10А,вуліца Будаўнікоў,223710,52.7962745,27.5417077
10,вуліца Будаўнікоў,223710,52.7962168,27.5427461
16,вуліца Будаўнікоў,223710,52.7956189,27.5414277
14,вуліца Будаўнікоў,223710,52.7957136,27.5417358
12,вуліца Будаўнікоў,223710,52.7958819,27.5420229
4,вуліца Будаўнікоў,223710,52.7968049,27.5451840
10Б,вуліца Леніна,223710,52.7864938,27.5357607
3А,вуліца Леніна,223710,52.7889371,27.5385401
19А,вуліца Леніна,223710,52.7877646,27.5402993
18А,вуліца Канстанціна Заслонава,223710,52.7899353,27.5413706
2,Набярэжная вуліца,223710,52.7861671,27.5538103
27,вуліца Казлова,223710,52.7848119,27.5479669
13,вуліца Казлова,223710,52.7857192,27.5494420
2,Набярэжная вуліца,223710,52.7859119,27.5537676
74,вуліца Ленінскага Камсамолу,223710,52.7987682,27.5405534
76,вуліца Ленінскага Камсамолу,223710,52.7997588,27.5407947
23,Паўночная вуліца,223710,52.8003082,27.5442379
82,вуліца Ленінскага Камсамолу,223710,52.8006679,27.5429681
13,Паўночная вуліца,223710,52.7998112,27.5430607
5Б,Паўночная вуліца,223710,52.8002771,27.5427469
27,Паўночная вуліца,223710,52.7998981,27.5447814
21,Паўночная вуліца,223710,52.8003308,27.5450525
25,Паўночная вуліца,223710,52.7997475,27.5455177
27А,Паўночная вуліца,223710,52.7995627,27.5445519
15,Паўночная вуліца,223710,52.7990310,27.5432444
17,Паўночная вуліца,223710,52.7993392,27.5438327
7,Паўночная вуліца,223710,52.7987493,27.5419046
1,Паўночная вуліца,223710,52.7984638,27.5413792
3,Паўночная вуліца,223710,52.7990806,27.5411221
3А,Паўночная вуліца,223710,52.7993173,27.5416450
29,Паўночная вуліца,223710,52.7999739,27.5463975
5А,Паўночная вуліца,223710,52.7998180,27.5414597
5,Паўночная вуліца,223710,52.8000622,27.5420071
80,вуліца Ленінскага Камсамолу,223710,52.8005316,27.5422196
78,вуліца Ленінскага Камсамолу,223710,52.8003549,27.5414925
84,вуліца Ленінскага Камсамолу,223710,52.8007342,27.5441319
86,вуліца Ленінскага Камсамолу,223710,52.8007954,27.5450180
31,Паўночная вуліца,223710,52.8002789,27.5457618
9,Паўночная вуліца,223710,52.7989973,27.5424807
36,вуліца Ленінскага Камсамолу,223710,52.7917305,27.5442945
2,вуліца Канстанціна Заслонава,223710,52.7928630,27.5466794
34,вуліца Ленінскага Камсамолу,223710,52.7917506,27.5465990
21Б,вуліца Максіма Горкага,223710,52.7919750,27.5474488
28А,вуліца Ленінскага Камсамолу,223710,52.7908785,27.5472557
17А,вуліца Ленінскага Камсамолу,223710,52.7910938,27.5481147
15,вуліца Максіма Горкага,223710,52.7911094,27.5495046
13,вуліца Максіма Горкага,223710,52.7902638,27.5485901
14А,вуліца Ленінскага Камсамолу,223710,52.7892367,27.5486280
11,вуліца Максіма Горкага,223710,52.7901361,27.5503250
5,вуліца Максіма Горкага,223710,52.7894819,27.5508379
7,вуліца Максіма Горкага,223710,52.7899316,27.5511642
24,вуліца Ленінскага Камсамолу,223710,52.7901424,27.5461690
1А,вуліца Максіма Горкага,223710,52.7882368,27.5515465
2,вуліца Казлова,223710,52.7879604,27.5523367
10,вуліца Казлова,223710,52.7868833,27.5488827
8,вуліца Казлова,223710,52.7871894,27.5498601
6,вуліца Казлова,223710,52.7876945,27.5503748
4,вуліца Казлова,223710,52.7876605,27.5513332
1,вуліца Максіма Горкага,223710,52.7885229,27.5523766
30,вуліца Максіма Горкага,223710,52.7920535,27.5502813
28,вуліца Максіма Горкага,223710,52.7918056,27.5505786
26,вуліца Максіма Горкага,223710,52.7915461,27.5507784
24,вуліца Максіма Горкага,223710,52.7912753,27.5508868
22,вуліца Максіма Горкага,223710,52.7910947,27.5510528
20,вуліца Максіма Горкага,223710,52.7908710,27.5512416
18,вуліца Максіма Горкага,223710,52.7906414,27.5514408
16,вуліца Максіма Горкага,223710,52.7904360,27.5517436
14,вуліца Максіма Горкага,223710,52.7901985,27.5519366
12,вуліца Максіма Горкага,223710,52.7899275,27.5520130
10,вуліца Максіма Горкага,223710,52.7897145,27.5522151
8,вуліца Максіма Горкага,223710,52.7894812,27.5524266
6,вуліца Максіма Горкага,223710,52.7892837,27.5525678
4,вуліца Максіма Горкага,223710,52.7890390,27.5527644
2,вуліца Максіма Горкага,223710,52.7888276,27.5529849
32,вуліца Максіма Горкага,223710,52.7933549,27.5495630
10,вуліца Канстанціна Заслонава,223710,52.7920837,27.5454199
8,вуліца Канстанціна Заслонава,223710,52.7923808,27.5462836
6,вуліца Канстанціна Заслонава,223710,52.7925647,27.5468231
4,вуліца Канстанціна Заслонава,223710,52.7927690,27.5477176
30,вуліца Ленінскага Камсамолу,223710,52.7910763,27.5448258
32,вуліца Ленінскага Камсамолу,223710,52.7914314,27.5459688
21А,вуліца Максіма Горкага,223710,52.7921386,27.5482910
21,вуліца Максіма Горкага,223710,52.7923897,27.5491650
26,вуліца Ленінскага Камсамолу,223710,52.7904141,27.5453836
28,вуліца Ленінскага Камсамолу,223710,52.7906794,27.5462319
19,вуліца Максіма Горкага,223710,52.7917233,27.5489366
17,вуліца Максіма Горкага,223710,52.7916686,27.5497943
9,вуліца Максіма Горкага,223710,52.7895412,27.5495770
16,вуліца Ленінскага Камсамолу,223710,52.7890304,27.5470501
12,вуліца Ленінскага Камсамолу,223710,52.7884547,27.5470396
22,вуліца Ленінскага Камсамолу,223710,52.7896232,27.5460467
18,вуліца Ленінскага Камсамолу,223710,52.7892651,27.5463534
14,вуліца Ленінскага Камсамолу,223710,52.7887579,27.5478897
6,вуліца Ленінскага Камсамолу,223710,52.7878284,27.5475683
2,вуліца Ленінскага Камсамолу,223710,52.7871909,27.5481052
4,вуліца Ленінскага Камсамолу,223710,52.7874261,27.5489154
8,вуліца Ленінскага Камсамолу,223710,52.7881870,27.5486373
10,вуліца Ленінскага Камсамолу,223710,52.7883740,27.5491672
3Б,вуліца Максіма Горкага,223710,52.7886635,27.5502384
3А,вуліца Максіма Горкага,223710,52.7888276,27.5507799
3,вуліца Максіма Горкага,223710,52.7892294,27.5517785
23,вуліца Максіма Горкага,223710,52.7930161,27.5485475
15,Кастрычніцкая вуліца,223710,52.7942231,27.5313395
53,вуліца Канстанціна Заслонава,223710,52.7858492,27.5203090
59,вуліца Канстанціна Заслонава,223710,52.7841026,27.5153986
57,вуліца Канстанціна Заслонава,223710,52.7846969,27.5172142
61,вуліца Канстанціна Заслонава,223710,52.7837484,27.5140268
61,вуліца Канстанціна Заслонава,223710,52.7836261,27.5136643
63,вуліца Канстанціна Заслонава,223710,52.7839615,27.5119813
55,вуліца Канстанціна Заслонава,223710,52.7851525,27.5188140
5,вуліца Багамолава,223710,52.7858906,27.5178414
7,вуліца Багамолава,223710,52.7861906,27.5152988
11,вуліца Багамолава,223710,52.7856592,27.5131899
13,вуліца Багамолава,223710,52.7862092,27.5122715
9,вуліца Багамолава,223710,52.7850583,27.5138721
5,бульвар Шахцёраў,223710,52.7858964,27.5111611
11А,вуліца Багамолава,223710,52.7854504,27.5121847
13А,вуліца Багамолава,223710,52.7861704,27.5137308
57Б,вуліца Канстанціна Заслонава,223710,52.7848643,27.5161286
59Б,вуліца Канстанціна Заслонава,223710,52.7842615,27.5144240
7,бульвар Шахцёраў,223710,52.7846689,27.5109676
11,бульвар Шахцёраў,223710,52.7833495,27.5109952
33,Піянерская вуліца,223710,52.7909335,27.5317423
27,Піянерская вуліца,223710,52.7906536,27.5308340
29,Піянерская вуліца,223710,52.7907590,27.5311739
31,Піянерская вуліца,223710,52.7908316,27.5314080
37,Піянерская вуліца,223710,52.7910786,27.5322336
35,Піянерская вуліца,223710,52.7910008,27.5319679
5,Мецявічская шаша,223710,52.7997761,27.5665323
5,Мецявічская шаша,223710,52.7976340,27.5664784
52А,вуліца Канстанціна Заслонава,223710,52.7856750,27.5287395
28А,вуліца Канстанціна Заслонава,223710,52.7890263,27.5343324
28А,Чыгуначная вуліца,223710,52.7916235,27.5353229
31,вуліца Будаўнікоў,223710,52.7934353,27.5361062
2,Паркавы праезд,223710,52.7805846,27.5358565
13А,вуліца Леніна,223710,52.7880387,27.5392600
11,вуліца Будаўнікоў,223710,52.7945104,27.5439690
18,Чыгуначная вуліца,223710,52.7943923,27.5433520
42,вуліца Ленінскага Камсамолу,223710,52.7945523,27.5424341
16,Чыгуначная вуліца,223710,52.7939873,27.5436842
5,Камунальная вуліца,223710,52.7955532,27.5456257
9,вуліца Будаўнікоў,223710,52.7958439,27.5436456
11,вуліца Будаўнікоў,223710,52.7949940,27.5437838
11,вуліца Будаўнікоў,223710,52.7953725,27.5433177
15,вуліца Будаўнікоў,223710,52.7955105,27.5424201
17,вуліца Будаўнікоў,223710,52.7951251,27.5427354
7 к2,вуліца Будаўнікоў,223710,52.7949596,27.5450954
7 к1,вуліца Будаўнікоў,223710,52.7955873,27.5445850
8,Кастрычніцкая вуліца,223710,52.7966586,27.5329836
29,Забродзкая вуліца,223710,52.7988289,27.5327926
25,вуліца Канстанціна Заслонава,223710,52.7909444,27.5369447
21,Чыгуначная вуліца,223710,52.7922801,27.5403456
34А,вуліца Канстанціна Заслонава,223710,52.7882906,27.5322658
32,вуліца Леніна,223710,52.7851499,27.5355671
4,Паркавая вуліца,223710,52.7766500,27.5365323
2,Лясны праезд,223710,52.7726391,27.5292174
19,вуліца Судзілоўскага,223710,52.7861483,27.4951220
13,вуліца Судзілоўскага,223700,52.7861384,27.4961546
15,вуліца Судзілоўскага,223710,52.7854535,27.4961136
11,вуліца Судзілоўскага,223700,52.7861428,27.4972271
4,Уваскрасенская вуліца,223710,52.7852417,27.4951372
2,Уваскрасенская вуліца,223700,52.7845858,27.4951451
3,вуліца Судзілоўскага,223700,52.7862586,27.4996061
9,вуліца Судзілоўскага,223710,52.7853529,27.4981283
7,вуліца Судзілоўскага,223700,52.7858152,27.4979728
28,Маладзёжная вуліца,223700,52.7858156,27.5015200
32,Маладзёжная вуліца,223700,52.7846704,27.5013056
8,вуліца Кавалёва,223710,52.7852589,27.4971741
30А,Маладзёжная вуліца,223710,52.7851734,27.5004103
30,Маладзёжная вуліца,223700,52.7854488,27.4999809
4,вуліца Кавалёва,223700,52.7852474,27.4991183
69,Кастрычніцкая вуліца,223710,52.7903007,27.5104069
3,Маладзёжная вуліца,223710,52.7891246,27.5038759
5,вуліца Каржа,223710,52.7818675,27.5399216
15Б,вуліца Леніна,223710,52.7874535,27.5384734
15,Маладзёжная вуліца,223710,52.7875445,27.5049221
3,вуліца Каржа,223710,52.7782981,27.5353193
19,праспект Міру,223710,52.7851984,27.5259044
52Б,вуліца Канстанціна Заслонава,223710,52.7852760,27.5274180
19,праспект Міру,223710,52.7840508,27.5268669
19,праспект Міру,223710,52.7846241,27.5264103
22,праспект Міру,223710,52.7886509,27.5215668
19,праспект Міру,223710,52.7835720,27.5273030
1,вуліца Судзілоўскага,223700,52.7861582,27.5008478
15А,Паркавая вуліца,223710,52.7794072,27.5400444
30,Вішнёвая вуліца,223710,52.7983808,27.5262700
20,Слуцкая вуліца,223710,52.7953660,27.5178151
32,Вішнёвая вуліца,223710,52.7986640,27.5260074
20,Кветкавая вуліца,223710,52.7964939,27.5201430
9,Садовая вуліца,223710,52.7958649,27.5217920
5,Паўднёвая вуліца,223710,52.7935622,27.5205171
20,Вішнёвая вуліца,223710,52.7978967,27.5273021
12,Забродзкая вуліца,223710,52.7957824,27.5235924
6,Славянская вуліца,223710,52.7972865,27.5200534
10,Кветкавая вуліца,223710,52.7948980,27.5209082
3,Вішнёвая вуліца,223710,52.7955985,27.5271150
14,Вішнёвая вуліца,223710,52.7970404,27.5279847
3,Паўднёвая вуліца,223710,52.7934349,27.5200492
20,Славянская вуліца,223710,52.7993316,27.5267274
33,Вішнёвая вуліца,223710,52.7983285,27.5248666
14,Забродзкая вуліца,223710,52.7962779,27.5252730
18,Палеская вуліца,223710,52.7972411,27.5251028
7,Паўднёвая вуліца,223710,52.7939234,27.5216991
13,Палеская вуліца,223710,52.7960900,27.5245996
30,Кветкавая вуліца,223710,52.7970107,27.5191293
18,Кветкавая вуліца,223710,52.7961710,27.5204281
4,Забродзкая вуліца,223710,52.7953764,27.5217569
6,Вішнёвая вуліца,223710,52.7964595,27.5284582
26,Слуцкая вуліца,223710,52.7957074,27.5175163
25,Садовая вуліца,223710,52.7969436,27.5203387
12,Слуцкая вуліца,223710,52.7944083,27.5192463
30,Палеская вуліца,223710,52.7980116,27.5238440
18,Забродзкая вуліца,223710,52.7965935,27.5262927
31,Кветкавая вуліца,223710,52.7962897,27.5182005
9,Забродзкая вуліца,223710,52.7957407,27.5214139
6,Палеская вуліца,223710,52.7957846,27.5263230
38,Вішнёвая вуліца,223710,52.7990084,27.5257150
22,Кветкавая вуліца,223710,52.7963604,27.5196680
3,Кветкавая вуліца,223710,52.7939050,27.5202431
19,Забродзкая вуліца,223710,52.7975699,27.5275248
8,Садовая вуліца,223710,52.7954305,27.5238848
11,Кветкавая вуліца,223710,52.7946864,27.5201931
5,Вішнёвая вуліца,223710,52.7959429,27.5268226
12,Вішнёвая вуліца,223710,52.7967485,27.5281966
15,Садовая вуліца,223710,52.7963826,27.5215023
14,Слуцкая вуліца,223710,52.7947377,27.5189657
16,Славянская вуліца,223710,52.7982228,27.5228919
38,Славянская вуліца,223710,52.7986729,27.5245742
1,Садовая вуліца,223710,52.7947135,27.5228190
16,Палеская вуліца,223710,52.7969234,27.5253469
7,Палеская вуліца,223710,52.7957444,27.5248920
7,Забродзкая вуліца,223710,52.7958664,27.5206569
9,вуліца Воінаў-Інтэрнацыяналістаў,223710,52.7977102,27.5281092
4,Вішнёвая вуліца,223710,52.7961077,27.5287507
28,Слуцкая вуліца,223710,52.7959991,27.5172737
8,Слуцкая вуліца,223710,52.7940937,27.5195079
26,Палеская вуліца,223710,52.7978904,27.5245734
36,Палеская вуліца,223710,52.7983560,27.5235516
5,вуліца Воінаў-Інтэрнацыяналістаў,223710,52.7969045,27.5287209
5,Палеская вуліца,223710,52.7954500,27.5251340
2,Забродзкая вуліца,223710,52.7953166,27.5213909
4,Палеская вуліца,223710,52.7954327,27.5266155
4,Славянская вуліца,223710,52.7967845,27.5183902
18,Вішнёвая вуліца,223710,52.7974470,27.5271540
6,Садовая вуліца,223710,52.7952758,27.5233974
9,Кветкавая вуліца,223710,52.7943779,27.5204444
29,Вішнёвая вуліца,223710,52.7982011,27.5255858
10,Вішнёвая вуліца,223710,52.7967062,27.5277916
2,Садовая вуліца,223710,52.7951361,27.5241269
13,Садовая вуліца,223710,52.7961636,27.5216237
16,Слуцкая вуліца,223710,52.7945954,27.5185040
14,Славянская вуліца,223710,52.7980599,27.5223964
32,Слуцкая вуліца,223710,52.7965045,27.5174347
13,Паўднёвая вуліца,223710,52.7943616,27.5231115
14,Палеская вуліца,223710,52.7967995,27.5250204
13,Забродзкая вуліца,223710,52.7962742,27.5233071
9,Палеская вуліца,223710,52.7955866,27.5243943
5,Забродзкая вуліца,223710,52.7957006,27.5202506
1,вуліца Воінаў-Інтэрнацыяналістаў,223710,52.7962502,27.5292680
21,Вішнёвая вуліца,223710,52.7975549,27.5261202
11,вуліца Воінаў-Інтэрнацыяналістаў,223710,52.7980546,27.5278168
2,Вішнёвая вуліца,223710,52.7959530,27.5282633
6,Слуцкая вуліца,223710,52.7939632,27.5190420
24,Палеская вуліца,223710,52.7975387,27.5248659
7,вуліца Воінаў-Інтэрнацыяналістаў,223710,52.7972489,27.5284285
1,Палеская вуліца,223710,52.7950981,27.5254265
14,Кветкавая вуліца,223710,52.7952231,27.5206433
2,Палеская вуліца,223710,52.7952780,27.5261280
2,Славянская вуліца,223710,52.7966299,27.5179028
19,вуліца Воінаў-Інтэрнацыяналістаў,223710,52.7988661,27.5277646
21,Кветкавая вуліца,223710,52.7957936,27.5192308
10,Забродзкая вуліца,223710,52.7956202,27.5231050
24,Кветкавая вуліца,223710,52.7966580,27.5194229
7,Кветкавая вуліца,223710,52.7942295,27.5199621
23,Вішнёвая вуліца,223710,52.7978494,27.5258782
16,Вішнёвая вуліца,223710,52.7969479,27.5275080
17,Паўднёвая вуліца,223710,52.7947842,27.5244193
11,Садовая вуліца,223710,52.7960280,27.5211282
12,Славянская вуліца,223710,52.7979223,27.5219334
34,Слуцкая вуліца,223710,52.7963724,27.5169772
11,Паўднёвая вуліца,223710,52.7942070,27.5226240
20,Палеская вуліца,223710,52.7970514,27.5247870
28,Вішнёвая вуліца,223710,52.7985429,27.5267574
22,Слуцкая вуліца,223710,52.7955191,27.5182951
11,Палеская вуліца,223710,52.7959247,27.5241122
16,Кветкавая вуліца,223710,52.7960254,27.5199631
3,вуліца Воінаў-Інтэрнацыяналістаў,223710,52.7965946,27.5289756
15,Вішнёвая вуліца,223710,52.7972031,27.5264126
8,Вішнёвая вуліца,223710,52.7962974,27.5279708
12,Кветкавая вуліца,223710,52.7950295,27.5213795
1,Паўднёвая вуліца,223710,52.7933057,27.5195847
10,Слуцкая вуліца,223710,52.7942585,27.5187897
22,Палеская вуліца,223710,52.7974423,27.5244884
19,Паўднёвая вуліца,223710,52.7949434,27.5249391
26,Славянская вуліца,223710,52.7994937,27.5272148
16,Забродзкая вуліца,223710,52.7964401,27.5257604
8,Палеская вуліца,223710,52.7956224,27.5258356
2,Кветкавая вуліца,223710,52.7942678,27.5214066
13,вуліца Воінаў-Інтэрнацыяналістаў,223710,52.7985142,27.5280571
19,Кветкавая вуліца,223710,52.7954884,27.5195058
8,Забродзкая вуліца,223710,52.7953070,27.5222892
13,Кветкавая вуліца,223710,52.7945459,27.5197108
25,Вішнёвая вуліца,223710,52.7976947,27.5253908
23,Садовая вуліца,223710,52.7970847,27.5208262
15,Паўднёвая вуліца,223710,52.7946295,27.5239319
17,Садовая вуліца,223710,52.7963082,27.5208838
13,Вішнёвая вуліца,223710,52.7967556,27.5267801
29,Кветкавая вуліца,223710,52.7964338,27.5186855
3,Садовая вуліца,223710,52.7945514,27.5223316
26,Вішнёвая вуліца,223710,52.7981912,27.5270498
1,Забродзкая вуліца,223710,52.7952079,27.5185551
36,Вішнёвая вуліца,223710,52.7991705,27.5262024
57,Кветкавая вуліца,223710,52.7940449,27.5207220
17,Вішнёвая вуліца,223710,52.7970484,27.5259252
6,Кветкавая вуліца,223710,52.7947306,27.5216469
7,Вішнёвая вуліца,223710,52.7960136,27.5273323
28,Палеская вуліца,223710,52.7977283,27.5240860
3,Палеская вуліца,223710,52.7952878,27.5246466
24,Славянская вуліца,223710,52.7991418,27.5275072
17,Кветкавая вуліца,223710,52.7950204,27.5199100
35,Вішнёвая вуліца,223710,52.7988350,27.5250616
12,Палеская вуліца,223710,52.7960882,27.5260528
4,Кветкавая вуліца,223710,52.7944299,27.5218941
15,вуліца Воінаў-Інтэрнацыяналістаў,223710,52.7983596,27.5275696
15,Забродзкая вуліца,223710,52.7964269,27.5237481
3,Забродзкая вуліца,223710,52.7953413,27.5190308
7,Садовая вуліца,223710,52.7950142,27.5225783
27,Вішнёвая вуліца,223710,52.7980390,27.5250984
30,Слуцкая вуліца,223710,52.7961476,27.5177437
21,Садовая вуліца,223710,52.7967871,27.5210737
4,Садовая вуліца,223710,52.7949739,27.5236394
2,Слуцкая вуліца,223710,52.7936213,27.5193298
34,Палеская вуліца,223710,52.7985181,27.5240390
9,Вішнёвая вуліца,223710,52.7964115,27.5269854
10,Славянская вуліца,223710,52.7977797,27.5214787
27,Кветкавая вуліца,223710,52.7961332,27.5189306
24,Вішнёвая вуліца,223710,52.7980364,27.5265624
18,Слуцкая вуліца,223710,52.7950517,27.5180926
34,Вішнёвая вуліца,223710,52.7988188,27.5264948
26,Кветкавая вуліца,223710,52.7968051,27.5198780
1,Паўднёвая вуліца,223710,52.7937169,27.5210046
19,Вішнёвая вуліца,223710,52.7973928,27.5256328
22,Вішнёвая вуліца,223710,52.7977346,27.5268147
8,Славянская вуліца,223710,52.7974442,27.5205234
15Г,Палеская вуліца,223710,52.7976543,27.5230867
8,Кветкавая вуліца,223710,52.7945759,27.5211595
1,Вішнёвая вуліца,223710,52.7957532,27.5276025
22,Славянская вуліца,223710,52.7989872,27.5270198
15,Кветкавая вуліца,223710,52.7948689,27.5194329
31,Вішнёвая вуліца,223710,52.7984832,27.5253540
10,Палеская вуліца,223710,52.7959336,27.5255654
9,Паўднёвая вуліца,223710,52.7940781,27.5221865
17,вуліца Воінаў-Інтэрнацыяналістаў,223710,52.7987040,27.5272772
23,Кветкавая вуліца,223710,52.7956540,27.5187484
30,Кветкавая вуліца,223710,52.7971509,27.5195925
5,Садовая вуліца,223710,52.7948595,27.5220909
24,Слуцкая вуліца,223710,52.7958500,27.5179913
19,Садовая вуліца,223710,52.7966278,27.5206112
32,Палеская вуліца,223710,52.7981663,27.5243314
11,Вішнёвая вуліца,223710,52.7962491,27.5265851
25,Кветкавая вуліца,223710,52.7959876,27.5184656
33,Славянская вуліца,223710,52.7996045,27.5251852
8,Кулакоўская вуліца,223710,52.7982396,27.5173402
44,Кулакоўская вуліца,223710,52.7996883,27.5231787
27,Славянская вуліца,223710,52.7995346,27.5240079
60,Кулакоўская вуліца,223710,52.8003231,27.5252306
39,Славянская вуліца,223710,52.7997634,27.5257225
30,Кулакоўская вуліца,223710,52.7992538,27.5207290
48,Слуцкая вуліца,223710,52.7977422,27.5157536
38,Кулакоўская вуліца,223710,52.7995612,27.5217417
29,Славянская вуліца,223710,52.7996490,27.5244322
28,Кулакоўская вуліца,223710,52.7989740,27.5209566
62,Кулакоўская вуліца,223710,52.8006197,27.5249985
27,вуліца Воінаў-Інтэрнацыяналістаў,223710,52.8003592,27.5265035
46,Слуцкая вуліца,223710,52.7979145,27.5163168
17,Палеская вуліца,223710,52.7990017,27.5222120
64,Кулакоўская вуліца,223710,52.8007511,27.5255020
66,Кулакоўская вуліца,223710,52.8004739,27.5257419
34,Кулакоўская вуліца,223710,52.7991209,27.5214762
21,вуліца Воінаў-Інтэрнацыяналістаў,223710,52.8000832,27.5267606
21,Славянская вуліца,223710,52.7992484,27.5228920
70,Кулакоўская вуліца,223710,52.8009191,27.5260393
29,Садовая вуліца,223710,52.7978473,27.5195773
48,Кулакоўская вуліца,223710,52.8000615,27.5235337
19,Славянская вуліца,223710,52.7989599,27.5231355
25,Славянская вуліца,223710,52.7992891,27.5242477
20,Кулакоўская вуліца,223710,52.7984120,27.5190889
31,Садовая вуліца,223710,52.7981430,27.5193353
42,Кулакоўская вуліца,223710,52.7995286,27.5226538
50,Кулакоўская вуліца,223710,52.7998142,27.5237251
56,Кулакоўская вуліца,223710,52.8004461,27.5244702
11,Славянская вуліца,223710,52.7975366,27.5185257
18,Кулакоўская вуліца,223710,52.7987009,27.5188659
27,Садовая вуліца,223710,52.7980242,27.5201063
36,Слуцкая вуліца,223710,52.7969054,27.5164596
12,Кулакоўская вуліца,223710,52.7981128,27.5180611
31,Славянская вуліца,223710,52.7994061,27.5246020
13,Славянская вуліца,223710,52.7978301,27.5182837
26,Кулакоўская вуліца,223710,52.7990933,27.5201715
32,Кулакоўская вуліца,223710,52.7994053,27.5211880
22,Кулакоўская вуліца,223710,52.7985890,27.5196597
44,Слуцкая вуліца,223710,52.7976302,27.5165777
40,Слуцкая вуліца,223710,52.7971965,27.5162290
3,Славянская вуліца,223710,52.7972300,27.5175301
10,Кулакоўская вуліца,223710,52.7983924,27.5178343
52,Кулакоўская вуліца,223710,52.7999856,27.5240746
20,Садовая вуліца,223710,52.7988158,27.5204218
58,Кулакоўская вуліца,223710,52.8001604,27.5247205
17,Славянская вуліца,223710,52.7977112,27.5190737
36,Кулакоўская вуліца,223710,52.7992814,27.5219807
33,Садовая вуліца,223710,52.7983153,27.5198757
4,Кулакоўская вуліца,223710,52.7977832,27.5170532
1,Славянская вуліца,223710,52.7970845,27.5170152
5,Славянская вуліца,223710,52.7975148,27.5172881
46,Кулакоўская вуліца,223710,52.7999621,27.5229580
14,Кулакоўская вуліца,223710,52.7982668,27.5185863
18,Садовая вуліца,223710,52.7985407,27.5206342
23,вуліца Воінаў-Інтэрнацыяналістаў,223710,52.7999138,27.5261988
24,Кулакоўская вуліца,223710,52.7988731,27.5194177
42,Слуцкая вуліца,223710,52.7974509,27.5160032
2,Кулакоўская вуліца,223710,52.7980742,27.5168112
9,Славянская вуліца,223710,52.7973822,27.5180553
40,Кулакоўская вуліца,223710,52.7998033,27.5224247
54,Кулакоўская вуліца,223710,52.8002617,27.5239340
68,вуліца Воінаў-Інтэрнацыяналістаў,223710,52.8006362,27.5262646
35,Славянская вуліца,223710,52.7998883,27.5249500
15,Славянская вуліца,223710,52.7979840,27.5188279
6,Кулакоўская вуліца,223710,52.7979462,27.5175746
38,Слуцкая вуліца,223710,52.7973643,27.5167808
16,Кулакоўская вуліца,223710,52.7985579,27.5183595
25,вуліца Воінаў-Інтэрнацыяналістаў,223710,52.8002001,27.5259717
37,Славянская вуліца,223710,52.8000545,27.5254631
7,Славянская вуліца,223710,52.7976778,27.5177982
23,Славянская вуліца,223710,52.7991268,27.5236634
5,вуліца Будаўнікоў,223710,52.7963542,27.5453746
6,Працоўная вуліца,223710,52.7923882,27.5295341
6,Чыгуначная вуліца,223710,52.7952679,27.5463044
12А,Чыгуначная вуліца,223710,52.7944186,27.5450929
6,Паўночная вуліца,223710,52.7975282,27.5414504
69А,вуліца Канстанціна Заслонава,223710,52.7848358,27.5097226
24А,Чыгуначная вуліца,223710,52.7929132,27.5363378
11,Паркавая вуліца,223710,52.7794483,27.5386777
4,вуліца Каржа,223710,52.7812732,27.5370902
9А,вуліца Ленінскага Камсамолу,223710,52.7886170,27.5438427
105,Кастрычніцкая вуліца,223710,52.7905777,27.4988443
103,Кастрычніцкая вуліца,223710,52.7897047,27.5003294
14,Маладзёжная вуліца,223710,52.7887457,27.4998423
67,Кастрычніцкая вуліца,223710,52.7904329,27.5122029
3,Лясны праезд,223710,52.7687318,27.5299939
5-2,Кальцавая вуліца,223710,52.7940333,27.5153076
5,праспект Міру,223710,52.7911200,27.5211569
21А,Чыгуначная вуліца,223710,52.7924323,27.5421155
30,вуліца Казлова,223710,52.7839552,27.5379863
30,вуліца Казлова,223710,52.7835836,27.5379816
8,вуліца Багамолава,223710,52.7875290,27.5172248
12,Маладзёжная вуліца,223710,52.7882889,27.5004881
12,вуліца Кавалёва,223700,52.7846029,27.4960571
4,вуліца Судзілоўскага,223710,52.7876862,27.4998170
1,вуліца Кавалёва,223710,52.7836353,27.5007729
105А,Кастрычніцкая вуліца,223710,52.7902806,27.4994135
8,Маладзёжная вуліца,223710,52.7900091,27.5014086
72,вуліца Канстанціна Заслонава,223710,52.7821848,27.5143000
2Б,вуліца Максіма Горкага,223710,52.7888280,27.5543430
15,Кастрычніцкая вуліца,223710,52.7917575,27.5126560
29,вуліца Канстанціна Заслонава,223710,52.7896612,27.5329943
107,Кастрычніцкая вуліца,223710,52.7902885,27.4982709
109,Кастрычніцкая вуліца,223710,52.7905900,27.4977058
111,Кастрычніцкая вуліца,223710,52.7903043,27.4970297
10,Маладзёжная вуліца,223710,52.7888157,27.5014172
8А,вуліца Судзілоўскага,223710,52.7873251,27.4967719
10,вуліца Воінаў-Інтэрнацыяналістаў,223710,52.7978221,27.5303373
113,Кастрычніцкая вуліца,223710,52.7905638,27.4957731
74,вуліца Канстанціна Заслонава,223710,52.7820532,27.5131613
32,Любанская шаша,223710,52.8237758,27.5957684
5Б-1,Мецявічская шаша,223710,52.8000292,27.5654794
1А,вуліца Казлова,223707,52.7876530,27.5544277
19Б,вуліца Леніна,223710,52.7879465,27.5413123
16А,Паркавая вуліца,223710,52.7789290,27.5406836
49А,вуліца Леніна,223710,52.7820288,27.5465423
51А,вуліца Леніна,223710,52.7834033,27.5476882
27,вуліца Леніна,223710,52.7863885,27.5414069
95,Кастрычніцкая вуліца,223710,52.7905368,27.5045132
2,вуліца Судзілоўскага,223700,52.7871504,27.5007689
16,Маладзёжная вуліца,223700,52.7875754,27.5014595
24Б,Набярэжная вуліца,223706,52.7764696,27.5410650
3,праспект Міру,223710,52.7914011,27.5213469
4,Падольская вуліца,223710,52.7881519,27.4957957
6,Падольская вуліца,223710,52.7885683,27.4965345
12,вуліца Казлова,223710,52.7863117,27.5469698
4А,вуліца Судзілоўскага,223710,52.7871976,27.4987081
6А,вуліца Судзілоўскага,223710,52.7873561,27.4977376
10,вуліца Кавалёва,223700,52.7845992,27.4972996
111А,Кастрычніцкая вуліца,223710,52.7897244,27.4961089
2,вуліца Кавалёва,223700,52.7845535,27.5002804
34,Маладзёжная вуліца,223710,52.7828558,27.5012075
5,вуліца Кавалёва,223710,52.7828715,27.4999999
6,вуліца Кавалёва,223710,52.7846308,27.4989203
9,вуліца Кавалёва,223710,52.7828679,27.4984901
17Б,вуліца Багамолава,223710,52.7862656,27.5060881
23А,вуліца Ленінскага Камсамолу,223710,52.7901676,27.5440800
29,вуліца Будаўнікоў,223710,52.7932772,27.5369678
27,вуліца Будаўнікоў,223710,52.7928760,27.5373134
8,Падольская вуліца,223710,52.7889916,27.4960402
3,вуліца Кавалёва,223710,52.7835795,27.4992580
18А,Садовая вуліца,223710,52.7982241,27.5209783
16Б,Садовая вуліца,223710,52.7972517,27.5217616
11,Забродзкая вуліца,223710,52.7960675,27.5227841
12Б,вуліца Казлова,223710,52.7864000,27.5456688
12,вуліца Воінаў-Інтэрнацыяналістаў,223710,52.7993848,27.5303604
12,Падольская вуліца,223710,52.7886942,27.4949598
18,Падольская вуліца,223710,52.7900743,27.4949397
10В,вуліца Будаўнікоў,223710,52.7970816,27.5430644
21,вуліца Кавалёва,223710,52.7836407,27.4959005
23,вуліца Кавалёва,223710,52.7833282,27.4949840
22В,вуліца Багамолава,223700,52.7881997,27.5068877
17А,вуліца Казлова,223710,52.7851084,27.5502573
18А,вуліца Ленінскага Камсамолу,223710,52.7893998,27.5470291
70,вуліца Канстанціна Заслонава,223710,52.7825087,27.5154895
47,вуліца Канстанціна Заслонава,223710,52.7858741,27.5216127
5,Мецявічская шаша,223710,52.7986914,27.5649754
5,Мецявічская шаша,223710,52.7982756,27.5648457
5,Мецявічская шаша,223710,52.7986640,27.5654907
36,Маладзёжная вуліца,223710,52.7820058,27.5004530
38,Маладзёжная вуліца,223710,52.7819974,27.4979529
5Б,Мецявічская шаша,223710,52.7989695,27.5639291
4,Кальцавая вуліца,223710,52.7945535,27.5148612
6,Кальцавая вуліца,223710,52.7944986,27.5148700
48А,Чыгуначная вуліца,223710,52.7892843,27.5276350
43,вуліца Казлова,223710,52.7824930,27.5347049
11,вуліца Леніна,223710,52.7878839,27.5424433
49А,вуліца Леніна,223710,52.7826050,27.5458509
19,вуліца Кавалёва,223703,52.7825758,27.4958646
6А,Кастрычніцкая вуліца,223710,52.7978790,27.5335076
1А/1,вуліца Казлова,223707,52.7879547,27.5552819
74,вуліца Казлова,223710,52.7822038,27.5169511
45А,Кастрычніцкая вуліца,223710,52.7896780,27.5161168
16А,Садовая вуліца,223710,52.7970235,27.5220272
15Ж,Палеская вуліца,223710,52.7974698,27.5226250
15Д,Палеская вуліца,223710,52.7974053,27.5233540
15Е,Палеская вуліца,223710,52.7972437,27.5226983
17,Забродзкая вуліца,223710,52.7966156,27.5242809
15В,Палеская вуліца,223710,52.7971930,27.5236802
15Б,Палеская вуліца,223710,52.7970451,27.5231954
15,Палеская вуліца,223710,52.7968700,27.5238312
15А,Палеская вуліца,223710,52.7967843,27.5233649
14,Садовая вуліца,223710,52.7968952,27.5227106
16,Садовая вуліца,223710,52.7967772,27.5221059
10,Садовая вуліца,223710,52.7963697,27.5224244
12,Садовая вуліца,223710,52.7966132,27.5229535
67В,вуліца Канстанціна Заслонава,223710,52.7840769,27.5097474
1А/2,вуліца Казлова,223707,52.7882360,27.5562307
93А,вуліца Канстанціна Заслонава,223710,52.7829325,27.5034520
16,вуліца 50 год Перамогі,223710,52.7509569,27.4529340
21А,Славянская вуліца,223710,52.7993714,27.5236226
6,Забродзкая вуліца,223710,52.7953192,27.5219589
7,Васкрасенская вуліца,223703,52.7843236,27.4927261
11,Рабінавая вуліца,223710,52.8072827,27.4785248
15,Васкрасенская вуліца,223703,52.7851441,27.4927838
21,вуліца Судзілоўскага,223703,52.7860163,27.4925451
11,Васкрасенская вуліца,223703,52.7847796,27.4933335
1А,Набярэжная вуліца,223707,52.7870253,27.5554116
1Б,Набярэжная вуліца,223707,52.7873225,27.5566081
65,Мецявічская шаша,223710,52.7972132,27.5624374
65,Мецявічская шаша,223710,52.7968467,27.5639646
3,Васкрасенская вуліца,223703,52.7837749,27.4927784
55,вуліца Леніна,223710,52.7800536,27.5464517
49,вуліца Леніна,223710,52.7809440,27.5457293
43,вуліца Леніна,223710,52.7818093,27.5450057
35,вуліца Леніна,223710,52.7826749,27.5442977
32,вуліца Леніна,223710,52.7825177,27.5438755
42,вуліца Леніна,223710,52.7778083,27.5446153
1,Васкрасенская вуліца,223703,52.7833937,27.4932915
5,Васкрасенская вуліца,223703,52.7833776,27.4920817
8,вуліца Алены Сцемпкоўскай,223703,52.7846074,27.4872322
10,вуліца Алены Сцемпкоўскай,223703,52.7843773,27.4879495
2,вуліца Алены Сцемпкоўскай,223703,52.7834284,27.4872208
6,вуліца Алены Сцемпкоўскай,223703,52.7834280,27.4884098
9,Васкрасенская вуліца,223703,52.7832504,27.4902868
24а,Любанская шаша,223710,52.8157847,27.5679337
10,вуліца Судзілоўскага,223703,52.7872272,27.4926277
3,Лясная вуліца,223710,52.7790301,27.5326178
93,Кастрычніцкая вуліца,223710,52.7897095,27.5051656
7,Кастрычніцкая вуліца,223710,52.7947206,27.5349308
3,Кастрычніцкая вуліца,223710,52.7953646,27.5359830
11,вуліца Леніна,223710,52.7889051,27.5416948
1,вуліца Багамолава,223710,52.7863613,27.5223746
24,вуліца Будаўнікоў,223710,52.7946477,27.5379707
9,Маладзёжная вуліца,223710,52.7885468,27.5042904
7,вуліца Будаўнікоў,223710,52.7896891,27.5250129
17,вуліца Багамолава,223710,52.7858378,27.5075136
63,Кастрычніцкая вуліца,223710,52.7889232,27.5126610
2,Паркавая вуліца,223710,52.7767405,27.5347539
16,Паркавая вуліца,223710,52.7782450,27.5396020
57,вуліца Леніна,223710,52.7791059,27.5470606
41,вуліца Казлова,223710,52.7833911,27.5431946
